postcode,name,state,latitude,longitude
1751,Halden,OF,59.1248,11.3875
1752,Halden,OF,59.1248,11.3875
1753,Halden,OF,59.1248,11.3875
1754,Halden,OF,59.1248,11.3875
1756,Halden,OF,59.1248,11.3875
1757,Halden,OF,59.1248,11.3875
1758,Halden,OF,59.1248,11.3875
1760,Halden,OF,59.1248,11.3875
1761,Halden,OF,59.1248,11.3875
1763,Halden,OF,59.19,11.3387
1764,Halden,OF,59.1809,11.4791
1765,Halden,OF,59.0162,11.45
1766,Halden,OF,59.9889,11.5386
1767,Halden,OF,59.1248,11.3875
1768,Halden,OF,59.1248,11.3875
1769,Halden,OF,59.1248,11.3875
1771,Halden,OF,59.1248,11.3875
1772,Halden,OF,59.1248,11.3875
1776,Halden,OF,59.1248,11.3875
1777,Halden,OF,59.1248,11.3875
1778,Halden,OF,59.1248,11.3875
1779,Halden,OF,59.1248,11.3875
1781,Halden,OF,59.1248,11.3875
1782,Halden,OF,59.1248,11.3875
1783,Halden,OF,59.1248,11.3875
1784,Halden,OF,59.1248,11.3875
1785,Halden,OF,59.1248,11.3875
1786,Halden,OF,59.1248,11.3875
1787,Berg I Østfold,OF,59.1248,11.3875
1788,Berg I Østfold,OF,59.1248,11.3875
1789,Berg I Østfold,OF,59.1248,11.3875
1790,Tistedal,OF,59.1264,11.4434
1791,Tistedal,OF,59.1264,11.4434
1792,Tistedal,OF,59.1264,11.4434
1793,Tistedal,OF,59.1264,11.4434
1794,Sponvika,OF,59.1,11.2333
1796,Kornsjø,OF,58.95,11.65
1501,Moss,OF,59.434,10.6577
1502,Moss,OF,59.434,10.6577
1503,Moss,OF,59.434,10.6577
1506,Moss,OF,59.434,10.6577
1508,Moss,OF,59.434,10.6577
1509,Moss,OF,59.434,10.6577
1510,Moss,OF,59.434,10.6577
1511,Moss,OF,59.434,10.6577
1512,Moss,OF,59.434,10.6577
1513,Moss,OF,59.434,10.6577
1514,Moss,OF,59.4835,10.6504
1515,Moss,OF,59.434,10.6577
1516,Moss,OF,59.434,10.6577
1517,Moss,OF,59.434,10.6577
1518,Moss,OF,59.434,10.6577
1519,Moss,OF,59.434,10.6577
1523,Moss,OF,59.434,10.6577
1524,Moss,OF,59.434,10.6577
1530,Moss,OF,59.434,10.6577
1531,Moss,OF,59.434,10.6577
1532,Moss,OF,59.434,10.6577
1533,Moss,OF,59.434,10.6577
1534,Moss,OF,59.434,10.6577
1535,Moss,OF,59.434,10.6577
1536,Moss,OF,59.434,10.6577
1537,Moss,OF,59.434,10.6577
1538,Moss,OF,59.472,10.6938
1539,Moss,OF,59.4846,10.6931
1596,Moss,OF,59.434,10.6577
1597,Moss,OF,59.434,10.6577
1598,Moss,OF,59.434,10.6577
1599,Moss,OF,59.4514,10.7268
1701,Sarpsborg,OF,59.2839,11.1096
1702,Sarpsborg,OF,59.2839,11.1096
1703,Sarpsborg,OF,59.2839,11.1096
1705,Sarpsborg,OF,59.2839,11.1096
1706,Sarpsborg,OF,59.2839,11.1096
1707,Sarpsborg,OF,59.2839,11.1096
1708,Sarpsborg,OF,59.3779,11.1599
1709,Sarpsborg,OF,59.2839,11.1096
1710,Sarpsborg,OF,59.2839,11.1096
1711,Sarpsborg,OF,59.2839,11.1096
1712,Grålum,OF,59.2753,11.0715
1713,Grålum,OF,59.2753,11.0715
1715,Yven,OF,59.2753,11.0715
1718,Greåker,OF,59.2667,11.0333
1719,Greåker,OF,59.2667,11.0333
1720,Greåker,OF,59.2667,11.0333
1721,Sarpsborg,OF,59.2839,11.1096
1722,Sarpsborg,OF,59.2839,11.1096
1723,Sarpsborg,OF,59.2839,11.1096
1724,Sarpsborg,OF,59.2839,11.1096
1725,Sarpsborg,OF,59.2839,11.1096
1726,Sarpsborg,OF,59.2839,11.1096
1727,Sarpsborg,OF,59.2839,11.1096
1730,Ise,OF,59.3,11.2333
1733,Hafslundsøy,OF,59.2916,11.1499
1734,Hafslundsøy,OF,59.2919,11.1483
1735,Varteig,OF,59.3504,11.1882
1738,Borgenhaugen,OF,59.2665,11.1463
1739,Borgenhaugen,OF,59.2663,11.1767
1740,Borgenhaugen,OF,59.2333,11.2
1742,Klavestadhaugen,OF,59.2333,11.2
1743,Klavestadhaugen,OF,59.2333,11.2
1745,Skjeberg,OF,59.2333,11.2
1746,Skjeberg,OF,59.2333,11.2
1747,Skjeberg,OF,59.2333,11.2
1601,Fredrikstad,OF,59.2181,10.9298
1602,Fredrikstad,OF,59.2181,10.9298
1603,Fredrikstad,OF,59.2181,10.9298
1604,Fredrikstad,OF,59.2181,10.9298
1605,Fredrikstad,OF,59.2181,10.9298
1606,Fredrikstad,OF,59.2181,10.9298
1607,Fredrikstad,OF,59.2181,10.9298
1608,Fredrikstad,OF,59.2181,10.9298
1609,Fredrikstad,OF,59.2181,10.9298
1610,Fredrikstad,OF,59.2181,10.9298
1612,Fredrikstad,OF,59.2181,10.9298
1613,Fredrikstad,OF,59.2181,10.9298
1614,Fredrikstad,OF,59.2181,10.9298
1615,Fredrikstad,OF,59.2181,10.9298
1616,Fredrikstad,OF,59.2181,10.9298
1617,Fredrikstad,OF,59.2181,10.9298
1618,Fredrikstad,OF,59.234,10.9836
1619,Fredrikstad,OF,59.2181,10.9298
1620,Gressvik,OF,59.2167,10.9
1621,Gressvik,OF,59.2167,10.9
1624,Gressvik,OF,59.2167,10.9
1625,Manstad,OF,59.2647,10.7881
1626,Manstad,OF,59.269,10.7692
1628,Engelsviken,OF,59.2508,10.7369
1629,Gamle Fredrikstad,OF,59.2042,10.9557
1630,Gamle Fredrikstad,OF,59.2132,10.9389
1632,Gamle Fredrikstad,OF,59.2132,10.9389
1633,Gamle Fredrikstad,OF,59.2132,10.9389
1634,Gamle Fredrikstad,OF,59.1849,11.0501
1636,Gamle Fredrikstad,OF,59.2132,10.9389
1637,Gamle Fredrikstad,OF,59.2132,10.9389
1638,Gamle Fredrikstad,OF,59.2173,11.0084
1639,Gamle Fredrikstad,OF,59.212,11.003
1650,Sellebakk,OF,59.2333,11
1651,Sellebakk,OF,59.2333,11
1653,Sellebakk,OF,59.2333,11
1654,Sellebakk,OF,59.2333,11
1655,Sellebakk,OF,59.2183,11.0615
1657,Torp,OF,59.25,11.0333
1658,Torp,OF,59.25,11.0333
1659,Torp,OF,59.25,11.0333
1661,Rolvsøy,OF,59.2457,10.9967
1662,Rolvsøy,OF,59.2552,10.9999
1663,Rolvsøy,OF,59.2538,10.9916
1664,Rolvsøy,OF,59.2632,11.0046
1665,Rolvsøy,OF,59.2679,10.9972
1666,Rolvsøy,OF,59.2655,11.0199
1667,Rolvsøy,OF,59.293,10.9964
1670,Kråkerøy,OF,59.2,10.9333
1671,Kråkerøy,OF,59.2,10.9333
1672,Kråkerøy,OF,59.2,10.9333
1673,Kråkerøy,OF,59.2,10.9333
1675,Kråkerøy,OF,59.2,10.9333
1676,Kråkerøy,OF,59.1467,10.9403
1678,Kråkerøy,OF,59.2,10.9333
1679,Kråkerøy,OF,59.2,10.9333
1680,Skjærhalden,OF,59.0253,11.0368
1682,Skjærhalden,OF,59.0253,11.0368
1683,Vesterøy,OF,59.1102,10.9096
1684,Vesterøy,OF,59.1025,10.8716
1690,Herføl,OF,59,11.05
1692,Nedgården,OF,59,11.05
1798,Aremark,OF,59.2386,11.6934
1799,Aremark,OF,59.2462,11.6828
1870,Ørje,OF,59.4802,11.6602
1871,Ørje,OF,59.4802,11.6602
1875,Otteid,OF,59.3518,11.7145
1950,Rømskog,OF,59.7497,11.8112
1860,Trøgstad,OF,59.6407,11.3159
1861,Trøgstad,OF,59.6408,11.3164
1866,Båstad,OF,59.6997,11.2981
1867,Båstad,OF,59.705,11.2945
1804,Spydeberg,OF,59.6171,11.0856
1820,Spydeberg,OF,59.6171,11.0856
1801,Askim,OF,59.5833,11.1629
1802,Askim,OF,59.5833,11.1629
1803,Askim,OF,59.5833,11.1629
1807,Askim,OF,59.5833,11.1629
1808,Askim,OF,59.5833,11.1629
1809,Askim,OF,59.5833,11.1629
1811,Askim,OF,59.5833,11.1629
1812,Askim,OF,59.5833,11.1629
1813,Askim,OF,59.5833,11.1629
1814,Askim,OF,59.5833,11.1629
1815,Askim,OF,59.5833,11.1629
1830,Askim,OF,59.5833,11.1629
1831,Askim,OF,59.5833,11.1629
1832,Askim,OF,59.5833,11.1629
1850,Mysen,OF,59.5535,11.3258
1851,Mysen,OF,59.5535,11.3258
1859,Slitu,OF,59.5854,11.2615
1878,Hærland,OF,59.5533,11.4237
1880,Eidsberg,OF,59.5167,11.2667
1806,Skiptvet,OF,59.4736,11.1615
1816,Skiptvet,OF,59.4692,11.1622
1890,Rakkestad,OF,59.4251,11.3453
1891,Rakkestad,OF,59.4251,11.3453
1892,Degernes,OF,59.3533,11.4226
1893,Degernes,OF,59.3563,11.422
1640,Råde,OF,59.35,10.85
1641,Råde,OF,59.35,10.85
1642,Saltnes,OF,59.2875,10.7481
1520,Moss,OF,59.434,10.6577
1521,Moss,OF,59.434,10.6577
1522,Moss,OF,59.434,10.6577
1525,Moss,OF,59.434,10.6577
1526,Moss,OF,59.434,10.6577
1528,Moss,OF,59.434,10.6577
1529,Moss,OF,59.434,10.6577
1560,Larkollen,OF,59.3339,10.6656
1570,Dilling,OF,59.4,10.7
1580,Rygge,OF,59.3817,10.7514
1581,Rygge,OF,59.3817,10.7514
1590,Rygge Flystasjon,OF,59.4372,10.6862
1591,Sperrebotn,OF,59.45,10.8
1592,Våler I Østfold,OF,59.4372,10.6862
1593,Svinndal,OF,59.4236,11.0167
1805,Tomter,OF,59.65,11
1823,Knapstad,OF,59.6333,11.05
1825,Tomter,OF,59.65,11
1827,Hobøl,OF,59.5587,10.8456
1540,Vestby,AK,59.6024,10.7467
1541,Vestby,AK,59.6024,10.7467
1545,Hvitsten,AK,59.5983,10.6569
1550,Hølen,AK,59.5397,10.7397
1555,Son,AK,59.5231,10.6892
1556,Son,AK,59.5231,10.6892
1400,Ski,AK,59.7195,10.8358
1401,Ski,AK,59.7195,10.8358
1402,Ski,AK,59.7195,10.8358
1403,Langhus,AK,59.7089,10.8586
1404,Siggerud,AK,59.7912,10.8813
1405,Langhus,AK,59.7089,10.8586
1406,Ski,AK,59.7195,10.8358
1408,Kråkstad,AK,59.7089,10.8586
1409,Skotbu,AK,59.6667,10.95
1407,Vinterbro,AK,59.7395,10.7709
1429,Vinterbro,AK,59.7397,10.7711
1430,Ås,AK,59.6647,10.7947
1431,Ås,AK,59.6647,10.7947
1432,Ås,AK,59.6647,10.7947
1440,Drøbak,AK,59.6633,10.6297
1441,Drøbak,AK,59.6633,10.6297
1442,Drøbak,AK,59.6633,10.6297
1443,Oscarsborg,AK,59.6633,10.6297
1445,Heer,AK,59.6633,10.6297
1455,Nordre Frogn,AK,59.7364,10.7154
1450,Nesoddtangen,AK,59.8655,10.6594
1451,Nesoddtangen,AK,59.8655,10.6594
1453,Bjørnemyr,AK,59.7992,10.6231
1454,Fagerstrand,AK,59.7347,10.5931
1457,Fagerstrand,AK,59.7347,10.5931
1458,Fjellstrand,AK,59.7953,10.6106
1410,Kolbotn,AK,59.8106,10.8039
1411,Kolbotn,AK,59.8106,10.8039
1412,Sofiemyr,AK,59.7921,10.7727
1413,Tårnåsen,AK,59.819,10.8152
1414,Trollåsen,AK,59.7921,10.7727
1415,Oppegård,AK,59.7671,10.8111
1416,Oppegård,AK,59.774,10.8032
1417,Sofiemyr,AK,59.7921,10.7727
1419,Oppegård,AK,59.774,10.8032
1420,Svartskog,AK,59.7789,10.7344
1421,Trollåsen,AK,59.8173,10.7775
1300,Sandvika,AK,59.8907,10.5277
1301,Sandvika,AK,59.8907,10.5277
1302,Sandvika,AK,59.8907,10.5277
1303,Sandvika,AK,59.8907,10.5277
1304,Sandvika,AK,59.8907,10.5277
1305,Haslum,AK,59.9175,10.5609
1306,Bærum Postterminal,AK,59.9006,10.6148
1309,Rud,AK,59.9066,10.498
1311,Høvikodden,AK,59.8886,10.5534
1312,Slependen,AK,59.8783,10.5047
1313,Vøyenenga,AK,59.9081,10.4774
1314,Vøyenenga,AK,59.9084,10.4761
1316,Eiksmarka,AK,59.9572,10.6079
1317,Bærums Verk,AK,59.9468,10.5034
1318,Bekkestua,AK,59.952,10.5557
1319,Bekkestua,AK,59.952,10.5557
1321,Stabekk,AK,59.9075,10.6056
1322,Høvik,AK,59.9,10.5833
1323,Høvik,AK,59.9,10.5833
1324,Lysaker,AK,59.9099,10.6355
1325,Lysaker,AK,59.9099,10.6355
1326,Lysaker,AK,59.9099,10.6355
1327,Lysaker,AK,59.9099,10.6355
1328,Høvik,AK,59.9,10.5833
1329,Lommedalen,AK,59.9556,10.4805
1330,Fornebu,AK,59.9022,10.6292
1331,Fornebu,AK,59.9022,10.6292
1332,Østerås,AK,59.9437,10.6074
1333,Kolsås,AK,59.9167,10.5167
1334,Rykkinn,AK,59.9242,10.4859
1335,Snarøya,AK,59.8819,10.6107
1336,Sandvika,AK,59.8907,10.5277
1337,Sandvika,AK,59.8907,10.5277
1338,Sandvika,AK,59.8907,10.5277
1339,Vøyenenga,AK,59.9082,10.4762
1340,Skui,AK,59.9275,10.4475
1341,Slependen,AK,59.8853,10.5029
1342,Gjettum,AK,59.9087,10.5338
1344,Haslum,AK,59.915,10.5607
1346,Gjettum,AK,59.906,10.5215
1348,Rykkinn,AK,59.9275,10.4475
1349,Rykkinn,AK,59.9275,10.4475
1350,Lommedalen,AK,59.9556,10.4805
1351,Rud,AK,59.9084,10.4932
1352,Kolsås,AK,59.9167,10.5167
1353,Bærums Verk,AK,59.9468,10.5034
1354,Bærums Verk,AK,59.9468,10.5034
1356,Bekkestua,AK,59.9185,10.5787
1357,Bekkestua,AK,59.9185,10.5872
1358,Jar,AK,59.9167,10.6167
1359,Eiksmarka,AK,59.9572,10.6079
1360,Fornebu,AK,59.9022,10.6292
1361,Østerås,AK,59.9049,10.6147
1362,Hosle,AK,59.9049,10.6147
1363,Høvik,AK,59.9,10.5833
1364,Fornebu,AK,59.9022,10.6292
1365,Blommenholm,AK,59.8971,10.5549
1366,Lysaker,AK,59.9099,10.6355
1367,Snarøya,AK,59.9049,10.6147
1368,Stabekk,AK,59.9075,10.6056
1369,Stabekk,AK,59.9075,10.6056
1371,Asker,AK,59.8333,10.4372
1372,Asker,AK,59.8333,10.4372
1373,Asker,AK,59.8333,10.4372
1375,Billingstad,AK,59.8481,10.4589
1376,Billingstad,AK,59.8481,10.4589
1377,Billingstad,AK,59.8481,10.4589
1378,Nesbru,AK,59.8703,10.4914
1379,Nesbru,AK,59.8703,10.4914
1380,Heggedal,AK,59.7842,10.4419
1381,Vettre,AK,59.815,10.4673
1383,Asker,AK,59.8333,10.4372
1384,Asker,AK,59.8333,10.4372
1385,Asker,AK,59.8203,10.3814
1386,Asker,AK,59.8333,10.4372
1387,Asker,AK,59.8333,10.4372
1388,Borgen,AK,59.8263,10.42
1389,Heggedal,AK,59.7842,10.4419
1390,Vollen,AK,59.8077,10.4849
1391,Vollen,AK,59.8077,10.4849
1392,Vettre,AK,59.8305,10.4749
1393,Vollen,AK,59.8077,10.4849
1394,Nesbru,AK,59.8703,10.4914
1395,Hvalstad,AK,59.8567,10.466
1396,Billingstad,AK,59.8305,10.4749
1397,Nesøya,AK,59.8702,10.5289
1399,Asker,AK,59.8201,10.3825
1930,Aurskog,AK,59.9167,11.4333
1931,Aurskog,AK,59.9167,11.4333
1940,Bjørkelangen,AK,59.8848,11.5694
1941,Bjørkelangen,AK,59.8848,11.5694
1954,Setskog,AK,59.8266,11.7217
1960,Løken,AK,59.8,11.4833
1961,Løken,AK,59.8,11.4833
1963,Fosser,AK,59.8167,11.4833
1970,Hemnes,AK,59.7167,11.4667
1920,Sørumsand,AK,59.9851,11.2398
1921,Sørumsand,AK,59.9851,11.2398
1923,Sørum,AK,60,11.2333
1925,Blaker,AK,59.9774,11.3625
1927,Rånåsfoss,AK,60.0312,11.3374
2016,Frogner,AK,60.0167,11.1
2017,Frogner,AK,60.0167,11.1
1900,Fetsund,AK,59.929,11.1625
1901,Fetsund,AK,59.929,11.1625
1903,Gan,AK,59.8667,11.2167
1910,Enebakkneset,AK,59.7833,11.25
2005,Rælingen,AK,59.9429,11.0565
2006,Løvenstad,AK,59.9429,11.0565
2008,Fjerdingby,AK,59.9263,11.0653
2009,Nordby,AK,59.8667,11.1
2014,Blystadlia,AK,59.9312,11.0386
2018,Løvenstad,AK,59.9374,11.0216
2025,Fjerdingby,AK,59.9263,11.0653
1911,Flateby,AK,59.8333,11.1667
1912,Enebakk,AK,59.7619,11.1475
1914,Ytre Enebakk,AK,59.7303,11.0328
1916,Flateby,AK,59.8333,11.1667
1917,Ytre Enebakk,AK,59.724,11.0505
1468,Finstadjordet,AK,59.9145,10.968
1469,Rasta,AK,59.9234,10.937
1470,Lørenskog,AK,59.9373,10.955
1471,Lørenskog,AK,59.9214,10.954
1472,Fjellhamar,AK,59.9396,10.9843
1473,Lørenskog,AK,59.9284,10.9572
1474,Nordbyhagen,AK,59.9327,10.9911
1475,Finstadjordet,AK,59.9145,10.968
1476,Rasta,AK,59.9205,10.9385
1477,Fjellhamar,AK,59.9409,10.9797
1478,Lørenskog,AK,59.9329,10.9964
1479,Kurland,AK,59.9323,11.0203
2000,Lillestrøm,AK,59.956,11.0492
2001,Lillestrøm,AK,59.956,11.0492
2003,Lillestrøm,AK,59.956,11.0492
2004,Lillestrøm,AK,59.956,11.0492
2007,Kjeller,AK,59.9833,11.0333
2010,Strømmen,AK,59.95,11
2011,Strømmen,AK,59.95,11
2012,Lillestrøm,AK,59.956,11.0492
2013,Skjetten,AK,59.9719,11.0069
2015,Leirsund,AK,60,11.1
2019,Skedsmokorset,AK,60.0167,11.0417
2020,Skedsmokorset,AK,60.0167,11.0417
2021,Skedsmokorset,AK,60.0167,11.0417
2026,Skjetten,AK,59.9719,11.0069
2027,Kjeller,AK,59.9833,11.0333
1480,Slattum,AK,60,10.9167
1481,Hagan,AK,59.9974,10.9184
1482,Nittedal,AK,60.08,10.8767
1483,Hagan,AK,59.9971,10.918
1484,Hakadal,AK,60.1,10.8667
1485,Hakadal,AK,60.1,10.8667
1486,Nittedal,AK,60.08,10.8767
1487,Hakadal,AK,60.1,10.8667
1488,Hakadal,AK,60.1,10.8667
2022,Gjerdrum,AK,60.0717,11.0345
2024,Gjerdrum,AK,60.0728,11.0325
2040,Kløfta,AK,60.0667,11.15
2041,Kløfta,AK,60.0667,11.15
2050,Jessheim,AK,60.1415,11.1752
2051,Jessheim,AK,60.1415,11.1752
2052,Jessheim,AK,60.1415,11.1752
2054,Mogreina,AK,60.2298,11.1672
2055,Nordkisa,AK,60.1833,11.2667
2056,Algarheim,AK,60.1446,11.255
2057,Jessheim,AK,60.1415,11.1752
2058,Sessvollmoen,AK,60.2371,11.1449
2059,Trandum,AK,60.214,11.1229
2060,Gardermoen,AK,60.2167,11.1
2061,Gardermoen,AK,60.2167,11.1
2065,Gardermoen,AK,60.1414,11.1723
1929,Auli,AK,60.0345,11.3605
2150,Årnes,AK,60.121,11.4663
2151,Årnes,AK,60.121,11.4663
2160,Vormsund,AK,60.1514,11.4141
2161,Vormsund,AK,60.1514,11.4141
2162,Brårud,AK,60.2094,11.3315
2164,Skogbygda,AK,60.2289,11.5116
2165,Hvam,AK,60.1261,11.3397
2166,Oppaker,AK,60.1775,11.5146
2170,Fenstad,AK,60.2198,11.3927
2070,Råholt,AK,60.2667,11.1833
2071,Råholt,AK,60.2667,11.1833
2072,Dal,AK,60.25,11.2
2073,Bøn,AK,60.2667,11.1867
2074,Eidsvoll Verk,AK,60.3,11.1667
2076,Dal,AK,60.25,11.2
2080,Eidsvoll,AK,60.3305,11.2616
2081,Eidsvoll,AK,60.3305,11.2616
2092,Minnesund,AK,60.3833,11.2333
2093,Feiring,AK,60.4833,11.15
2030,Nannestad,AK,60.2,11.0333
2031,Nannestad,AK,60.2,11.0333
2032,Maura,AK,60.25,11.0167
2033,Åsgreina,AK,60.1777,10.986
2034,Holter,AK,60.15,11.05
2035,Holter,AK,60.15,11.05
2036,Maura,AK,60.25,11.0167
2090,Hurdal,AK,60.4352,11.0671
2091,Hurdal,AK,60.4352,11.0671
1,Oslo,OS,59.9127,10.7461
10,Oslo,OS,59.9127,10.7461
15,Oslo,OS,59.9127,10.7461
16,Oslo,OS,59.9439,10.6551
17,Oslo,OS,59.9172,10.5049
18,Oslo,OS,59.9173,10.505
21,Oslo,OS,59.9127,10.7461
22,Oslo,OS,59.9127,10.7461
24,Oslo,OS,59.9127,10.7461
25,Oslo,OS,59.9127,10.7461
26,Oslo,OS,59.9127,10.7461
27,Oslo,OS,59.9127,10.7461
28,Oslo,OS,59.9127,10.7461
30,Oslo,OS,59.9127,10.7461
31,Oslo,OS,59.9127,10.7461
32,Oslo,OS,59.9127,10.7461
33,Oslo,OS,59.9127,10.7461
34,Oslo,OS,59.9127,10.7461
37,Oslo,OS,59.9127,10.7461
40,Oslo,OS,59.9127,10.7461
45,Oslo,OS,59.9636,10.9129
46,Oslo,OS,59.9636,10.9129
47,Oslo,OS,59.9636,10.9129
48,Oslo,OS,59.9127,10.7461
50,Oslo,OS,59.9127,10.7461
51,Oslo,OS,59.9127,10.7461
55,Oslo,OS,59.9127,10.7461
80,Oslo,OS,59.9057,10.6281
101,Oslo,OS,59.9127,10.7461
102,Oslo,OS,59.9127,10.7461
103,Oslo,OS,59.9127,10.7461
104,Oslo,OS,59.9127,10.7461
105,Oslo,OS,59.9127,10.7461
106,Oslo,OS,59.9127,10.7461
107,Oslo,OS,59.9127,10.7461
109,Oslo,OS,59.9127,10.7461
110,Oslo,OS,59.9127,10.7461
111,Oslo,OS,59.9127,10.7461
112,Oslo,OS,59.9127,10.7461
113,Oslo,OS,59.9127,10.7461
114,Oslo,OS,59.9127,10.7461
115,Oslo,OS,59.9127,10.7461
116,Oslo,OS,59.9127,10.7461
117,Oslo,OS,59.9127,10.7461
118,Oslo,OS,59.9127,10.7461
119,Oslo,OS,59.9127,10.7461
120,Oslo,OS,59.9127,10.7461
121,Oslo,OS,59.9127,10.7461
122,Oslo,OS,59.9127,10.7461
123,Oslo,OS,59.9127,10.7461
124,Oslo,OS,59.9127,10.7461
125,Oslo,OS,59.9127,10.7461
128,Oslo,OS,59.9127,10.7461
129,Oslo,OS,59.9127,10.7461
130,Oslo,OS,59.9127,10.7461
131,Oslo,OS,59.9127,10.7461
133,Oslo,OS,59.9127,10.7461
134,Oslo,OS,59.9127,10.7461
135,Oslo,OS,59.9127,10.7461
136,Oslo,OS,59.9127,10.7461
137,Oslo,OS,59.9127,10.7461
138,Oslo,OS,59.8702,10.7727
139,Oslo,OS,59.8702,10.7727
150,Oslo,OS,59.9127,10.7461
151,Oslo,OS,59.9127,10.7461
152,Oslo,OS,59.9127,10.7461
153,Oslo,OS,59.9127,10.7461
154,Oslo,OS,59.9127,10.7461
155,Oslo,OS,59.9127,10.7461
157,Oslo,OS,59.9127,10.7461
158,Oslo,OS,59.9127,10.7461
159,Oslo,OS,59.9127,10.7461
160,Oslo,OS,59.9127,10.7461
161,Oslo,OS,59.9127,10.7461
162,Oslo,OS,59.9127,10.7461
164,Oslo,OS,59.9127,10.7461
165,Oslo,OS,59.9127,10.7461
166,Oslo,OS,59.9127,10.7461
167,Oslo,OS,59.9127,10.7461
168,Oslo,OS,59.9127,10.7461
169,Oslo,OS,59.9127,10.7461
170,Oslo,OS,59.9127,10.7461
171,Oslo,OS,59.9127,10.7461
172,Oslo,OS,59.9127,10.7461
173,Oslo,OS,59.9127,10.7461
174,Oslo,OS,59.9127,10.7461
175,Oslo,OS,59.9127,10.7461
176,Oslo,OS,59.9127,10.7461
177,Oslo,OS,59.9127,10.7461
178,Oslo,OS,59.9127,10.7461
179,Oslo,OS,59.9127,10.7461
180,Oslo,OS,59.9127,10.7461
181,Oslo,OS,59.9127,10.7461
182,Oslo,OS,59.9127,10.7461
183,Oslo,OS,59.9127,10.7461
184,Oslo,OS,59.9127,10.7461
185,Oslo,OS,59.9127,10.7461
186,Oslo,OS,59.9127,10.7461
187,Oslo,OS,59.9127,10.7461
188,Oslo,OS,59.9127,10.7461
190,Oslo,OS,59.9127,10.7461
191,Oslo,OS,59.9127,10.7461
192,Oslo,OS,59.9127,10.7461
193,Oslo,OS,59.9127,10.7461
194,Oslo,OS,59.9127,10.7461
195,Oslo,OS,59.9127,10.7461
196,Oslo,OS,59.9127,10.7461
198,Oslo,OS,59.9127,10.7461
201,Oslo,OS,59.9127,10.7461
202,Oslo,OS,59.9127,10.7461
203,Oslo,OS,59.9127,10.7461
204,Oslo,OS,59.9127,10.7461
207,Oslo,OS,59.9127,10.7461
208,Oslo,OS,59.9127,10.7461
211,Oslo,OS,59.907,10.6743
212,Oslo,OS,59.9228,10.6793
213,Oslo,OS,59.9228,10.6793
214,Oslo,OS,59.9228,10.6793
215,Oslo,OS,59.9228,10.6793
216,Oslo,OS,59.9176,10.6364
218,Oslo,OS,59.9252,10.6748
230,Oslo,OS,59.9127,10.7461
240,Oslo,OS,59.9127,10.7461
244,Oslo,OS,59.9127,10.7461
246,Oslo,OS,59.9127,10.7461
247,Oslo,OS,59.9219,10.6839
250,Oslo,OS,59.9127,10.7461
251,Oslo,OS,59.9127,10.7461
252,Oslo,OS,59.9127,10.7461
253,Oslo,OS,59.9127,10.7461
254,Oslo,OS,59.9127,10.7461
255,Oslo,OS,59.9127,10.7461
256,Oslo,OS,59.9127,10.7461
257,Oslo,OS,59.9127,10.7461
258,Oslo,OS,59.9127,10.7461
259,Oslo,OS,59.9127,10.7461
260,Oslo,OS,59.9127,10.7461
262,Oslo,OS,59.9127,10.7461
263,Oslo,OS,59.9127,10.7461
264,Oslo,OS,59.9127,10.7461
265,Oslo,OS,59.9127,10.7461
266,Oslo,OS,59.9127,10.7461
267,Oslo,OS,59.9127,10.7461
268,Oslo,OS,59.9127,10.7461
270,Oslo,OS,59.9127,10.7461
271,Oslo,OS,59.9127,10.7461
272,Oslo,OS,59.9127,10.7461
273,Oslo,OS,59.9181,10.6951
274,Oslo,OS,59.9242,10.6927
275,Oslo,OS,59.9263,10.676
276,Oslo,OS,59.9251,10.6834
277,Oslo,OS,59.9209,10.6778
278,Oslo,OS,59.9198,10.6837
279,Oslo,OS,59.9209,10.6804
280,Oslo,OS,59.9241,10.6549
281,Oslo,OS,59.9207,10.662
282,Oslo,OS,59.9206,10.6498
283,Oslo,OS,59.9179,10.6442
284,Oslo,OS,59.9238,10.6352
286,Oslo,OS,59.9007,10.6856
287,Oslo,OS,59.9043,10.6804
301,Oslo,OS,59.9127,10.7461
302,Oslo,OS,59.9127,10.7461
303,Oslo,OS,59.9127,10.7461
304,Oslo,OS,59.9127,10.7461
305,Oslo,OS,59.9127,10.7461
306,Oslo,OS,59.9127,10.7461
307,Oslo,OS,59.9127,10.7461
308,Oslo,OS,59.9127,10.7461
309,Oslo,OS,59.9493,10.6766
310,Oslo,OS,59.9302,10.6597
311,Oslo,OS,59.9285,10.6472
313,Oslo,OS,59.9127,10.7461
314,Oslo,OS,59.9127,10.7461
315,Oslo,OS,59.9127,10.7461
316,Oslo,OS,59.9127,10.7461
317,Oslo,OS,59.9127,10.7461
318,Oslo,OS,59.9127,10.7461
319,Oslo,OS,59.9431,10.7034
323,Oslo,OS,59.9127,10.7461
330,Oslo,OS,59.9127,10.7461
340,Oslo,OS,59.9127,10.7461
349,Oslo,OS,59.9127,10.7461
350,Oslo,OS,59.9127,10.7461
351,Oslo,OS,59.9127,10.7461
352,Oslo,OS,59.9127,10.7461
353,Oslo,OS,59.9127,10.7461
354,Oslo,OS,59.9127,10.7461
355,Oslo,OS,59.9127,10.7461
356,Oslo,OS,59.9127,10.7461
357,Oslo,OS,59.9127,10.7461
358,Oslo,OS,59.9127,10.7461
359,Oslo,OS,59.9127,10.7461
360,Oslo,OS,59.9127,10.7461
361,Oslo,OS,59.9127,10.7461
362,Oslo,OS,59.9127,10.7461
363,Oslo,OS,59.9127,10.7461
364,Oslo,OS,59.9127,10.7461
365,Oslo,OS,59.9127,10.7461
366,Oslo,OS,59.9127,10.7461
367,Oslo,OS,59.9127,10.7461
368,Oslo,OS,59.9127,10.7461
369,Oslo,OS,59.9127,10.7461
370,Oslo,OS,59.9373,10.7017
371,Oslo,OS,59.9127,10.7461
372,Oslo,OS,59.9127,10.7461
373,Oslo,OS,59.9127,10.7461
374,Oslo,OS,59.9427,10.6974
375,Oslo,OS,59.9332,10.6884
376,Oslo,OS,59.9422,10.6822
377,Oslo,OS,59.9348,10.6794
378,Oslo,OS,59.9409,10.6664
379,Oslo,OS,59.9318,10.6685
380,Oslo,OS,59.9315,10.6555
381,Oslo,OS,59.9284,10.6508
382,Oslo,OS,59.9308,10.6432
383,Oslo,OS,59.9322,10.6357
401,Oslo,OS,59.9127,10.7461
402,Oslo,OS,59.9127,10.7461
403,Oslo,OS,59.9127,10.7461
404,Oslo,OS,59.9127,10.7461
405,Oslo,OS,59.9127,10.7461
406,Oslo,OS,59.9127,10.7461
407,Oslo,OS,59.9127,10.7461
408,Oslo,OS,59.9127,10.7461
409,Oslo,OS,59.9127,10.7461
410,Oslo,OS,59.9127,10.7461
411,Oslo,OS,59.966,10.7769
412,Oslo,OS,59.9127,10.7461
413,Oslo,OS,59.9127,10.7461
415,Oslo,OS,59.9127,10.7461
421,Oslo,OS,59.9127,10.7461
422,Oslo,OS,59.9127,10.7461
423,Oslo,OS,59.9127,10.7461
424,Oslo,OS,59.9127,10.7461
426,Oslo,OS,59.9127,10.7461
440,Oslo,OS,59.9127,10.7461
441,Oslo,OS,59.9127,10.7461
442,Oslo,OS,59.9127,10.7461
445,Oslo,OS,59.9127,10.7461
450,Oslo,OS,59.9127,10.7461
451,Oslo,OS,59.9127,10.7461
452,Oslo,OS,59.9127,10.7461
454,Oslo,OS,59.9127,10.7461
455,Oslo,OS,59.9127,10.7461
456,Oslo,OS,59.9127,10.7461
457,Oslo,OS,59.9127,10.7461
458,Oslo,OS,59.9127,10.7461
459,Oslo,OS,59.9127,10.7461
460,Oslo,OS,59.9127,10.7461
461,Oslo,OS,59.9127,10.7461
462,Oslo,OS,59.9127,10.7461
463,Oslo,OS,59.9127,10.7461
464,Oslo,OS,59.9127,10.7461
465,Oslo,OS,59.9127,10.7461
467,Oslo,OS,59.9127,10.7461
468,Oslo,OS,59.9127,10.7461
469,Oslo,OS,59.9127,10.7461
470,Oslo,OS,59.9127,10.7461
472,Oslo,OS,59.9127,10.7461
473,Oslo,OS,59.9127,10.7461
474,Oslo,OS,59.9127,10.7461
475,Oslo,OS,59.9127,10.7461
476,Oslo,OS,59.9127,10.7461
477,Oslo,OS,59.9127,10.7461
478,Oslo,OS,59.9127,10.7461
479,Oslo,OS,59.9127,10.7461
480,Oslo,OS,59.9127,10.7461
481,Oslo,OS,59.9127,10.7461
482,Oslo,OS,59.9127,10.7461
483,Oslo,OS,59.9127,10.7461
484,Oslo,OS,59.9127,10.7461
485,Oslo,OS,59.9127,10.7461
486,Oslo,OS,59.9127,10.7461
487,Oslo,OS,59.9487,10.7816
488,Oslo,OS,59.9498,10.7901
489,Oslo,OS,59.9537,10.7861
490,Oslo,OS,59.9523,10.7978
491,Oslo,OS,59.9596,10.7868
492,Oslo,OS,59.9575,10.7831
493,Oslo,OS,59.9614,10.7789
494,Oslo,OS,59.9641,10.7879
495,Oslo,OS,59.9614,10.7921
496,Oslo,OS,59.9789,10.8131
501,Oslo,OS,59.9127,10.7461
502,Oslo,OS,59.9127,10.7461
503,Oslo,OS,59.9127,10.7461
504,Oslo,OS,59.9127,10.7461
505,Oslo,OS,59.9127,10.7461
506,Oslo,OS,59.9127,10.7461
508,Oslo,OS,59.9287,10.8054
509,Oslo,OS,59.9287,10.8054
510,Oslo,OS,59.9287,10.8054
511,Oslo,OS,59.9287,10.8054
512,Oslo,OS,59.9287,10.8054
513,Oslo,OS,59.9287,10.8054
514,Oslo,OS,59.9393,10.796
515,Oslo,OS,59.9426,10.812
516,Oslo,OS,59.9365,10.827
517,Oslo,OS,59.9432,10.8355
518,Oslo,OS,59.944,10.8478
520,Oslo,OS,59.9287,10.8054
540,Oslo,OS,59.9358,10.8362
550,Oslo,OS,59.9127,10.7461
551,Oslo,OS,59.9127,10.7461
552,Oslo,OS,59.9127,10.7461
553,Oslo,OS,59.9127,10.7461
554,Oslo,OS,59.9127,10.7461
555,Oslo,OS,59.9127,10.7461
556,Oslo,OS,59.9127,10.7461
557,Oslo,OS,59.9127,10.7461
558,Oslo,OS,59.9127,10.7461
559,Oslo,OS,59.9127,10.7461
560,Oslo,OS,59.9127,10.7461
561,Oslo,OS,59.9127,10.7461
562,Oslo,OS,59.9127,10.7461
563,Oslo,OS,59.9127,10.7461
564,Oslo,OS,59.9127,10.7461
565,Oslo,OS,59.9127,10.7461
566,Oslo,OS,59.9127,10.7461
567,Oslo,OS,59.9127,10.7461
568,Oslo,OS,59.9127,10.7461
569,Oslo,OS,59.9127,10.7461
570,Oslo,OS,59.9127,10.7461
571,Oslo,OS,59.9127,10.7461
572,Oslo,OS,59.9127,10.7461
573,Oslo,OS,59.9127,10.7461
574,Oslo,OS,59.9127,10.7461
575,Oslo,OS,59.9127,10.7461
576,Oslo,OS,59.9127,10.7461
577,Oslo,OS,59.9127,10.7461
578,Oslo,OS,59.9127,10.7461
579,Oslo,OS,59.9127,10.7461
580,Oslo,OS,59.9326,10.8094
581,Oslo,OS,59.9275,10.8166
582,Oslo,OS,59.9303,10.8326
583,Oslo,OS,59.9347,10.8198
584,Oslo,OS,59.939,10.8214
585,Oslo,OS,59.9321,10.7923
586,Oslo,OS,59.9386,10.8002
587,Oslo,OS,59.9435,10.7942
588,Oslo,OS,59.946,10.8021
589,Oslo,OS,59.9427,10.8157
590,Oslo,OS,59.9505,10.8177
591,Oslo,OS,59.9486,10.8224
592,Oslo,OS,59.9485,10.8276
593,Oslo,OS,59.9451,10.835
594,Oslo,OS,59.9417,10.8359
595,Oslo,OS,59.9458,10.8515
596,Oslo,OS,59.9436,10.8465
597,Oslo,OS,59.9464,10.8455
598,Oslo,OS,59.9395,10.8271
601,Oslo,OS,59.9096,10.798
602,Oslo,OS,59.9096,10.798
603,Oslo,OS,59.9096,10.798
604,Oslo,OS,59.9096,10.798
605,Oslo,OS,59.9096,10.798
606,Oslo,OS,59.9138,10.7972
607,Oslo,OS,59.9096,10.798
608,Oslo,OS,59.9127,10.7461
609,Oslo,OS,59.9096,10.798
611,Oslo,OS,59.9034,10.8212
612,Oslo,OS,59.8973,10.8129
613,Oslo,OS,59.9286,10.8376
614,Oslo,OS,59.9283,10.8525
616,Oslo,OS,59.9227,10.8564
617,Oslo,OS,59.9138,10.8419
618,Oslo,OS,59.9164,10.8485
619,Oslo,OS,59.8942,10.8406
620,Oslo,OS,59.8828,10.8448
621,Oslo,OS,59.8757,10.8432
622,Oslo,OS,59.8796,10.8524
623,Oslo,OS,59.926,10.8457
624,Oslo,OS,59.8682,10.8382
626,Oslo,OS,59.9127,10.7461
650,Oslo,OS,59.9127,10.7461
651,Oslo,OS,59.9127,10.7461
652,Oslo,OS,59.9127,10.7461
653,Oslo,OS,59.9267,10.8713
654,Oslo,OS,59.9127,10.7461
655,Oslo,OS,59.9127,10.7461
656,Oslo,OS,59.9127,10.7461
657,Oslo,OS,59.9127,10.7461
658,Oslo,OS,59.9127,10.7461
659,Oslo,OS,59.9077,10.8011
660,Oslo,OS,59.9099,10.7996
661,Oslo,OS,59.9127,10.7461
662,Oslo,OS,59.9206,10.7966
663,Oslo,OS,59.9165,10.8003
664,Oslo,OS,59.9174,10.8191
665,Oslo,OS,59.9199,10.8146
666,Oslo,OS,59.9164,10.8232
667,Oslo,OS,59.9069,10.8206
668,Oslo,OS,59.9271,10.845
669,Oslo,OS,59.9161,10.837
670,Oslo,OS,59.9189,10.8433
671,Oslo,OS,59.9109,10.8444
672,Oslo,OS,59.912,10.8521
673,Oslo,OS,59.9208,10.8556
674,Oslo,OS,59.9173,10.858
675,Oslo,OS,59.9246,10.8634
676,Oslo,OS,59.9222,10.8495
677,Oslo,OS,59.9005,10.7967
678,Oslo,OS,59.9022,10.8101
679,Oslo,OS,59.8962,10.8143
680,Oslo,OS,59.8898,10.8111
681,Oslo,OS,59.894,10.8185
682,Oslo,OS,59.9014,10.8315
683,Oslo,OS,59.9018,10.8423
684,Oslo,OS,59.9021,10.8478
685,Oslo,OS,59.8966,10.847
686,Oslo,OS,59.8935,10.838
687,Oslo,OS,59.893,10.8503
688,Oslo,OS,59.887,10.8552
689,Oslo,OS,59.8797,10.8527
690,Oslo,OS,59.8867,10.8426
691,Oslo,OS,59.8803,10.8464
692,Oslo,OS,59.877,10.8394
693,Oslo,OS,59.8735,10.8465
694,Oslo,OS,59.8678,10.8402
701,Oslo,OS,59.9483,10.6439
702,Oslo,OS,59.9462,10.6428
705,Oslo,OS,59.9469,10.6549
710,Oslo,OS,59.9505,10.6934
712,Oslo,OS,59.9573,10.673
750,Oslo,OS,59.9395,10.6401
751,Oslo,OS,59.9425,10.6395
752,Oslo,OS,59.9424,10.6449
753,Oslo,OS,59.9416,10.6482
754,Oslo,OS,59.9496,10.6462
755,Oslo,OS,59.9551,10.6401
756,Oslo,OS,59.9533,10.6368
757,Oslo,OS,59.9604,10.6347
758,Oslo,OS,59.9905,10.6288
760,Oslo,OS,59.9469,10.6432
763,Oslo,OS,59.976,10.6459
764,Oslo,OS,59.9697,10.647
765,Oslo,OS,59.9663,10.6453
766,Oslo,OS,59.9616,10.6505
767,Oslo,OS,59.9536,10.6527
768,Oslo,OS,59.9489,10.653
770,Oslo,OS,59.9487,10.661
771,Oslo,OS,59.9509,10.664
772,Oslo,OS,59.951,10.6708
773,Oslo,OS,59.9533,10.6791
774,Oslo,OS,59.9491,10.6841
775,Oslo,OS,59.948,10.6914
776,Oslo,OS,59.9536,10.6901
777,Oslo,OS,59.9527,10.701
778,Oslo,OS,59.9541,10.7082
779,Oslo,OS,59.959,10.7023
781,Oslo,OS,59.9598,10.693
782,Oslo,OS,59.96,10.683
783,Oslo,OS,59.9563,10.675
784,Oslo,OS,59.9561,10.6688
785,Oslo,OS,59.9535,10.6649
786,Oslo,OS,59.9613,10.6574
787,Oslo,OS,59.9611,10.6745
788,Oslo,OS,59.9706,10.6521
789,Oslo,OS,59.9691,10.6569
790,Oslo,OS,59.9763,10.6614
791,Oslo,OS,59.9752,10.6688
801,Oslo,OS,59.9127,10.7461
805,Oslo,OS,59.9127,10.7461
806,Oslo,OS,59.9127,10.7461
807,Oslo,OS,59.9647,10.733
840,Oslo,OS,59.9127,10.7461
850,Oslo,OS,59.9127,10.7461
851,Oslo,OS,59.9127,10.7461
852,Oslo,OS,59.9127,10.7461
853,Oslo,OS,59.9127,10.7461
854,Oslo,OS,59.9127,10.7461
855,Oslo,OS,59.9127,10.7461
856,Oslo,OS,59.9127,10.7461
857,Oslo,OS,59.9127,10.7461
858,Oslo,OS,59.9127,10.7461
860,Oslo,OS,59.9127,10.7461
861,Oslo,OS,59.9638,10.7462
862,Oslo,OS,59.9645,10.738
863,Oslo,OS,59.9667,10.7301
864,Oslo,OS,59.9647,10.7333
870,Oslo,OS,59.9127,10.7461
871,Oslo,OS,59.9127,10.7461
872,Oslo,OS,59.9127,10.7461
873,Oslo,OS,59.9127,10.7461
874,Oslo,OS,59.9127,10.7461
875,Oslo,OS,59.9127,10.7461
876,Oslo,OS,59.9127,10.7461
877,Oslo,OS,59.9127,10.7461
880,Oslo,OS,59.9127,10.7461
881,Oslo,OS,59.963,10.7625
882,Oslo,OS,59.9637,10.7673
883,Oslo,OS,59.9616,10.7686
884,Oslo,OS,59.9677,10.7734
890,Oslo,OS,60.0102,10.7686
891,Oslo,OS,60.0324,10.8067
901,Oslo,OS,59.9537,10.8681
902,Oslo,OS,59.9537,10.8681
903,Oslo,OS,59.9537,10.8681
904,Oslo,OS,59.9587,10.8702
905,Oslo,OS,59.9606,10.8814
907,Oslo,OS,59.9632,10.8928
908,Oslo,OS,59.9692,10.9026
913,Oslo,OS,59.9609,10.926
915,Oslo,OS,59.9522,10.9108
950,Oslo,OS,59.9481,10.8626
951,Oslo,OS,59.9484,10.8675
952,Oslo,OS,59.9519,10.8772
953,Oslo,OS,59.9543,10.8718
954,Oslo,OS,59.951,10.8515
955,Oslo,OS,59.9527,10.8618
956,Oslo,OS,59.9532,10.8564
957,Oslo,OS,59.9627,10.8632
958,Oslo,OS,59.9643,10.8715
959,Oslo,OS,59.9617,10.8713
960,Oslo,OS,59.9674,10.8756
962,Oslo,OS,59.9585,10.8867
963,Oslo,OS,59.9641,10.8819
964,Oslo,OS,59.9711,10.9168
968,Oslo,OS,59.9743,10.9285
969,Oslo,OS,59.969,10.9277
970,Oslo,OS,59.9634,10.8964
971,Oslo,OS,59.9653,10.8917
972,Oslo,OS,59.9704,10.8977
973,Oslo,OS,59.9689,10.9022
975,Oslo,OS,59.947,10.8742
976,Oslo,OS,59.9554,10.8879
977,Oslo,OS,59.9521,10.9147
978,Oslo,OS,59.9564,10.9104
979,Oslo,OS,59.9507,10.9232
980,Oslo,OS,59.9496,10.9336
981,Oslo,OS,59.9529,10.9344
982,Oslo,OS,59.9549,10.9335
983,Oslo,OS,59.959,10.9354
984,Oslo,OS,59.959,10.9179
985,Oslo,OS,59.9618,10.9262
986,Oslo,OS,59.9657,10.9245
987,Oslo,OS,59.9653,10.9214
988,Oslo,OS,59.965,10.9095
1001,Oslo,OS,59.9421,10.8978
1003,Oslo,OS,59.9288,10.8796
1005,Oslo,OS,59.9469,10.9244
1006,Oslo,OS,59.9361,10.9168
1007,Oslo,OS,59.9326,10.8814
1008,Oslo,OS,59.9366,10.8741
1009,Oslo,OS,59.9366,10.8741
1011,Oslo,OS,59.9366,10.8741
1051,Oslo,OS,59.9423,10.8996
1052,Oslo,OS,59.9423,10.8924
1053,Oslo,OS,59.9447,10.8908
1054,Oslo,OS,59.9482,10.8977
1055,Oslo,OS,59.9453,10.9047
1056,Oslo,OS,59.9362,10.8963
1061,Oslo,OS,59.9338,10.9141
1062,Oslo,OS,59.9374,10.9123
1063,Oslo,OS,59.9366,10.917
1064,Oslo,OS,59.9351,10.9224
1065,Oslo,OS,59.938,10.9231
1067,Oslo,OS,59.9339,10.8882
1068,Oslo,OS,59.9283,10.8821
1069,Oslo,OS,59.9313,10.8773
1071,Oslo,OS,59.9288,10.8717
1081,Oslo,OS,59.9358,10.8739
1083,Oslo,OS,59.9506,10.8911
1084,Oslo,OS,59.9519,10.9023
1086,Oslo,OS,59.9429,10.9216
1087,Oslo,OS,59.9468,10.9207
1088,Oslo,OS,59.9436,10.9336
1089,Oslo,OS,59.9432,10.9416
1101,Oslo,OS,59.8732,10.8107
1109,Oslo,OS,59.8811,10.7867
1112,Oslo,OS,59.8606,10.8016
1150,Oslo,OS,59.8679,10.8139
1151,Oslo,OS,59.8696,10.8111
1152,Oslo,OS,59.8737,10.8069
1153,Oslo,OS,59.8779,10.8117
1154,Oslo,OS,59.8749,10.8191
1155,Oslo,OS,59.8688,10.821
1156,Oslo,OS,59.8677,10.8256
1157,Oslo,OS,59.8678,10.8171
1158,Oslo,OS,59.8651,10.8218
1160,Oslo,OS,59.8725,10.7978
1161,Oslo,OS,59.8697,10.7963
1162,Oslo,OS,59.8654,10.7904
1163,Oslo,OS,59.8653,10.8025
1164,Oslo,OS,59.8588,10.8169
1165,Oslo,OS,59.8522,10.8011
1166,Oslo,OS,59.8558,10.7968
1167,Oslo,OS,59.8551,10.7897
1168,Oslo,OS,59.8457,10.7821
1169,Oslo,OS,59.8512,10.7913
1170,Oslo,OS,59.8662,10.7867
1172,Oslo,OS,59.9127,10.7461
1176,Oslo,OS,59.8763,10.7959
1177,Oslo,OS,59.9127,10.7461
1178,Oslo,OS,59.8834,10.7885
1179,Oslo,OS,59.9127,10.7461
1181,Oslo,OS,59.9127,10.7461
1182,Oslo,OS,59.9127,10.7461
1184,Oslo,OS,59.8855,10.7983
1185,Oslo,OS,59.8832,10.8056
1187,Oslo,OS,59.8816,10.8232
1188,Oslo,OS,59.8696,10.8338
1189,Oslo,OS,59.8636,10.8341
1201,Oslo,OS,59.8347,10.7948
1202,Oslo,OS,59.8347,10.7948
1203,Oslo,OS,59.8347,10.7948
1204,Oslo,OS,59.8347,10.7948
1205,Oslo,OS,59.8332,10.807
1207,Oslo,OS,59.8269,10.7843
1214,Oslo,OS,59.8267,10.8369
1215,Oslo,OS,59.8484,10.8292
1250,Oslo,OS,59.8317,10.7713
1251,Oslo,OS,59.8285,10.7845
1252,Oslo,OS,59.8303,10.7951
1253,Oslo,OS,59.8317,10.7862
1254,Oslo,OS,59.837,10.7879
1255,Oslo,OS,59.8347,10.7957
1256,Oslo,OS,59.8398,10.7904
1257,Oslo,OS,59.8442,10.7945
1258,Oslo,OS,59.8382,10.8002
1259,Oslo,OS,59.8306,10.7995
1262,Oslo,OS,59.8302,10.8045
1263,Oslo,OS,59.828,10.8122
1266,Oslo,OS,59.8433,10.809
1270,Oslo,OS,59.8329,10.8327
1271,Oslo,OS,59.8256,10.8313
1272,Oslo,OS,59.8311,10.8344
1273,Oslo,OS,59.8202,10.8364
1274,Oslo,OS,59.8224,10.8409
1275,Oslo,OS,59.8245,10.8379
1278,Oslo,OS,59.8412,10.8353
1279,Oslo,OS,59.8444,10.8435
1281,Oslo,OS,59.8451,10.8282
1283,Oslo,OS,59.8506,10.8233
1284,Oslo,OS,59.856,10.8274
1285,Oslo,OS,59.8545,10.837
1286,Oslo,OS,59.8489,10.8127
1290,Oslo,OS,59.8327,10.8553
1291,Oslo,OS,59.8254,10.8512
1294,Oslo,OS,59.8216,10.8633
1295,Oslo,OS,59.8241,10.8731
2201,Kongsvinger,HE,60.1905,11.9977
2202,Kongsvinger,HE,60.1905,11.9977
2203,Kongsvinger,HE,60.1905,11.9977
2204,Kongsvinger,HE,60.1905,11.9977
2205,Kongsvinger,HE,60.1905,11.9977
2206,Kongsvinger,HE,60.1905,11.9977
2208,Kongsvinger,HE,60.1905,11.9977
2209,Kongsvinger,HE,60.1905,11.9977
2210,Granli,HE,60.1474,12.0563
2211,Kongsvinger,HE,60.1905,11.9977
2212,Kongsvinger,HE,60.1905,11.9977
2213,Kongsvinger,HE,60.1905,11.9977
2214,Kongsvinger,HE,60.1905,11.9977
2216,Roverud,HE,60.25,12.05
2217,Hokkåsen,HE,60.2833,12.1167
2218,Lundersæter,HE,60.298,12.2719
2219,Brandval,HE,60.3167,12.0333
2224,Austmarka,HE,60.1,12.35
2225,Kongsvinger,HE,60.1905,11.9977
2226,Kongsvinger,HE,60.1905,11.9977
2301,Hamar,HE,60.7945,11.068
2302,Hamar,HE,60.7945,11.068
2303,Hamar,HE,60.7945,11.068
2304,Hamar,HE,60.7945,11.068
2305,Hamar,HE,60.7945,11.068
2306,Hamar,HE,60.7945,11.068
2307,Hamar,HE,60.7945,11.068
2308,Hamar,HE,60.7945,11.068
2309,Hamar,HE,60.7945,11.068
2315,Hamar,HE,60.7945,11.068
2316,Hamar,HE,60.7945,11.068
2317,Hamar,HE,60.7945,11.068
2318,Hamar,HE,60.7945,11.068
2319,Hamar,HE,60.7945,11.068
2321,Hamar,HE,60.7945,11.068
2322,Ridabu,HE,60.8012,11.1235
2323,Ingeberg,HE,60.8273,11.1324
2324,Vang På Hedmarken,HE,60.7945,11.068
2325,Hamar,HE,60.7945,11.068
2326,Hamar,HE,60.7945,11.068
2320,Furnes,HE,60.7945,11.068
2350,Nes På Hedmarken,HE,60.8667,10.7667
2353,Stavsjø,HE,60.8042,10.8396
2355,Gaupen,HE,60.8667,10.7667
2360,Rudshøgda,HE,60.9098,10.8138
2364,Næroset,HE,60.9667,10.7833
2365,Åsmarka,HE,61.0344,10.7479
2372,Brøttum,HE,61.0292,10.5527
2380,Brumunddal,HE,60.8809,10.9395
2381,Brumunddal,HE,60.8809,10.9395
2390,Moelv,HE,60.9333,10.7
2391,Moelv,HE,60.9333,10.7
2610,Mesnali,HE,61.1035,10.6972
2612,Sjusjøen,HE,61.15,10.7
2616,Lismarka,HE,61.0702,10.6213
2340,Løten,HE,60.8171,11.3376
2341,Løten,HE,60.8171,11.3376
2345,Ådalsbruk,HE,60.7833,11.3
2312,Ottestad,HE,60.784,11.1091
2330,Vallset,HE,60.6852,11.3437
2332,Åsvang,HE,60.7396,11.3636
2334,Romedal,HE,60.75,11.2667
2335,Stange,HE,60.718,11.1942
2336,Stange,HE,60.718,11.1942
2337,Tangen,HE,60.6167,11.2667
2338,Espa,HE,60.5779,11.2709
2344,Ilseng,HE,60.7667,11.2167
2120,Sagstua,HE,60.3926,11.5419
2123,Bruvoll,HE,60.4407,11.4808
2130,Knapper,HE,60.4667,11.6167
2133,Gardvik,HE,60.425,11.6583
2134,Austvatn,HE,60.3833,11.7
2100,Skarnes,HE,60.2528,11.6797
2101,Skarnes,HE,60.2528,11.6797
2110,Slåstad,HE,60.2833,11.7667
2114,Disenå,HE,60.2,11.65
2116,Sander,HE,60.2167,11.8167
2223,Galterud,HE,60.1948,11.8837
2220,Åbogen,HE,60.1603,12.1151
2230,Skotterud,HE,59.9828,12.1282
2232,Tobøl,HE,59.972,12.0555
2233,Vestmarka,HE,59.9359,11.9915
2235,Matrand,HE,60.0333,12.1333
2240,Magnor,HE,59.95,12.2
2256,Grue Finnskog,HE,60.4187,12.404
2260,Kirkenær,HE,60.4564,12.0582
2261,Kirkenær,HE,60.4564,12.0582
2264,Grinder,HE,60.3833,12.05
2265,Namnå,HE,60.4657,12.0583
2266,Arneberg,HE,60.5343,12.0192
2270,Flisa,HE,60.6092,12.0154
2271,Flisa,HE,60.6092,12.0154
2280,Gjesåsen,HE,60.6409,12.0334
2283,Åsnes Finnskog,HE,60.6656,12.2102
2435,Braskereidfoss,HE,60.7167,11.7833
2436,Våler I Solør,HE,60.6784,11.8331
2437,Haslemoen,HE,60.6513,11.8704
2438,Gravberget,HE,60.8667,12.25
2401,Elverum,HE,60.8819,11.5623
2402,Elverum,HE,60.8819,11.5623
2403,Elverum,HE,60.8819,11.5623
2405,Elverum,HE,60.8819,11.5623
2406,Elverum,HE,60.8819,11.5623
2407,Elverum,HE,60.8819,11.5623
2408,Elverum,HE,60.8819,11.5623
2409,Elverum,HE,60.8819,11.5623
2410,Hernes,HE,60.9249,11.625
2411,Elverum,HE,60.8819,11.5623
2412,Sørskogbygda,HE,60.9446,11.7888
2415,Heradsbygd,HE,60.8167,11.6333
2416,Jømna,HE,60.8,11.6667
2418,Elverum,HE,60.8819,11.5623
2420,Trysil,HE,61.3148,12.2637
2421,Trysil,HE,61.3148,12.2637
2422,Nybergsund,HE,61.25,12.3167
2423,Østby,HE,61.25,12.5333
2425,Ljørdalen,HE,61.3833,12.7
2427,Plassen,HE,61.1314,12.5078
2428,Søre Osen,HE,61.1072,11.9812
2429,Tørberget,HE,61.1333,12.1
2430,Jordet,HE,61.4167,12.15
2432,Slettås,HE,61.3728,11.9549
2450,Rena,HE,61.1348,11.3641
2451,Rena,HE,61.1325,11.3736
2460,Osen,HE,61.3011,11.7645
2476,Atna,HE,61.7313,10.8328
2477,Sollia,HE,61.7833,10.4167
2480,Koppang,HE,61.5707,11.0555
2481,Koppang,HE,61.5707,11.0555
2478,Hanestad,HE,61.8333,10.8833
2485,Rendalen,HE,61.8922,11.0774
2440,Engerdal,HE,61.7583,11.9598
2443,Drevsjø,HE,61.9,12.0333
2446,Elgå,HE,62.1672,11.9415
2448,Sømådalen,HE,62.0919,11.6506
2540,Tolga,HE,62.409,10.9988
2542,Vingelen,HE,62.4167,10.8833
2544,Øversjødalen,HE,62.2088,11.4816
2500,Tynset,HE,62.2759,10.7824
2501,Tynset,HE,62.2759,10.7824
2510,Tylldalen,HE,62.1375,10.7945
2512,Kvikne,HE,62.5837,10.2852
2560,Alvdal,HE,62.1077,10.6307
2561,Alvdal,HE,62.1077,10.6307
2580,Folldal,HE,62.1325,9.9968
2581,Folldal,HE,62.1325,9.9968
2582,Grimsbu,HE,62.1561,10.1731
2584,Dalholen,HE,62.175,9.8162
2550,Os I Østerdalen,HE,62.4965,11.2233
2552,Dalsbygda,HE,62.5276,11.109
2555,Tufsingdalen,HE,62.303,11.7195
2601,Lillehammer,OP,61.1151,10.4663
2602,Lillehammer,OP,61.1151,10.4663
2603,Lillehammer,OP,61.1151,10.4663
2604,Lillehammer,OP,61.1151,10.4663
2605,Lillehammer,OP,61.1151,10.4663
2606,Lillehammer,OP,61.1151,10.4663
2607,Vingrom,OP,61.0444,10.4303
2608,Lillehammer,OP,61.1151,10.4663
2609,Lillehammer,OP,61.1151,10.4663
2611,Lillehammer,OP,61.1151,10.4663
2613,Lillehammer,OP,61.1151,10.4663
2614,Lillehammer,OP,61.1151,10.4663
2615,Lillehammer,OP,61.1151,10.4663
2617,Lillehammer,OP,61.1571,10.3712
2618,Lillehammer,OP,61.1151,10.4663
2619,Lillehammer,OP,61.1151,10.4663
2624,Lillehammer,OP,61.1151,10.4663
2625,Fåberg,OP,61.1536,10.3916
2626,Lillehammer,OP,61.1151,10.4663
2629,Lillehammer,OP,61.1151,10.4663
2801,Gjøvik,OP,60.7957,10.6915
2802,Gjøvik,OP,60.7957,10.6915
2803,Gjøvik,OP,60.7957,10.6915
2804,Gjøvik,OP,60.7957,10.6915
2805,Gjøvik,OP,60.7957,10.6915
2806,Gjøvik,OP,60.7957,10.6915
2807,Hunndalen,OP,60.7833,10.6333
2808,Gjøvik,OP,60.7957,10.6915
2809,Gjøvik,OP,60.7957,10.6915
2810,Gjøvik,OP,60.7957,10.6915
2811,Hunndalen,OP,60.7833,10.6333
2815,Gjøvik,OP,60.7957,10.6915
2816,Gjøvik,OP,60.7957,10.6915
2817,Gjøvik,OP,60.7957,10.6915
2818,Gjøvik,OP,60.7957,10.6915
2819,Gjøvik,OP,60.7957,10.6915
2821,Gjøvik,OP,60.7957,10.6915
2822,Bybrua,OP,60.8018,10.5696
2825,Gjøvik,OP,60.7957,10.6915
2827,Hunndalen,OP,60.7833,10.6333
2832,Biri,OP,60.9503,10.62
2836,Biri,OP,60.9503,10.62
2837,Biristrand,OP,60.9899,10.5287
2838,Snertingdal,OP,60.8804,10.3882
2839,Øvre Snertingdal,OP,60.9326,10.2421
2659,Dombås,OP,62.0696,9.1235
2660,Dombås,OP,62.0696,9.1235
2661,Hjerkinn,OP,62.2167,9.5333
2662,Dovre,OP,61.9844,9.254
2663,Dovreskogen,OP,61.9204,9.3385
2664,Dovre,OP,61.9844,9.254
2665,Lesja,OP,62.1184,8.8642
2666,Lora,OP,62.1483,8.6868
2667,Lesjaverk,OP,62.1919,8.5419
2668,Lesjaskog,OP,62.2329,8.357
2669,Bjorli,OP,62.2596,8.204
2690,Skjåk,OP,61.8839,8.2691
2693,Nordberg,OP,61.9147,8.0929
2694,Skjåk,OP,61.8849,8.2636
2695,Grotli,OP,62.0135,7.6303
2685,Garmo,OP,61.8278,8.7889
2686,Lom,OP,61.8333,8.55
2687,Bøverdalen,OP,61.7205,8.3464
2688,Lom,OP,61.8333,8.55
2680,Vågå,OP,61.875,9.0967
2682,Lalm,OP,61.8167,9.2667
2683,Tessanden,OP,61.8475,8.9629
2684,Vågå,OP,61.868,9.0864
2639,Vinstra,OP,61.5951,9.7523
2640,Vinstra,OP,61.5951,9.7523
2642,Kvam,OP,61.6667,9.7
2643,Skåbu,OP,61.5333,9.4167
2670,Otta,OP,61.7712,9.5353
2672,Sel,OP,61.8446,9.4135
2673,Høvringen,OP,61.9,9.4833
2674,Mysusæter,OP,61.8,9.6833
2675,Otta,OP,61.7712,9.5353
2676,Heidal,OP,61.7556,9.2997
2677,Nedre Heidal,OP,61.7093,9.4304
2645,Sør-Fron,OP,61.5766,9.8623
2646,Gålå,OP,61.5021,9.7935
2647,Sør-Fron,OP,61.5667,9.9333
2648,Sør-Fron,OP,61.5667,9.9333
2658,Espedalen,OP,61.439,9.4955
2630,Ringebu,OP,61.5167,10.1667
2631,Ringebu,OP,61.5167,10.1667
2632,Venabygd,OP,61.5833,10.05
2633,Fåvang,OP,61.454,10.1895
2634,Fåvang,OP,61.4565,10.1948
2635,Tretten,OP,61.3142,10.3007
2636,Øyer,OP,61.265,10.413
2637,Øyer,OP,61.2462,10.4393
2649,Østre Gausdal,OP,61.2271,10.2289
2651,Østre Gausdal,OP,61.2572,10.1563
2652,Svingvoll,OP,61.2952,10.1833
2653,Vestre Gausdal,OP,61.2,10.15
2656,Follebu,OP,61.2333,10.2833
2657,Svatsum,OP,61.3196,9.8606
2820,Nordre Toten,OP,60.7411,10.7592
2847,Kolbu,OP,60.6167,10.7667
2848,Skreia,OP,60.65,10.9333
2849,Kapp,OP,60.7142,10.8577
2850,Lena,OP,60.6747,10.8133
2851,Lena,OP,60.6747,10.8133
2857,Skreia,OP,60.65,10.9333
2858,Kapp,OP,60.7142,10.8617
2830,Raufoss,OP,60.7264,10.6172
2831,Raufoss,OP,60.7264,10.6172
2840,Reinsvoll,OP,60.6833,10.6167
2843,Eina,OP,60.6333,10.6
2846,Bøverbru,OP,60.6646,10.6747
2853,Reinsvoll,OP,60.6833,10.6167
2854,Eina,OP,60.6333,10.6
3520,Jevnaker,OP,60.2414,10.385
3521,Jevnaker,OP,60.2414,10.385
2713,Roa,OP,60.2909,10.6159
2715,Lunner,OP,60.3167,10.55
2716,Harestua,OP,60.2073,10.7129
2717,Grua,OP,60.2667,10.6667
2720,Grindvoll,OP,60.2973,10.4843
2730,Lunner,OP,60.3167,10.55
2740,Roa,OP,60.2909,10.6159
2742,Grua,OP,60.2667,10.6667
2743,Harestua,OP,60.1976,10.7159
2711,Gran,OP,60.3667,10.5667
2712,Brandbu,OP,60.4333,10.4667
2714,Jaren,OP,60.3927,10.5616
2718,Brandbu,OP,60.4333,10.4667
2750,Gran,OP,60.3667,10.5667
2760,Brandbu,OP,60.4333,10.4667
2770,Jaren,OP,60.3927,10.5616
3522,Bjoneroa,OP,60.5167,10.2667
2860,Hov,OP,60.6987,10.3519
2861,Landåsbygda,OP,60.8334,10.2966
2862,Fluberg,OP,60.7667,10.25
2864,Fall,OP,60.6833,10.3667
2866,Enger,OP,60.5667,10.35
2867,Hov,OP,60.6987,10.3519
2879,Odnes,OP,60.8,10.2
2870,Dokka,OP,60.84,10.0618
2880,Nord-Torpa,OP,61.0168,9.9016
2881,Aust-Torpa,OP,60.9505,10.1389
2882,Dokka,OP,60.84,10.0618
2929,Bagn,OP,60.8225,9.5521
2930,Bagn,OP,60.8225,9.5521
2933,Reinli,OP,60.8333,9.5
2936,Begnadalen,OP,60.6476,9.7834
2937,Begna,OP,60.6475,9.8549
3528,Hedalen,OP,60.6039,9.7449
2890,Etnedal,OP,60.8878,9.6414
2893,Etnedal,OP,60.8874,9.6437
2900,Fagernes,OP,60.9858,9.2324
2901,Fagernes,OP,60.9858,9.2324
2907,Leira I Valdres,OP,60.9858,9.2324
2910,Aurdal,OP,60.9333,9.4
2917,Skrautvål,OP,61.0331,9.2088
2918,Ulnes,OP,61,9.1
2920,Leira I Valdres,OP,60.8225,9.5521
2923,Tisleidalen,OP,60.8691,9.2176
2959,Røn,OP,61.0331,9.0544
2960,Røn,OP,61.0333,9.0564
2966,Slidre,OP,61.088,8.9814
2967,Lomen,OP,61.1344,8.8906
2939,Heggenes,OP,61.1438,9.0694
2940,Heggenes,OP,61.1438,9.0694
2943,Rogne,OP,61.1,9.1333
2950,Skammestein,OP,61.2,9.0167
2952,Beito,OP,61.2435,8.8667
2953,Beitostølen,OP,61.25,8.9167
2973,Ryfoss,OP,60.5696,9.104
2974,Vang I Valdres,OP,61.153,8.6113
2975,Vang I Valdres,OP,61.153,8.6113
2977,Øye,OP,61.1667,8.4
2985,Tyinkrysset,OP,61.204,8.2395
3001,Drammen,BU,59.7439,10.2045
3002,Drammen,BU,59.7439,10.2045
3003,Drammen,BU,59.7439,10.2045
3004,Drammen,BU,59.7439,10.2045
3005,Drammen,BU,59.7439,10.2045
3006,Drammen,BU,59.7192,10.146
3007,Drammen,BU,59.7531,10.126
3008,Drammen,BU,59.7439,10.2045
3011,Drammen,BU,59.7439,10.2045
3012,Drammen,BU,59.7439,10.2045
3013,Drammen,BU,59.7439,10.2045
3014,Drammen,BU,59.7439,10.2045
3015,Drammen,BU,59.7439,10.2045
3016,Drammen,BU,59.7439,10.2045
3017,Drammen,BU,59.7439,10.2045
3018,Drammen,BU,59.7439,10.2045
3019,Drammen,BU,59.7439,10.2045
3020,Drammen,BU,59.7439,10.2045
3021,Drammen,BU,59.7439,10.2045
3022,Drammen,BU,59.7439,10.2045
3023,Drammen,BU,59.7439,10.2045
3024,Drammen,BU,59.7538,10.137
3025,Drammen,BU,59.7574,10.1481
3026,Drammen,BU,59.7584,10.145
3027,Drammen,BU,59.7527,10.1261
3028,Drammen,BU,59.7567,10.1237
3029,Drammen,BU,59.7616,10.1267
3030,Drammen,BU,59.7289,10.1463
3031,Drammen,BU,59.7232,10.1434
3032,Drammen,BU,59.7098,10.1547
3033,Drammen,BU,59.7189,10.1598
3034,Drammen,BU,59.7439,10.2045
3035,Drammen,BU,59.7439,10.2045
3036,Drammen,BU,59.6962,10.2443
3037,Drammen,BU,59.6954,10.2993
3038,Drammen,BU,59.712,10.2571
3039,Drammen,BU,59.6863,10.245
3040,Drammen,BU,59.7439,10.2045
3041,Drammen,BU,59.7439,10.2045
3042,Drammen,BU,59.7439,10.2045
3043,Drammen,BU,59.7439,10.2045
3044,Drammen,BU,59.7439,10.2045
3045,Drammen,BU,59.7439,10.2045
3046,Drammen,BU,59.7439,10.2045
3047,Drammen,BU,59.7439,10.2045
3048,Drammen,BU,59.7449,10.1443
3601,Kongsberg,BU,59.6686,9.6502
3602,Kongsberg,BU,59.6686,9.6502
3603,Kongsberg,BU,59.6686,9.6502
3604,Kongsberg,BU,59.6686,9.6502
3605,Kongsberg,BU,59.6686,9.6502
3606,Kongsberg,BU,59.6686,9.6502
3608,Heistadmoen,BU,59.596,9.6635
3610,Kongsberg,BU,59.6686,9.6502
3611,Kongsberg,BU,59.6686,9.6502
3612,Kongsberg,BU,59.6686,9.6502
3613,Kongsberg,BU,59.6686,9.6502
3614,Kongsberg,BU,59.7082,9.5858
3615,Kongsberg,BU,59.6686,9.6502
3616,Kongsberg,BU,59.6686,9.6502
3617,Kongsberg,BU,59.6686,9.6502
3618,Skollenborg,BU,59.6217,9.6829
3619,Skollenborg,BU,59.6218,9.6829
3646,Hvittingfoss,BU,59.483,10.0102
3647,Hvittingfoss,BU,59.4857,10.0117
3648,Passebekk,BU,59.5113,9.8271
3501,Hønefoss,BU,60.168,10.2565
3502,Hønefoss,BU,60.168,10.2565
3503,Hønefoss,BU,60.168,10.2565
3504,Hønefoss,BU,60.168,10.2565
3507,Hønefoss,BU,60.168,10.2565
3510,Hønefoss,BU,60.168,10.2565
3511,Hønefoss,BU,60.168,10.2565
3512,Hønefoss,BU,60.168,10.2565
3513,Hønefoss,BU,60.168,10.2565
3514,Hønefoss,BU,60.1723,10.3208
3515,Hønefoss,BU,60.168,10.2565
3516,Hønefoss,BU,60.3349,10.1063
3517,Hønefoss,BU,60.168,10.2565
3518,Hønefoss,BU,60.1843,10.199
3519,Hønefoss,BU,60.1353,10.1678
3523,Nes I Ådal,BU,60.5667,9.9833
3524,Nes I Ådal,BU,60.5667,9.9833
3525,Hallingby,BU,60.2667,10.2
3526,Hallingby,BU,60.2667,10.2
3533,Tyristrand,BU,60.1,10.1
3534,Sokna,BU,60.2333,9.9
3529,Røyse,BU,60.0789,10.2808
3530,Røyse,BU,60.0774,10.1973
3531,Krokkleiva,BU,60.062,10.3104
3538,Sollihøgda,BU,59.9641,10.3452
3539,Flå,BU,60.4302,9.462
3540,Nesbyen,BU,60.5681,9.1027
3541,Nesbyen,BU,60.5681,9.1027
3550,Gol,BU,60.7014,8.9457
3551,Gol,BU,60.7014,8.9457
3560,Hemsedal,BU,60.8629,8.5534
3561,Hemsedal,BU,60.8629,8.5534
3570,Ål,BU,60.6282,8.5628
3571,Ål,BU,60.6282,8.5628
3579,Torpo,BU,60.6667,8.7167
3575,Hol,BU,60.6151,8.294
3576,Hol,BU,60.6151,8.294
3577,Hovet,BU,60.6333,8.1667
3580,Geilo,BU,60.5333,8.2076
3581,Geilo,BU,60.5333,8.2076
3588,Dagali,BU,60.415,8.4622
3593,Ustaoset,BU,60.5,8.0667
3595,Haugastøl,BU,60.512,7.8631
3350,Prestfoss,BU,60.0422,9.6302
3351,Prestfoss,BU,60.0422,9.6302
3355,Solumsmoen,BU,59.9635,9.7709
3358,Nedre Eggedal,BU,60.1347,9.4371
3359,Eggedal,BU,60.2333,9.3667
3535,Krøderen,BU,60.15,9.8167
3536,Noresund,BU,60.1803,9.6231
3537,Krøderen,BU,60.15,9.8167
3340,Åmot,BU,59.9,9.9
3341,Åmot,BU,59.9,9.9
3342,Åmot,BU,59.9,9.9
3360,Geithus,BU,59.95,9.9833
3361,Geithus,BU,59.95,9.9833
3370,Vikersund,BU,59.9659,9.995
3371,Vikersund,BU,59.9659,9.995
3300,Hokksund,BU,59.7708,9.9099
3301,Hokksund,BU,59.7708,9.9099
3320,Vestfossen,BU,59.7333,9.8667
3321,Vestfossen,BU,59.7333,9.8667
3322,Fiskum,BU,59.7,9.8
3330,Skotselv,BU,59.845,9.8841
3331,Skotselv,BU,59.8424,9.8925
3050,Mjøndalen,BU,59.7463,10.0189
3051,Mjøndalen,BU,59.7463,10.0189
3053,Steinberg,BU,59.7667,9.95
3054,Krokstadelva,BU,59.75,10.0167
3055,Krokstadelva,BU,59.75,10.0167
3056,Solbergelva,BU,59.7667,10.0667
3057,Solbergelva,BU,59.7667,10.0667
3058,Solbergmoen,BU,59.7561,10.0221
3400,Lier,BU,59.8167,10.25
3401,Lier,BU,59.8167,10.25
3407,Tranby,BU,59.8167,10.25
3408,Tranby,BU,59.8167,10.25
3410,Sylling,BU,59.9,10.2833
3411,Sylling,BU,59.9,10.2833
3412,Lierstranda,BU,59.7557,10.2617
3420,Lierskogen,BU,59.8196,10.3301
3421,Lierskogen,BU,59.7833,10.2833
3425,Reistad,BU,59.7833,10.2833
3428,Lier,BU,59.7833,10.2833
3430,Spikkestad,BU,59.7426,10.3401
3431,Spikkestad,BU,59.7426,10.3401
3440,Røyken,BU,59.7475,10.3936
3441,Røyken,BU,59.7475,10.3936
3442,Hyggen,BU,59.7167,10.3553
3470,Slemmestad,BU,59.7804,10.4988
3471,Slemmestad,BU,59.7804,10.4988
3472,Bødalen,BU,59.76,10.4612
3474,Åros,BU,59.7031,10.5136
3477,Båtstø,BU,59.7242,10.5181
3478,Nærsnes,BU,59.76,10.4983
3475,Sætre,BU,59.6817,10.5247
3476,Sætre,BU,59.6817,10.5247
3480,Filtvet,BU,59.5736,10.615
3481,Tofte,BU,59.5427,10.5614
3482,Tofte,BU,59.5427,10.5614
3483,Kana,BU,59.5268,10.4759
3484,Holmsbu,BU,59.5614,10.4275
3490,Klokkarstua,BU,59.6139,10.4579
3491,Klokkarstua,BU,59.6139,10.4579
3620,Flesberg,BU,59.85,9.45
3621,Lampeland,BU,59.8349,9.5791
3622,Svene,BU,59.8,9.5833
3623,Lampeland,BU,59.8349,9.5791
3624,Lyngdal I Numedal,BU,59.9,9.5167
3626,Rollag,BU,59.9843,9.2964
3627,Veggli,BU,60.0409,9.1564
3628,Veggli,BU,60.0409,9.1564
3629,Nore,BU,60.1667,9.0167
3630,Rødberg,BU,60.2672,8.9472
3631,Rødberg,BU,60.2672,8.9472
3632,Uvdal,BU,60.2667,8.7333
3167,Åsgårdstrand,VF,59.3489,10.4675
3179,Åsgårdstrand,VF,59.3489,10.4675
3180,Nykirke,VF,59.4219,10.3808
3181,Horten,VF,59.4172,10.4834
3182,Horten,VF,59.4172,10.4834
3183,Horten,VF,59.4172,10.4834
3184,Borre,VF,59.414,10.4646
3185,Skoppum,VF,59.3833,10.4167
3186,Horten,VF,59.4172,10.4834
3187,Horten,VF,59.4172,10.4834
3188,Horten,VF,59.4172,10.4834
3189,Horten,VF,59.4172,10.4834
3191,Horten,VF,59.4172,10.4834
3192,Horten,VF,59.3058,10.1742
3193,Horten,VF,59.4172,10.4834
3194,Horten,VF,59.4172,10.4834
3195,Skoppum,VF,59.3833,10.4167
3196,Horten,VF,59.4172,10.4834
3199,Borre,VF,59.4116,10.4723
3080,Holmestrand,VF,59.4876,10.3176
3081,Holmestrand,VF,59.4876,10.3176
3082,Holmestrand,VF,59.4876,10.3176
3087,Botne,VF,59.4999,10.2572
3088,Botne,VF,59.4876,10.3176
3101,Tønsberg,VF,59.2675,10.4076
3103,Tønsberg,VF,59.2675,10.4076
3104,Tønsberg,VF,59.2675,10.4076
3105,Tønsberg,VF,59.2675,10.4076
3107,Sem,VF,59.2833,10.3333
3109,Tønsberg,VF,59.2675,10.4076
3110,Tønsberg,VF,59.2675,10.4076
3111,Tønsberg,VF,59.2675,10.4076
3112,Tønsberg,VF,59.2675,10.4076
3113,Tønsberg,VF,59.2675,10.4076
3114,Tønsberg,VF,59.2916,10.4682
3115,Tønsberg,VF,59.2675,10.4076
3116,Tønsberg,VF,59.2675,10.4076
3117,Tønsberg,VF,59.2675,10.4076
3118,Tønsberg,VF,59.2675,10.4076
3119,Tønsberg,VF,59.2675,10.4076
3122,Tønsberg,VF,59.2675,10.4076
3123,Tønsberg,VF,59.2675,10.4076
3124,Tønsberg,VF,59.2512,10.473
3125,Tønsberg,VF,59.2675,10.4076
3126,Tønsberg,VF,59.2675,10.4076
3127,Tønsberg,VF,59.2675,10.4076
3150,Tolvsrød,VF,59.2741,10.478
3151,Tolvsrød,VF,59.2741,10.478
3152,Tolvsrød,VF,59.2741,10.478
3153,Tolvsrød,VF,59.2741,10.478
3154,Tolvsrød,VF,59.2741,10.478
3157,Barkåker,VF,59.3167,10.3833
3166,Tolvsrød,VF,59.2741,10.478
3170,Sem,VF,59.2833,10.3333
3171,Sem,VF,59.2833,10.3333
3172,Vear,VF,59.2698,10.3556
3201,Sandefjord,VF,59.1312,10.2166
3202,Sandefjord,VF,59.1312,10.2166
3203,Sandefjord,VF,59.1312,10.2166
3204,Sandefjord,VF,59.1312,10.2166
3205,Sandefjord,VF,59.1312,10.2166
3206,Sandefjord,VF,59.1312,10.2166
3207,Sandefjord,VF,59.1312,10.2166
3208,Sandefjord,VF,59.1312,10.2166
3209,Sandefjord,VF,59.1312,10.2166
3210,Sandefjord,VF,59.1312,10.2166
3211,Sandefjord,VF,59.1312,10.2166
3212,Sandefjord,VF,59.1312,10.2166
3213,Sandefjord,VF,59.1312,10.2166
3214,Sandefjord,VF,59.1312,10.2166
3215,Sandefjord,VF,59.1312,10.2166
3216,Sandefjord,VF,59.1312,10.2166
3217,Sandefjord,VF,59.1312,10.2166
3218,Sandefjord,VF,59.1318,10.2699
3219,Sandefjord,VF,59.1312,10.2166
3220,Sandefjord,VF,59.1631,10.1607
3221,Sandefjord,VF,59.1312,10.2166
3222,Sandefjord,VF,59.1312,10.2166
3223,Sandefjord,VF,59.1312,10.2166
3224,Sandefjord,VF,59.1312,10.2166
3225,Sandefjord,VF,59.1312,10.2166
3226,Sandefjord,VF,59.1312,10.2166
3227,Sandefjord,VF,59.1312,10.2166
3228,Sandefjord,VF,59.1312,10.2166
3229,Sandefjord,VF,59.1312,10.2166
3230,Sandefjord,VF,59.1312,10.2166
3231,Sandefjord,VF,59.1312,10.2166
3232,Sandefjord,VF,59.1201,10.1624
3233,Sandefjord,VF,59.1426,10.294
3234,Sandefjord,VF,59.0883,10.2664
3235,Sandefjord,VF,59.1312,10.2166
3236,Sandefjord,VF,59.1266,10.2696
3237,Sandefjord,VF,59.1036,10.2926
3238,Sandefjord,VF,59.1312,10.2166
3239,Sandefjord,VF,59.1749,10.241
3240,Sandefjord,VF,59.1312,10.2166
3241,Sandefjord,VF,59.1312,10.2166
3242,Sandefjord,VF,59.1312,10.2166
3244,Sandefjord,VF,59.1312,10.2166
3246,Sandefjord,VF,59.1312,10.2166
3249,Sandefjord,VF,59.1312,10.2166
3251,Larvik,VF,59.0533,10.0352
3252,Larvik,VF,59.0533,10.0352
3253,Larvik,VF,59.0533,10.0352
3254,Larvik,VF,59.0533,10.0352
3255,Larvik,VF,59.0533,10.0352
3256,Larvik,VF,59.0533,10.0352
3257,Larvik,VF,59.0533,10.0352
3258,Larvik,VF,59.0533,10.0352
3259,Larvik,VF,59.0533,10.0352
3260,Larvik,VF,59.0533,10.0352
3261,Larvik,VF,59.0347,10.1042
3262,Larvik,VF,59.0533,10.0352
3263,Larvik,VF,59.0533,10.0352
3264,Larvik,VF,59.0533,10.0352
3265,Larvik,VF,59.0533,10.0352
3267,Larvik,VF,59.0243,9.9906
3268,Larvik,VF,59.0533,10.0352
3269,Larvik,VF,59.0533,10.0352
3270,Larvik,VF,59.0922,10.102
3271,Larvik,VF,59.0533,10.0352
3274,Larvik,VF,59.0533,10.0352
3280,Tjodalyng,VF,59.0558,10.127
3281,Tjodalyng,VF,59.0627,10.1516
3282,Kvelde,VF,59.1833,9.9833
3284,Kvelde,VF,59.1833,9.9833
3285,Larvik,VF,59.0533,10.0352
3290,Stavern,VF,59,10.0333
3291,Stavern,VF,59,10.0333
3292,Stavern,VF,59,10.0333
3294,Stavern,VF,58.9802,9.9628
3295,Helgeroa,VF,59,9.85
3296,Nevlunghamn,VF,58.9667,9.8667
3297,Helgeroa,VF,59,9.85
3060,Svelvik,VF,59.6137,10.4087
3061,Svelvik,VF,59.6137,10.4087
3075,Berger,VF,59.545,10.3714
3070,Sande I Vestfold,VF,59.5868,10.2081
3071,Sande I Vestfold,VF,59.5868,10.2081
3090,Hof,VF,59.5301,10.0903
3092,Sundbyfoss,VF,59.5135,10.1267
3095,Eidsfoss,VF,59.6,10.0333
3164,Revetal,VF,59.3724,10.2631
3174,Revetal,VF,59.3724,10.2631
3175,Ramnes,VF,59.3477,10.251
3176,Undrumsdal,VF,59.3719,10.3686
3177,Våle,VF,59.4169,10.2787
3178,Våle,VF,59.418,10.2783
3158,Andebu,VF,59.3059,10.1765
3162,Andebu,VF,59.3059,10.1765
3243,Kodal,VF,59.2145,10.1379
3245,Kodal,VF,59.2147,10.1367
3108,Vear,VF,59.2649,10.3959
3159,Melsomvik,VF,59.2239,10.3447
3160,Stokke,VF,59.2236,10.3003
3161,Stokke,VF,59.2236,10.3003
3168,Melsomvik,VF,59.2239,10.3447
3169,Stokke,VF,59.2236,10.3003
3173,Vear,VF,59.2499,10.3581
3106,Nøtterøy,VF,59.2333,10.4
3120,Nøtterøy,VF,59.2333,10.4
3121,Nøtterøy,VF,59.2333,10.4
3128,Nøtterøy,VF,59.2333,10.4
3131,Husøysund,VF,59.2358,10.4519
3132,Husøysund,VF,59.2395,10.4579
3133,Duken,VF,59.1833,10.45
3135,Torød,VF,59.1833,10.45
3137,Torød,VF,59.1833,10.45
3138,Skallestad,VF,59.1833,10.45
3139,Skallestad,VF,59.1833,10.45
3140,Nøtterøy,VF,59.2333,10.4
3141,Kjøpmannskjær,VF,59.1957,10.3968
3142,Vestskogen,VF,59.2429,10.397
3143,Kjøpmannskjær,VF,59.1957,10.3968
3144,Veierland,VF,59.1556,10.3528
3163,Nøtterøy,VF,59.2333,10.4
3145,Tjøme,VF,59.1109,10.3933
3148,Hvasser,VF,59.0791,10.4421
3165,Tjøme,VF,59.1109,10.3933
3275,Svarstad,VF,59.399,9.9698
3276,Svarstad,VF,59.399,9.9698
3277,Steinsholt,VF,59.311,9.8825
3901,Porsgrunn,TE,59.1405,9.6561
3902,Porsgrunn,TE,59.1405,9.6561
3903,Porsgrunn,TE,59.1405,9.6561
3904,Porsgrunn,TE,59.1405,9.6561
3905,Porsgrunn,TE,59.1405,9.6561
3906,Porsgrunn,TE,59.0959,9.6849
3908,Porsgrunn,TE,59.1405,9.6561
3910,Porsgrunn,TE,59.1405,9.6561
3911,Porsgrunn,TE,59.1405,9.6561
3912,Porsgrunn,TE,59.1405,9.6561
3913,Porsgrunn,TE,59.1405,9.6561
3914,Porsgrunn,TE,59.1405,9.6561
3915,Porsgrunn,TE,59.1405,9.6561
3916,Porsgrunn,TE,59.1405,9.6561
3917,Porsgrunn,TE,59.1405,9.6561
3918,Porsgrunn,TE,59.1405,9.6561
3919,Porsgrunn,TE,59.1405,9.6561
3920,Porsgrunn,TE,59.1405,9.6561
3921,Porsgrunn,TE,59.1405,9.6561
3922,Porsgrunn,TE,59.1405,9.6561
3924,Porsgrunn,TE,59.1405,9.6561
3925,Porsgrunn,TE,59.1405,9.6561
3928,Porsgrunn,TE,59.1405,9.6561
3929,Porsgrunn,TE,59.1405,9.6561
3930,Porsgrunn,TE,59.1405,9.6561
3931,Porsgrunn,TE,59.1405,9.6561
3932,Porsgrunn,TE,59.1405,9.6561
3933,Porsgrunn,TE,59.1405,9.6561
3936,Porsgrunn,TE,59.1405,9.6561
3937,Porsgrunn,TE,59.1405,9.6561
3939,Porsgrunn,TE,59.1405,9.6561
3940,Porsgrunn,TE,59.0805,9.6797
3941,Porsgrunn,TE,59.0778,9.6888
3942,Porsgrunn,TE,59.0957,9.6798
3943,Porsgrunn,TE,59.0956,9.686
3944,Porsgrunn,TE,59.1065,9.6982
3946,Porsgrunn,TE,59.1405,9.6561
3947,Langangen,TE,59.1,9.8
3948,Porsgrunn,TE,59.176,9.8108
3949,Porsgrunn,TE,59.0771,9.7369
3950,Brevik,TE,59.0667,9.7
3991,Brevik,TE,59.0667,9.7
3996,Porsgrunn,TE,59.1212,9.7096
3997,Porsgrunn,TE,59.1405,9.6561
3998,Porsgrunn,TE,59.1405,9.6561
3701,Skien,TE,59.2096,9.609
3702,Skien,TE,59.2096,9.609
3703,Skien,TE,59.2096,9.609
3704,Skien,TE,59.2096,9.609
3705,Skien,TE,59.2096,9.609
3706,Skien,TE,59.2096,9.609
3707,Skien,TE,59.2096,9.609
3708,Skien,TE,59.2096,9.609
3710,Skien,TE,59.2096,9.609
3711,Skien,TE,59.164,9.6641
3712,Skien,TE,59.1682,9.6504
3713,Skien,TE,59.2096,9.609
3714,Skien,TE,59.2096,9.609
3715,Skien,TE,59.2096,9.609
3716,Skien,TE,59.2096,9.609
3717,Skien,TE,59.2096,9.609
3718,Skien,TE,59.2096,9.609
3719,Skien,TE,59.2096,9.609
3720,Skien,TE,59.2163,9.5166
3721,Skien,TE,59.2503,9.5691
3722,Skien,TE,59.2096,9.609
3723,Skien,TE,59.2096,9.609
3724,Skien,TE,59.2096,9.609
3725,Skien,TE,59.2096,9.609
3726,Skien,TE,59.2096,9.609
3727,Skien,TE,59.2096,9.609
3728,Skien,TE,59.2096,9.609
3729,Skien,TE,59.1925,9.4423
3730,Skien,TE,59.2096,9.609
3731,Skien,TE,59.1973,9.5389
3732,Skien,TE,59.2096,9.609
3733,Skien,TE,59.2096,9.609
3734,Skien,TE,59.2096,9.609
3735,Skien,TE,59.2096,9.609
3736,Skien,TE,59.1609,9.6344
3737,Skien,TE,59.1481,9.6252
3738,Skien,TE,59.1489,9.6152
3739,Skien,TE,59.1318,9.5177
3740,Skien,TE,59.1523,9.6339
3741,Skien,TE,59.2251,9.5597
3742,Skien,TE,59.223,9.5509
3743,Skien,TE,59.2182,9.5561
3744,Skien,TE,59.2086,9.5549
3746,Skien,TE,59.2096,9.609
3747,Skien,TE,59.2096,9.609
3785,Skien,TE,59.2148,9.5255
3787,Skien,TE,59.1472,9.6208
3792,Skien,TE,59.2096,9.609
3796,Skien,TE,59.164,9.6641
3798,Skien,TE,59.1703,9.6512
3671,Notodden,TE,59.5594,9.2585
3672,Notodden,TE,59.5594,9.2585
3673,Notodden,TE,59.5594,9.2585
3674,Notodden,TE,59.5594,9.2585
3675,Notodden,TE,59.5594,9.2585
3676,Notodden,TE,59.5741,9.2007
3677,Notodden,TE,59.593,9.1488
3678,Notodden,TE,59.5594,9.2585
3679,Notodden,TE,59.5594,9.2585
3680,Notodden,TE,59.5594,9.2585
3681,Notodden,TE,59.5594,9.2585
3683,Notodden,TE,59.5306,9.3027
3684,Notodden,TE,59.5594,9.2585
3691,Gransherad,TE,59.6833,9.0167
3748,Siljan,TE,59.2884,9.71
3749,Siljan,TE,59.2884,9.71
3960,Stathelle,TE,59.05,9.6833
3965,Herre,TE,59.1,9.5667
3966,Stathelle,TE,59.1025,9.5787
3967,Bamble Sommerrute,TE,59.0667,9.6444
3970,Langesund,TE,59.0007,9.7488
3993,Langesund,TE,59.0007,9.7488
3994,Langesund,TE,59.0007,9.7488
3995,Stathelle,TE,59.05,9.6833
3999,Herre,TE,59.1,9.5667
3766,Sannidal,TE,58.8833,9.2833
3770,Kragerø,TE,58.8693,9.4149
3780,Skåtøy,TE,58.85,9.5167
3781,Jomfruland,TE,58.8667,9.5833
3783,Kragerø Skjærgård,TE,58.9759,9.5221
3788,Stabbestad,TE,58.85,9.4
3789,Kragerø,TE,58.8693,9.4149
3790,Helle,TE,58.9,9.4
3791,Kragerø,TE,58.8693,9.4149
3793,Sannidal,TE,58.8833,9.2833
3794,Helle,TE,58.9,9.4
3750,Drangedal,TE,59.1,9.0667
3753,Tørdal,TE,59.1562,8.8099
3760,Neslandsvatn,TE,58.9679,9.158
3795,Drangedal,TE,59.1,9.0667
3825,Lunde,TE,59.3167,9.1333
3830,Ulefoss,TE,59.2838,9.2646
3831,Ulefoss,TE,59.2838,9.2646
3832,Lunde,TE,59.3167,9.1333
3800,Bø I Telemark,TE,59.413,9.0693
3833,Bø I Telemark,TE,59.413,9.0693
3810,Gvarv,TE,59.3875,9.1737
3812,Akkerhaugen,TE,59.3954,9.2511
3820,Nordagutu,TE,59.4159,9.3258
3834,Gvarv,TE,59.3875,9.1737
3650,Tinn Austbygd,TE,60.0333,8.8333
3652,Hovin I Telemark,TE,59.975,8.7917
3656,Atrå,TE,59.9859,8.7341
3658,Miland,TE,59.9167,8.75
3660,Rjukan,TE,59.8789,8.5941
3661,Rjukan,TE,59.8789,8.5941
3666,Tinn Austbygd,TE,60.0333,8.8333
3665,Sauland,TE,59.6161,8.9375
3690,Hjartdal,TE,59.6007,8.6501
3692,Sauland,TE,59.6161,8.9375
3697,Tuddal,TE,59.7534,8.7965
3835,Seljord,TE,59.4894,8.634
3840,Seljord,TE,59.4894,8.634
3841,Flatdal,TE,59.5667,8.5667
3844,Åmotsdal,TE,59.6309,8.4038
3836,Kviteseid,TE,59.4022,8.4927
3848,Morgedal,TE,59.4667,8.4333
3849,Vråliosen,TE,59.3667,8.1833
3850,Kviteseid,TE,59.4022,8.4927
3853,Vrådal,TE,59.3247,8.4926
3854,Nissedal,TE,59.1652,8.501
3855,Treungen,TE,59.0215,8.5237
3883,Treungen,TE,59.0215,8.5237
3870,Fyresdal,TE,59.1865,8.0895
3885,Fyresdal,TE,59.1865,8.0895
3880,Dalen,TE,59.4447,8.0117
3882,Åmdals Verk,TE,59.3667,8.05
3886,Dalen,TE,59.4447,8.0117
3891,Høydalsmo,TE,59.4984,8.1979
3864,Rauland,TE,59.6947,8.063
3884,Rauland,TE,59.695,8.0639
3887,Vinje,TE,59.5659,7.9692
3888,Edland,TE,59.7317,7.5881
3890,Vinje,TE,59.5714,7.9877
3893,Vinjesvingen,TE,59.6167,7.8
3895,Edland,TE,59.7389,7.6005
4950,Risør,AA,58.7206,9.2342
4951,Risør,AA,58.7206,9.2342
4952,Risør,AA,58.7206,9.2342
4953,Risør,AA,58.7206,9.2342
4955,Risør,AA,58.7206,9.2342
4974,Søndeled,AA,58.7667,9.0833
4990,Søndeled,AA,58.7667,9.0833
4994,Akland,AA,58.7333,9.05
4870,Fevik,AA,58.3794,8.6766
4876,Grimstad,AA,58.3405,8.5934
4877,Grimstad,AA,58.3405,8.5934
4878,Grimstad,AA,58.3405,8.5934
4879,Grimstad,AA,58.3405,8.5934
4884,Grimstad,AA,58.3405,8.5934
4885,Grimstad,AA,58.3904,8.6359
4886,Grimstad,AA,58.3531,8.5148
4887,Grimstad,AA,58.2959,8.5114
4888,Homborsund,AA,58.2679,8.5113
4889,Fevik,AA,58.3794,8.6766
4891,Grimstad,AA,58.3405,8.5934
4892,Grimstad,AA,58.3405,8.5934
4894,Grimstad,AA,58.3405,8.5934
4896,Grimstad,AA,58.3405,8.5934
4898,Grimstad,AA,58.3405,8.5934
4801,Arendal,AA,58.4615,8.7725
4802,Arendal,AA,58.4615,8.7725
4803,Arendal,AA,58.4615,8.7725
4804,Arendal,AA,58.4615,8.7725
4808,Arendal,AA,58.4615,8.7725
4809,Arendal,AA,58.4615,8.7725
4810,Eydehavn,AA,58.5006,8.8722
4812,Kongshavn,AA,58.4696,8.8205
4815,Saltrød,AA,58.4696,8.8205
4816,Kolbjørnsvik,AA,58.4531,8.7706
4817,His,AA,58.4323,8.7442
4818,Færvik,AA,58.4553,8.8186
4821,Rykene,AA,58.4,8.6333
4823,Nedenes,AA,58.4167,8.7
4824,Bjorbekk,AA,58.4414,8.709
4825,Arendal,AA,58.4615,8.7725
4836,Arendal,AA,58.4615,8.7725
4838,Arendal,AA,58.4615,8.7725
4839,Arendal,AA,58.4615,8.7725
4841,Arendal,AA,58.4615,8.7725
4842,Arendal,AA,58.4615,8.7725
4843,Arendal,AA,58.4615,8.7725
4844,Arendal,AA,58.4615,8.7725
4846,Arendal,AA,58.4615,8.7725
4847,Arendal,AA,58.4615,8.7725
4848,Arendal,AA,58.4615,8.7725
4849,Arendal,AA,58.5235,8.7855
4851,Saltrød,AA,58.4946,8.8489
4852,Færvik,AA,58.4553,8.8186
4853,His,AA,58.4645,8.7512
4854,Nedenes,AA,58.4167,8.7
4856,Arendal,AA,58.4602,8.7157
4857,Arendal,AA,58.4653,8.7092
4858,Arendal,AA,58.4599,8.7157
4859,Arendal,AA,58.4615,8.7725
4861,Arendal,AA,58.4615,8.7725
4862,Eydehavn,AA,58.5006,8.8722
4920,Staubø,AA,58.5636,8.9831
4971,Sundebru,AA,58.8222,9.0739
4972,Gjerstad,AA,58.8808,9.0186
4980,Gjerstad,AA,58.8808,9.0186
4993,Sundebru,AA,58.8382,9.087
4973,Vegårshei,AA,58.7492,8.8642
4985,Vegårshei,AA,58.7493,8.8627
4900,Tvedestrand,AA,58.622,8.9315
4901,Tvedestrand,AA,58.622,8.9315
4902,Tvedestrand,AA,58.622,8.9315
4909,Songe,AA,58.6833,9
4910,Lyngør,AA,58.6324,9.1277
4912,Gjeving,AA,58.645,9.1206
4915,Vestre Sandøya,AA,58.5853,9.0384
4916,Borøy,AA,58.5836,9.0153
4934,Nesgrenda,AA,58.6333,8.8833
4820,Froland,AA,58.5333,8.65
4827,Frolands Verk,AA,58.5009,8.5808
4828,Mjåvatn,AA,58.5333,8.5
4830,Hynnekleiv,AA,58.6,8.4167
4832,Mykland,AA,58.6323,8.2887
4834,Risdal,AA,58.6687,8.1248
4855,Froland,AA,58.5333,8.65
4770,Høvåg,AA,58.1699,8.2474
4780,Brekkestø,AA,58.1969,8.3489
4790,Lillesand,AA,58.2488,8.3778
4791,Lillesand,AA,58.2488,8.3778
4792,Lillesand,AA,58.1639,8.2179
4793,Høvåg,AA,58.164,8.2179
4794,Lillesand,AA,58.2488,8.3778
4760,Birkeland,AA,58.3309,8.2323
4766,Herefoss,AA,58.5272,8.3513
4768,Engesland,AA,58.5333,8.1333
4795,Birkeland,AA,58.3309,8.2323
4863,Nelaug,AA,58.6584,8.6301
4864,Åmli,AA,58.7669,8.4842
4865,Åmli,AA,58.7684,8.4865
4868,Selåsvatn,AA,58.7,8.7333
4869,Dølemo,AA,58.7167,8.35
4724,Iveland,AA,58.4622,7.9116
4730,Vatnestrøm,AA,58.4178,8.0635
4733,Evje,AA,58.5852,7.8086
4734,Evje,AA,58.5852,7.8086
4735,Evje,AA,58.5852,7.8086
4737,Hornnes,AA,58.55,7.7833
4741,Byglandsfjord,AA,58.6681,7.8062
4742,Grendi,AA,58.7068,7.8255
4745,Bygland,AA,58.8285,7.7962
4747,Valle,AA,59.2126,7.5356
4748,Rysstad,AA,59.0833,7.5333
4754,Bykle,AA,59.35,7.3333
4755,Hovden I Setesdal,AA,59.35,7.3333
4756,Hovden I Setesdal,AA,59.35,7.3333
4604,Kristiansand S,VA,58.1639,7.9814
4605,Kristiansand S,VA,58.163,8.008
4606,Kristiansand S,VA,58.1793,8.1226
4608,Kristiansand S,VA,58.1484,8.0031
4609,Kardemomme By,VA,58.1872,8.1402
4610,Kristiansand S,VA,58.1437,7.9968
4611,Kristiansand S,VA,58.1458,7.9938
4612,Kristiansand S,VA,58.1477,7.9908
4613,Kristiansand S,VA,58.1468,7.984
4614,Kristiansand S,VA,58.1496,7.9974
4615,Kristiansand S,VA,58.1575,7.9888
4616,Kristiansand S,VA,58.1526,7.9751
4617,Kristiansand S,VA,58.1511,7.9614
4618,Kristiansand S,VA,58.1889,7.9292
4619,Mosby,VA,58.2333,7.9
4620,Kristiansand S,VA,58.1573,7.9303
4621,Kristiansand S,VA,58.1573,7.9303
4622,Kristiansand S,VA,58.1573,7.9303
4623,Kristiansand S,VA,58.109,7.9739
4624,Kristiansand S,VA,58.1047,7.9519
4625,Flekkerøy,VA,58.0737,8.0021
4626,Kristiansand S,VA,58.1573,7.9303
4628,Kristiansand S,VA,58.1573,7.9303
4629,Kristiansand S,VA,58.1573,7.9303
4630,Kristiansand S,VA,58.1621,7.9967
4631,Kristiansand S,VA,58.1535,8.0153
4632,Kristiansand S,VA,58.1517,8.0235
4633,Kristiansand S,VA,58.1718,8.031
4634,Kristiansand S,VA,58.2009,8.0315
4635,Kristiansand S,VA,58.1812,8.0888
4636,Kristiansand S,VA,58.1754,8.1256
4637,Kristiansand S,VA,58.1512,8.0587
4638,Kristiansand S,VA,58.1521,8.0726
4639,Kristiansand S,VA,58.1337,8.0739
4651,Hamresanden,VA,58.192,8.0799
4656,Hamresanden,VA,58.192,8.0799
4657,Kjevik,VA,58.2069,8.0825
4658,Tveit,VA,58.2337,8.122
4659,Kristiansand S,VA,58.2061,8.0911
4661,Kristiansand S,VA,58.145,7.9923
4662,Kristiansand S,VA,58.145,7.9923
4663,Kristiansand S,VA,58.145,7.9923
4664,Kristiansand S,VA,58.145,7.9923
4665,Kristiansand S,VA,58.145,7.9923
4666,Kristiansand S,VA,58.145,7.9923
4670,Kristiansand S,VA,58.1573,7.9303
4671,Kristiansand S,VA,58.1573,7.9303
4672,Kristiansand S,VA,58.1453,7.9925
4673,Kristiansand S,VA,58.1573,7.9303
4674,Kristiansand S,VA,58.1573,7.9303
4675,Kristiansand S,VA,58.1573,7.9303
4676,Kristiansand S,VA,58.1573,7.9303
4677,Kristiansand S,VA,58.1113,7.9527
4678,Kristiansand S,VA,58.1488,8.0045
4679,Flekkerøy,VA,58.076,7.9995
4686,Kristiansand S,VA,58.1609,7.9987
4687,Kristiansand S,VA,58.151,8.0256
4688,Kristiansand S,VA,58.1507,8.0254
4689,Kristiansand S,VA,58.1661,8.0359
4691,Kristiansand S,VA,58.1519,8.0572
4693,Kristiansand S,VA,58.1811,8.0889
4694,Kristiansand S,VA,58.2008,8.0312
4695,Kristiansand S,VA,58.1336,8.0739
4696,Kristiansand S,VA,58.1725,8.1271
4697,Kristiansand S,VA,58.1799,8.1295
4699,Tveit,VA,58.2337,8.122
4501,Mandal,VA,58.0274,7.4534
4502,Mandal,VA,58.0274,7.4534
4503,Mandal,VA,58.0274,7.4534
4504,Mandal,VA,58.0274,7.4534
4505,Mandal,VA,58.0274,7.4534
4506,Mandal,VA,58.0274,7.4534
4509,Mandal,VA,58.0274,7.4534
4513,Mandal,VA,58.02,7.4028
4514,Mandal,VA,58.0274,7.4534
4515,Mandal,VA,58.0274,7.4534
4516,Mandal,VA,58.0105,7.5577
4517,Mandal,VA,58.0274,7.4534
4519,Holum,VA,58.0961,7.5222
4550,Farsund,VA,58.0948,6.8047
4551,Farsund,VA,58.0948,6.8047
4552,Farsund,VA,58.0948,6.8047
4553,Farsund,VA,58.0948,6.8047
4554,Farsund,VA,58.0948,6.8047
4557,Vanse,VA,58.1167,6.7
4558,Vanse,VA,58.1167,6.7
4560,Vanse,VA,58.1167,6.7
4563,Borhaug,VA,58.1,6.6
4400,Flekkefjord,VA,58.297,6.6607
4401,Flekkefjord,VA,58.297,6.6607
4402,Flekkefjord,VA,58.297,6.6607
4403,Flekkefjord,VA,58.297,6.6607
4420,Åna-Sira,VA,58.2925,6.4403
4432,Hidrasund,VA,58.232,6.5386
4434,Andabeløy,VA,58.2325,6.6711
4436,Gyland,VA,58.45,6.85
4438,Sira,VA,58.4167,6.6333
4700,Vennesla,VA,58.2694,7.9741
4701,Vennesla,VA,58.2694,7.9741
4702,Vennesla,VA,58.2694,7.9741
4703,Vennesla,VA,58.2694,7.9741
4705,Øvrebø,VA,58.2833,7.8
4715,Øvrebø,VA,58.2833,7.8
4720,Hægeland,VA,58.4167,7.75
4645,Nodeland,VA,58.1552,7.8358
4646,Finsland,VA,58.27,7.6595
4647,Brennåsen,VA,58.1333,7.85
4684,Brennåsen,VA,58.1333,7.85
4685,Nodeland,VA,58.1552,7.8358
4640,Søgne,VA,58.0833,7.8167
4681,Søgne,VA,58.0833,7.8167
4682,Søgne,VA,58.0833,7.8167
4683,Søgne,VA,58.0833,7.8167
4532,Øyslebø,VA,58.1667,7.55
4534,Marnardal,VA,58.2132,7.5145
4536,Bjelland,VA,58.3833,7.5167
4540,Åseral,VA,58.6167,7.4167
4544,Fossdal,VA,58.5388,7.3555
4525,Konsmo,VA,58.2853,7.356
4528,Kollungtveit,VA,58.4885,7.4665
4529,Byremo,VA,58.4333,7.4167
4520,Lindesnes,VA,58.0843,7.303
4521,Lindesnes,VA,58.0451,7.1399
4522,Lindesnes,VA,58.0447,7.144
4523,Lindesnes,VA,58.0847,7.303
4524,Lindesnes,VA,58.0829,7.3037
4575,Lyngdal,VA,58.1376,7.07
4576,Lyngdal,VA,58.1376,7.07
4577,Lyngdal,VA,58.1376,7.07
4579,Lyngdal,VA,58.1376,7.07
4580,Lyngdal,VA,58.1376,7.07
4586,Korshamn,VA,58.0333,7
4588,Kvås,VA,58.2633,7.1996
4590,Snartemo,VA,58.3333,7.2
4595,Tingvatn,VA,58.3757,7.2197
4596,Eiken,VA,58.4833,7.2167
4473,Kvinlog,VA,58.5333,6.95
4480,Kvinesdal,VA,58.3167,6.95
4484,Øyestranda,VA,58.3,6.9167
4485,Feda,VA,58.2667,6.8333
4490,Kvinesdal,VA,58.3167,6.95
4491,Kvinesdal,VA,58.3167,6.95
4492,Kvinesdal,VA,58.3167,6.95
4440,Tonstad,VA,58.6626,6.7169
4441,Tonstad,VA,58.6626,6.7169
4443,Tjørhom,VA,58.8882,6.8512
4370,Egersund,RO,58.4513,5.9997
4375,Hellvik,RO,58.4833,5.9
4376,Helleland,RO,58.5355,6.1539
4379,Egersund,RO,58.4513,5.9997
4301,Sandnes,RO,58.8524,5.7352
4302,Sandnes,RO,58.8524,5.7352
4303,Sandnes,RO,58.8524,5.7352
4304,Sandnes,RO,58.8524,5.7352
4305,Sandnes,RO,58.8524,5.7352
4306,Sandnes,RO,58.8524,5.7352
4307,Sandnes,RO,58.8524,5.7352
4308,Sandnes,RO,58.8276,5.8272
4309,Sandnes,RO,58.8632,5.7933
4310,Hommersåk,RO,58.9317,5.8511
4311,Hommersåk,RO,58.9317,5.8511
4312,Sandnes,RO,58.8524,5.7352
4313,Sandnes,RO,58.8524,5.7352
4314,Sandnes,RO,58.8524,5.7352
4315,Sandnes,RO,58.8524,5.7352
4316,Sandnes,RO,58.8524,5.7352
4317,Sandnes,RO,58.8524,5.7352
4318,Sandnes,RO,58.8524,5.7352
4319,Sandnes,RO,58.8524,5.7352
4321,Sandnes,RO,58.8524,5.7352
4322,Sandnes,RO,58.8524,5.7352
4323,Sandnes,RO,58.8524,5.7352
4324,Sandnes,RO,58.8524,5.7352
4325,Sandnes,RO,58.8524,5.7352
4326,Sandnes,RO,58.8524,5.7352
4327,Sandnes,RO,58.8524,5.7352
4328,Sandnes,RO,58.8524,5.7352
4329,Sandnes,RO,58.8524,5.7352
4332,Figgjo,RO,58.7833,5.8167
4391,Sandnes,RO,58.8524,5.7352
4392,Sandnes,RO,58.8524,5.7352
4393,Sandnes,RO,58.8524,5.7352
4395,Hommersåk,RO,58.9317,5.8511
4396,Sandnes,RO,58.8524,5.7352
4397,Sandnes,RO,58.8524,5.7352
4398,Sandnes,RO,58.8524,5.7352
4001,Stavanger,RO,58.9701,5.7333
4002,Stavanger,RO,58.9701,5.7333
4003,Stavanger,RO,58.9701,5.7333
4004,Stavanger,RO,58.9701,5.7333
4005,Stavanger,RO,58.9701,5.7333
4006,Stavanger,RO,58.9701,5.7333
4007,Stavanger,RO,58.9701,5.7333
4008,Stavanger,RO,58.9701,5.7333
4009,Stavanger,RO,58.9701,5.7333
4010,Stavanger,RO,58.9701,5.7333
4011,Stavanger,RO,58.9701,5.7333
4012,Stavanger,RO,58.9701,5.7333
4013,Stavanger,RO,58.9701,5.7333
4014,Stavanger,RO,58.9701,5.7333
4015,Stavanger,RO,58.9701,5.7333
4016,Stavanger,RO,58.9701,5.7333
4017,Stavanger,RO,58.9701,5.7333
4018,Stavanger,RO,58.9701,5.7333
4019,Stavanger,RO,58.9701,5.7333
4020,Stavanger,RO,58.9216,5.7201
4021,Stavanger,RO,58.9701,5.7333
4022,Stavanger,RO,58.9701,5.7333
4023,Stavanger,RO,58.9701,5.7333
4024,Stavanger,RO,58.9701,5.7333
4025,Stavanger,RO,58.9701,5.7333
4026,Stavanger,RO,58.9701,5.7333
4027,Stavanger,RO,58.9701,5.7333
4028,Stavanger,RO,58.9911,5.6796
4029,Stavanger,RO,58.9938,5.6813
4032,Stavanger,RO,58.904,5.7314
4033,Stavanger,RO,58.8916,5.7453
4034,Stavanger,RO,58.8961,5.7239
4035,Stavanger,RO,58.893,5.7186
4036,Stavanger,RO,58.9701,5.7333
4041,Hafrsfjord,RO,58.9628,5.7182
4042,Hafrsfjord,RO,58.9527,5.6687
4043,Hafrsfjord,RO,58.9505,5.6425
4044,Hafrsfjord,RO,58.9628,5.7182
4045,Hafrsfjord,RO,58.9357,5.6448
4046,Hafrsfjord,RO,58.9574,5.6279
4047,Hafrsfjord,RO,58.9647,5.6434
4048,Hafrsfjord,RO,58.9631,5.6089
4049,Hafrsfjord,RO,58.9697,5.6065
4064,Stavanger,RO,58.8897,5.7466
4065,Stavanger,RO,58.8897,5.7466
4066,Stavanger,RO,58.8897,5.7466
4067,Stavanger,RO,58.8934,5.7089
4068,Stavanger,RO,58.8897,5.7466
4069,Stavanger,RO,58.8897,5.7466
4076,Vassøy,RO,58.9986,5.7844
4078,Stavanger,RO,58.9701,5.7333
4079,Stavanger,RO,58.8961,5.7246
4081,Stavanger,RO,58.9701,5.7333
4082,Stavanger,RO,58.9701,5.7333
4084,Stavanger,RO,58.9701,5.7333
4085,Hundvåg,RO,58.9701,5.7333
4086,Hundvåg,RO,58.9701,5.7333
4087,Stavanger,RO,58.9083,5.7295
4088,Stavanger,RO,58.9701,5.7333
4089,Hafrsfjord,RO,58.971,5.6028
4090,Hafrsfjord,RO,58.9574,5.6864
4091,Hafrsfjord,RO,58.9574,5.6864
4092,Stavanger,RO,58.9701,5.7333
4093,Stavanger,RO,58.9701,5.7333
4094,Stavanger,RO,58.9701,5.7333
4095,Stavanger,RO,58.9701,5.7333
4154,Austre Åmøy,RO,59.0392,5.758
5501,Haugesund,RO,59.4138,5.268
5502,Haugesund,RO,59.4138,5.268
5503,Haugesund,RO,59.4138,5.268
5504,Haugesund,RO,59.397,5.3268
5505,Haugesund,RO,59.3951,5.334
5506,Haugesund,RO,59.4138,5.268
5507,Haugesund,RO,59.4138,5.268
5509,Haugesund,RO,59.4138,5.268
5511,Haugesund,RO,59.4102,5.3191
5512,Haugesund,RO,59.4138,5.268
5514,Haugesund,RO,59.4662,5.2789
5515,Haugesund,RO,59.4138,5.268
5516,Haugesund,RO,59.4138,5.268
5517,Haugesund,RO,59.4138,5.268
5518,Haugesund,RO,59.4138,5.268
5519,Haugesund,RO,59.4138,5.268
5521,Haugesund,RO,59.4138,5.268
5522,Haugesund,RO,59.4138,5.268
5523,Haugesund,RO,59.4138,5.268
5525,Haugesund,RO,59.4138,5.268
5527,Haugesund,RO,59.4138,5.268
5528,Haugesund,RO,59.4138,5.268
5529,Haugesund,RO,59.4138,5.268
5531,Haugesund,RO,59.4138,5.268
5532,Haugesund,RO,59.4138,5.268
5533,Haugesund,RO,59.4115,5.3216
5534,Haugesund,RO,59.4086,5.3323
5535,Haugesund,RO,59.4138,5.268
5536,Haugesund,RO,59.3939,5.3252
5537,Haugesund,RO,59.4138,5.268
5538,Haugesund,RO,59.4138,5.268
5549,Røvær,RO,59.45,5.1333
4380,Hauge I Dalane,RO,58.6188,6.104
4381,Hauge I Dalane,RO,58.6188,6.104
4460,Moi,RO,58.4567,6.5518
4462,Hovsherad,RO,58.4823,6.4901
4463,Ualand,RO,58.5333,6.3667
4465,Moi,RO,58.4567,6.5518
4387,Bjerkreim,RO,58.6,6.1167
4389,Vikeså,RO,58.6376,6.0913
4360,Varhaug,RO,58.6147,5.6457
4362,Vigrestad,RO,58.5667,5.7
4363,Brusand,RO,58.5333,5.7667
4364,Sirevåg,RO,58.503,5.8008
4365,Nærbø,RO,58.6667,5.65
4367,Nærbø,RO,58.6667,5.65
4368,Varhaug,RO,58.6147,5.6457
4369,Vigrestad,RO,58.5667,5.7
4343,Orre,RO,58.7333,5.5333
4352,Kleppe,RO,58.773,5.6333
4353,Klepp Stasjon,RO,58.7667,5.6667
4354,Voll,RO,58.8,5.6167
4357,Klepp Stasjon,RO,58.7667,5.6667
4358,Kleppe,RO,58.773,5.6333
4340,Bryne,RO,58.7354,5.6477
4342,Undheim,RO,58.6833,5.7833
4348,Bryne,RO,58.7302,5.7304
4349,Bryne,RO,58.7354,5.6477
4355,Kvernaland,RO,58.7796,5.7214
4356,Kvernaland,RO,58.7797,5.7216
4330,Ålgård,RO,58.7642,5.8525
4333,Oltedal,RO,58.8333,6.0333
4335,Dirdal,RO,58.8167,6.1833
4339,Ålgård,RO,58.7642,5.8525
4050,Sola,RO,58.8885,5.6528
4052,Røyneberg,RO,58.9097,5.6675
4053,Ræge,RO,58.8949,5.6409
4054,Tjelta,RO,58.8333,5.6167
4055,Stavanger Lufthavn,RO,58.8949,5.6409
4056,Tananger,RO,58.9333,5.6
4059,Røyneberg,RO,58.9097,5.6675
4097,Sola,RO,58.8885,5.6528
4098,Tananger,RO,58.9333,5.6
4070,Randaberg,RO,58.9995,5.6187
4096,Randaberg,RO,58.9995,5.6187
4110,Forsand,RO,58.9033,6.1048
4119,Forsand,RO,58.9033,6.1048
4127,Lysebotn,RO,59.05,6.6667
4128,Fløyrli,RO,59.0167,6.4333
4129,Songesand,RO,59.0179,6.3252
4100,Jørpeland,RO,59.0225,6.0408
4102,Idse,RO,58.9833,5.95
4120,Tau,RO,59.0667,5.9
4123,Sør-Hidle,RO,59.0473,5.826
4124,Tau,RO,59.0667,5.9
4126,Jørpeland,RO,59.0225,6.0408
4130,Hjelmeland,RO,59.2333,6.1833
4134,Jøsenfjorden,RO,59.3293,6.4486
4137,Årdal I Ryfylke,RO,59.2,6.125
4139,Fister,RO,59.1667,6.0667
4146,Skiftun,RO,59.2823,6.1388
4148,Hjelmeland,RO,59.2333,6.1833
4167,Helgøy I Ryfylke,RO,59.0549,6.0647
4198,Foldøy,RO,59.3374,5.9634
4209,Vanvik,RO,59.5333,6.3667
4230,Sand,RO,59.4853,6.2535
4233,Erfjord,RO,59.35,6.2167
4234,Jelsa,RO,59.3333,6.0667
4235,Hebnes,RO,59.3667,5.9667
4237,Suldalsosen,RO,59.5,6.5
4239,Sand,RO,59.4853,6.2535
4240,Suldalsosen,RO,59.5,6.5
4244,Nesflaten,RO,59.6333,6.8
4200,Sauda,RO,59.6506,6.3541
4201,Sauda,RO,59.6506,6.3541
4208,Saudasjøen,RO,59.6333,6.3167
4160,Finnøy,RO,59.1659,5.8732
4161,Finnøy,RO,59.1721,5.8758
4163,Talgje,RO,59.1063,5.8414
4164,Fogn,RO,59.1352,5.9074
4168,Byre,RO,59.162,5.9739
4169,Sørbokn,RO,59.1628,5.9455
4170,Sjernarøy,RO,59.2602,5.8845
4173,Nord-Hidle,RO,59.2398,5.8876
4174,Sjernarøy,RO,59.2266,5.8361
4182,Skartveit,RO,59.1965,5.9572
4187,Ombo,RO,59.2355,5.938
4150,Rennesøy,RO,59.0975,5.6979
4152,Vestre Åmøy,RO,59.05,5.6655
4153,Brimse,RO,59.0845,5.8053
4156,Mosterøy,RO,59.0667,5.681
4158,Bru,RO,59.0333,5.65
4159,Rennesøy,RO,59.0976,5.6969
4180,Kvitsøy,RO,59.0623,5.4025
5561,Bokn,RO,59.2306,5.4352
5560,Nedstrand,RO,59.35,5.8
5563,Førresfjorden,RO,59.4163,5.4045
5565,Tysværvåg,RO,59.3244,5.4878
5566,Hervik,RO,59.3167,5.6
5567,Skjoldastraumen,RO,59.4333,5.6167
5570,Aksdal,RO,59.4241,5.4455
5575,Aksdal,RO,59.4241,5.4455
5595,Førresfjorden,RO,59.4166,5.4049
4250,Kopervik,RO,59.2835,5.3067
4260,Torvastad,RO,59.3814,5.2417
4262,Avaldsnes,RO,59.3199,5.2542
4264,Kvalavåg,RO,59.3231,5.2083
4265,Håvik,RO,59.3167,5.3
4270,Åkrehamn,RO,59.2667,5.1833
4272,Sandve,RO,59.1833,5.2
4274,Stol,RO,59.2333,5.2
4275,Sævelandsvik,RO,59.2667,5.2
4276,Vedavågen,RO,59.2917,5.2333
4280,Skudeneshavn,RO,59.1486,5.2569
4291,Kopervik,RO,59.2835,5.3067
4294,Kopervik,RO,59.2835,5.3067
4295,Vedavågen,RO,59.2917,5.2333
4296,Åkrehamn,RO,59.2667,5.1833
4297,Skudeneshavn,RO,59.1486,5.2569
4298,Torvastad,RO,59.389,5.2736
4299,Avaldsnes,RO,59.3553,5.2785
5508,Karmsund,RO,59.3781,5.3085
5541,Kolnes,RO,59.3915,5.3717
5542,Karmsund,RO,59.3778,5.3068
5544,Vormedal,RO,59.355,5.3189
5545,Vormedal,RO,59.355,5.3189
5546,Røyksund,RO,59.3339,5.3605
5548,Feøy,RO,59.3803,5.1615
5547,Utsira,RO,59.3057,4.8862
5568,Vikebygd,RO,59.5948,5.5912
5574,Skjold,RO,59.5167,5.5833
5576,Øvre Vats,RO,59.5285,5.6741
5578,Nedre Vats,RO,59.4759,5.7349
5580,Ølen,RO,59.6044,5.808
5582,Ølensvåg,RO,59.5967,5.7424
5583,Vikedal,RO,59.5,5.9167
5584,Bjoa,RO,59.665,5.6415
5585,Sandeid,RO,59.55,5.8333
5586,Vikedal,RO,59.5,5.9167
5588,Ølen,RO,59.6044,5.808
5589,Sandeid,RO,59.55,5.8333
5003,Bergen,HO,60.393,5.3242
5004,Bergen,HO,60.393,5.3242
5005,Bergen,HO,60.393,5.3242
5006,Bergen,HO,60.393,5.3242
5007,Bergen,HO,60.393,5.3242
5008,Bergen,HO,60.393,5.3242
5009,Bergen,HO,60.393,5.3242
5010,Bergen,HO,60.393,5.3242
5011,Bergen,HO,60.393,5.3242
5012,Bergen,HO,60.393,5.3242
5013,Bergen,HO,60.393,5.3242
5014,Bergen,HO,60.393,5.3242
5015,Bergen,HO,60.393,5.3242
5016,Bergen,HO,60.393,5.3242
5017,Bergen,HO,60.393,5.3242
5018,Bergen,HO,60.393,5.3242
5019,Bergen,HO,60.393,5.3242
5020,Bergen,HO,60.393,5.3242
5021,Bergen,HO,60.393,5.3242
5022,Bergen,HO,60.393,5.3242
5031,Bergen,HO,60.393,5.3242
5032,Bergen,HO,60.393,5.3242
5033,Bergen,HO,60.393,5.3242
5034,Bergen,HO,60.393,5.3242
5035,Bergen,HO,60.393,5.3242
5036,Bergen,HO,60.393,5.3242
5037,Bergen,HO,60.393,5.3242
5038,Bergen,HO,60.393,5.3242
5039,Bergen,HO,60.4365,5.2861
5041,Bergen,HO,60.393,5.3242
5042,Bergen,HO,60.393,5.3242
5043,Bergen,HO,60.393,5.3242
5045,Bergen,HO,60.393,5.3242
5052,Bergen,HO,60.393,5.3242
5053,Bergen,HO,60.393,5.3242
5054,Bergen,HO,60.393,5.3242
5055,Bergen,HO,60.393,5.3242
5056,Bergen,HO,60.393,5.3242
5057,Bergen,HO,60.393,5.3242
5058,Bergen,HO,60.393,5.3242
5059,Bergen,HO,60.393,5.3242
5063,Bergen,HO,60.393,5.3242
5067,Bergen,HO,60.393,5.3242
5068,Bergen,HO,60.393,5.3242
5072,Bergen,HO,60.393,5.3242
5073,Bergen,HO,60.393,5.3242
5075,Bergen,HO,60.3459,5.3548
5081,Bergen,HO,60.3436,5.3592
5082,Bergen,HO,60.3434,5.359
5089,Bergen,HO,60.3586,5.363
5093,Bergen,HO,60.393,5.3242
5094,Bergen,HO,60.3558,5.3664
5096,Bergen,HO,60.3683,5.3707
5097,Bergen,HO,60.3588,5.372
5098,Bergen,HO,60.3448,5.3761
5099,Bergen,HO,60.3388,5.3657
5101,Eidsvågneset,HO,60.443,5.2886
5104,Eidsvåg I Åsane,HO,60.5119,5.3079
5105,Eidsvåg I Åsane,HO,60.5119,5.3079
5106,Øvre Ervik,HO,60.4465,5.3207
5107,Salhus,HO,60.5069,5.2694
5108,Hordvik,HO,60.5183,5.2997
5109,Hylkje,HO,60.5103,5.3544
5111,Breistein,HO,60.4833,5.4
5113,Tertnes,HO,60.4577,5.2884
5114,Tertnes,HO,60.4577,5.2884
5115,Ulset,HO,60.4663,5.3256
5116,Ulset,HO,60.4663,5.3256
5117,Ulset,HO,60.4663,5.3256
5118,Ulset,HO,60.4663,5.3256
5119,Ulset,HO,60.4663,5.3256
5121,Ulset,HO,60.4711,5.2756
5122,Morvik,HO,60.4711,5.2756
5124,Morvik,HO,60.4711,5.2756
5131,Nyborg,HO,60.477,5.3545
5132,Nyborg,HO,60.467,5.3456
5134,Flaktveit,HO,60.4639,5.3632
5135,Flaktveit,HO,60.4652,5.3572
5136,Mjølkeråen,HO,60.4908,5.2675
5137,Mjølkeråen,HO,60.4908,5.2675
5141,Fyllingsdalen,HO,60.335,5.2652
5142,Fyllingsdalen,HO,60.3452,5.269
5143,Fyllingsdalen,HO,60.3404,5.2853
5144,Fyllingsdalen,HO,60.3495,5.2895
5145,Fyllingsdalen,HO,60.3576,5.2938
5146,Fyllingsdalen,HO,60.4067,5.2812
5147,Fyllingsdalen,HO,60.3494,5.2906
5148,Fyllingsdalen,HO,60.3463,5.3018
5151,Straumsgrend,HO,60.3258,5.2833
5152,Bønes,HO,60.33,5.3039
5153,Bønes,HO,60.33,5.3039
5154,Bønes,HO,60.33,5.3039
5155,Bønes,HO,60.33,5.3039
5160,Laksevåg,HO,60.385,5.2986
5161,Laksevåg,HO,60.385,5.2986
5162,Laksevåg,HO,60.385,5.2986
5163,Laksevåg,HO,60.385,5.2986
5164,Laksevåg,HO,60.385,5.2986
5165,Laksevåg,HO,60.385,5.2986
5170,Bjørndalstræ,HO,60.3677,5.2279
5171,Loddefjord,HO,60.3708,5.2344
5172,Loddefjord,HO,60.3708,5.2344
5173,Loddefjord,HO,60.3708,5.2344
5174,Mathopen,HO,60.3408,5.225
5176,Loddefjord,HO,60.3708,5.2344
5178,Loddefjord,HO,60.3708,5.2344
5179,Godvik,HO,60.3786,5.1983
5183,Olsvik,HO,60.3808,5.2196
5184,Olsvik,HO,60.3833,5.2164
5221,Nesttun,HO,60.3182,5.3532
5222,Nesttun,HO,60.3182,5.3532
5223,Nesttun,HO,60.3182,5.3532
5224,Nesttun,HO,60.3182,5.3532
5225,Nesttun,HO,60.3182,5.3532
5226,Nesttun,HO,60.3182,5.3532
5227,Nesttun,HO,60.3182,5.3532
5228,Nesttun,HO,60.3182,5.3532
5229,Kalandseidet,HO,60.2683,5.43
5230,Paradis,HO,60.3106,5.3455
5231,Paradis,HO,60.3106,5.3455
5232,Paradis,HO,60.3106,5.3455
5235,Rådal,HO,60.3106,5.3455
5236,Rådal,HO,60.3106,5.3455
5237,Rådal,HO,60.3106,5.3455
5238,Rådal,HO,60.3106,5.3455
5239,Rådal,HO,60.3106,5.3455
5243,Fana,HO,60.2631,5.3465
5244,Fana,HO,60.2634,5.3459
5251,Søreidgrend,HO,60.3152,5.2712
5252,Søreidgrend,HO,60.3152,5.2712
5253,Sandsli,HO,60.3032,5.2855
5254,Sandsli,HO,60.3032,5.2855
5257,Kokstad,HO,60.296,5.2655
5258,Blomsterdalen,HO,60.2982,5.2717
5259,Hjellestad,HO,60.2564,5.2514
5260,Indre Arna,HO,60.4247,5.4764
5261,Indre Arna,HO,60.4247,5.4764
5262,Arnatveit,HO,60.4184,5.4916
5263,Trengereid,HO,60.4328,5.6369
5264,Garnes,HO,60.4333,5.5
5265,Ytre Arna,HO,60.4667,5.4333
5267,Espeland,HO,60.3833,5.4667
5268,Haukeland,HO,60.3633,5.4514
5803,Bergen,HO,60.393,5.3242
5804,Bergen,HO,60.393,5.3242
5805,Bergen,HO,60.393,5.3242
5806,Bergen,HO,60.393,5.3242
5807,Bergen,HO,60.393,5.3242
5808,Bergen,HO,60.393,5.3242
5809,Bergen,HO,60.393,5.3242
5811,Bergen,HO,60.393,5.3242
5812,Bergen,HO,60.393,5.3242
5815,Bergen,HO,60.393,5.3242
5816,Bergen,HO,60.393,5.3242
5817,Bergen,HO,60.393,5.3242
5818,Bergen,HO,60.4367,5.2865
5819,Bergen,HO,60.393,5.3242
5821,Bergen,HO,60.393,5.3242
5822,Bergen,HO,60.393,5.3242
5824,Bergen,HO,60.393,5.3242
5825,Bergen,HO,60.3511,5.3689
5828,Bergen,HO,60.393,5.3242
5829,Bergen,HO,60.393,5.3242
5831,Bergen,HO,60.393,5.3242
5835,Bergen,HO,60.393,5.3242
5836,Bergen,HO,60.393,5.3242
5838,Bergen,HO,60.393,5.3242
5841,Bergen,HO,60.393,5.3242
5845,Bergen,HO,60.3509,5.2778
5847,Bergen,HO,60.393,5.3242
5848,Bergen,HO,60.3854,5.271
5849,Bergen,HO,60.3282,5.2931
5851,Bergen,HO,60.3085,5.3564
5852,Bergen,HO,60.3197,5.3542
5853,Bergen,HO,60.3169,5.354
5854,Bergen,HO,60.393,5.3242
5857,Bergen,HO,60.2976,5.3308
5858,Bergen,HO,60.2977,5.3308
5859,Bergen,HO,60.2628,5.3443
5861,Bergen,HO,60.3052,5.2826
5862,Bergen,HO,60.3052,5.2826
5863,Bergen,HO,60.2923,5.2614
5864,Bergen,HO,60.3063,5.3228
5868,Bergen,HO,60.2838,5.25
5869,Bergen,HO,60.2923,5.2221
5871,Bergen,HO,60.4686,5.3361
5872,Bergen,HO,60.4647,5.3217
5873,Bergen,HO,60.4647,5.3217
5876,Bergen,HO,60.4437,5.3258
5877,Bergen,HO,60.509,5.3474
5878,Bergen,HO,60.486,5.2716
5879,Bergen,HO,60.4736,5.3361
5881,Bergen,HO,60.3632,5.2336
5882,Bergen,HO,60.3632,5.2336
5884,Bergen,HO,60.3823,5.2192
5886,Bergen,HO,60.3413,5.2254
5887,Bergen,HO,60.3752,5.4565
5888,Bergen,HO,60.4213,5.465
5889,Bergen,HO,60.4601,5.4373
5892,Bergen,HO,60.393,5.3242
5893,Bergen,HO,60.393,5.3242
5895,Bergen,HO,60.3156,5.2704
5896,Bergen,HO,60.3344,5.3104
5899,Bergen,HO,60.346,5.352
5590,Etne,HO,59.6648,5.9326
5591,Etne,HO,59.6648,5.9326
5593,Skånevik,HO,59.7333,5.9833
5594,Skånevik,HO,59.7327,5.9331
5596,Markhus,HO,59.8167,6.2333
5598,Fjæra,HO,59.8833,6.4
5550,Sveio,HO,59.5419,5.3518
5551,Auklandshamn,HO,59.5938,5.393
5554,Valevåg,HO,59.6975,5.4756
5555,Førde I Hordaland,HO,59.5938,5.393
5559,Sveio,HO,59.5419,5.3518
5420,Rubbestadneset,HO,59.8147,5.2681
5423,Brandasund,HO,59.8944,5.0896
5427,Urangsvåg,HO,59.8029,5.1762
5428,Foldrøyhamn,HO,59.7972,5.3017
5430,Bremnes,HO,59.7943,5.1853
5437,Finnås,HO,59.745,5.2595
5440,Mosterhamn,HO,59.7,5.3833
5443,Bømlo,HO,59.7943,5.1853
5444,Espevær,HO,59.5889,5.1481
5445,Bremnes,HO,59.7943,5.1853
5447,Mosterhamn,HO,59.7,5.3833
5449,Bømlo,HO,59.6023,5.2075
5401,Stord,HO,59.7796,5.5002
5402,Stord,HO,59.7818,5.4995
5403,Stord,HO,59.7818,5.4995
5404,Stord,HO,59.7818,5.4995
5406,Stord,HO,59.7649,5.464
5407,Stord,HO,59.8034,5.5187
5408,Sagvåg,HO,59.7786,5.3961
5409,Stord,HO,59.7798,5.5005
5410,Sagvåg,HO,59.7786,5.3961
5411,Stord,HO,59.7722,5.4968
5412,Stord,HO,59.7638,5.461
5413,Huglo,HO,59.8636,5.565
5414,Stord,HO,59.8147,5.522
5415,Stord,HO,59.7897,5.4228
5416,Stord,HO,59.795,5.5165
5417,Stord,HO,59.7831,5.4952
5418,Fitjar,HO,59.9184,5.3192
5419,Fitjar,HO,59.9184,5.3192
5680,Tysnes,HO,60.05,5.55
5683,Reksteren,HO,60.0398,5.4333
5685,Uggdal,HO,60.004,5.5288
5687,Flatråker,HO,59.9425,5.5167
5690,Lundegrend,HO,60.06,5.6424
5693,Årbakka,HO,59.9873,5.6753
5694,Onarheim,HO,59.9475,5.6244
5695,Uggdal,HO,60.004,5.5288
5696,Tysnes,HO,60.05,5.55
5450,Sunde I Sunnhordland,HO,59.7958,5.7996
5451,Valen,HO,59.8308,5.7867
5452,Sandvoll,HO,59.8094,5.8128
5453,Utåker,HO,59.7833,5.9333
5454,Sæbøvik,HO,59.7975,5.7147
5455,Halsnøy Kloster,HO,59.7958,5.7996
5457,Høylandsbygd,HO,59.7958,5.7996
5458,Arnavik,HO,59.7581,5.7506
5459,Fjelberg,HO,59.7385,5.7069
5460,Husnes,HO,59.8638,5.7453
5462,Herøysundet,HO,59.9172,5.7894
5463,Uskedalen,HO,59.93,5.8594
5464,Dimmelsvik,HO,59.95,5.9833
5465,Uskedalen,HO,59.93,5.8594
5470,Rosendal,HO,59.9867,6.0135
5472,Seimsfoss,HO,59.9647,5.9963
5473,Snilstveitøy,HO,59.9815,5.9554
5474,Løfallstrand,HO,60.0151,5.9993
5475,Ænes,HO,60.1,6.1333
5476,Mauranger,HO,60.1172,6.2661
5480,Husnes,HO,59.8621,5.7558
5484,Sæbøvik,HO,59.7975,5.7147
5486,Rosendal,HO,59.9867,6.0135
5498,Matre,HO,59.859,5.9932
5499,Åkra,HO,59.7833,6.1
5635,Hatlestrand,HO,60.0333,5.9
5636,Varaldsøy,HO,60.0982,5.9861
5637,Ølve,HO,60.0127,5.8144
5626,Kysnesstrand,HO,60.2035,6.1132
5627,Jondal,HO,60.2756,6.2523
5628,Herand,HO,60.35,6.4
5629,Jondal,HO,60.2756,6.2523
5750,Odda,HO,60.0691,6.5457
5751,Odda,HO,60.0691,6.5457
5760,Røldal,HO,59.8167,6.8
5763,Skare,HO,59.9333,6.6
5770,Tyssedal,HO,60.1167,6.5667
5773,Hovland,HO,60.2333,6.6333
5776,Nå,HO,60.2667,6.5667
5777,Grimo,HO,60.4,6.65
5778,Utne,HO,60.4167,6.6
5779,Utne,HO,60.4167,6.6
5780,Kinsarvik,HO,60.3757,6.7225
5781,Lofthus,HO,60.3333,6.6667
5782,Kinsarvik,HO,60.3757,6.7225
5787,Lofthus,HO,60.3333,6.6667
5788,Kinsarvik,HO,60.3757,6.7225
5783,Eidfjord,HO,60.4675,7.0719
5784,Øvre Eidfjord,HO,60.4234,7.13
5785,Vøringsfoss,HO,60.4271,7.2512
5786,Eidfjord,HO,60.4675,7.0719
5719,Finse,HO,60.6,7.5
5730,Ulvik,HO,60.5712,6.917
5731,Ulvik,HO,60.5712,6.917
5734,Vallavik,HO,60.4849,6.8243
5733,Granvin,HO,60.5241,6.7194
5736,Granvin,HO,60.5241,6.7194
5700,Voss,HO,60.623,6.4229
5701,Voss,HO,60.623,6.4229
5702,Voss,HO,60.623,6.4229
5703,Voss,HO,60.623,6.4229
5707,Evanger,HO,60.65,6.1167
5710,Skulestadmo,HO,60.6601,6.4351
5712,Vossestrand,HO,60.7923,6.5092
5713,Vossestrand,HO,60.7919,6.5084
5715,Stalheim,HO,60.839,6.6833
5723,Bolstadøyri,HO,60.6333,5.9667
5600,Norheimsund,HO,60.3709,6.1456
5601,Norheimsund,HO,60.3709,6.1456
5602,Norheimsund,HO,60.3709,6.1456
5604,Øystese,HO,60.3882,6.1925
5605,Ålvik,HO,60.4309,6.4321
5610,Øystese,HO,60.3882,6.1925
5612,Steinstø,HO,60.4,6.2833
5614,Ålvik,HO,60.4327,6.4316
5620,Tørvikbygd,HO,60.3006,6.1691
5630,Strandebarm,HO,60.2706,6.0133
5632,Omastrand,HO,60.2333,5.9667
5640,Eikelandsosen,HO,60.243,5.746
5641,Fusa,HO,60.197,5.6125
5642,Holmefjord,HO,60.2858,5.6711
5643,Strandvik,HO,60.1597,5.6673
5645,Sævareid,HO,60.1864,5.7744
5646,Nordtveitgrend,HO,60.1,5.7381
5647,Baldersheim,HO,60.147,5.7486
5649,Eikelandsosen,HO,60.243,5.746
5650,Tysse,HO,60.374,5.7595
5652,Årland,HO,60.4006,5.7116
5653,Årland,HO,60.4015,5.7306
5200,Os,HO,60.1839,5.4638
5201,Os,HO,60.1854,5.4715
5202,Os,HO,60.1854,5.4715
5203,Os,HO,60.1854,5.4715
5206,Os,HO,60.2047,5.4498
5207,Søfteland,HO,60.2382,5.442
5212,Søfteland,HO,60.238,5.4528
5215,Lysekloster,HO,60.2269,5.3997
5216,Lepsøy,HO,60.15,5.4
5217,Hagavik,HO,60.1833,5.4333
5218,Nordstrøno,HO,60.1667,5.35
5384,Torangsvåg,HO,60.1139,5.1541
5385,Bakkasund,HO,60.1308,5.0888
5387,Møkster,HO,60.0605,5.0958
5388,Litlakalsøy,HO,60.0408,5.086
5392,Storebø,HO,60.0949,5.2271
5393,Storebø,HO,60.0949,5.2271
5394,Kolbeinsvik,HO,60.0408,5.2022
5396,Vestre Vinnesvåg,HO,60.0103,5.2665
5397,Bekkjarvik,HO,60.0028,5.2003
5398,Stolmen,HO,59.998,5.0878
5399,Bekkjarvik,HO,60.0028,5.2003
5371,Skogsvåg,HO,60.2702,5.073
5374,Steinsland,HO,60.1959,5.099
5378,Klokkarvik,HO,60.2225,5.1556
5379,Steinsland,HO,60.1959,5.099
5380,Tælavåg,HO,60.2592,4.9858
5381,Glesvær,HO,60.2078,5.0386
5382,Skogsvåg,HO,60.2404,5.0434
5177,Bjørøyhamn,HO,60.3226,5.1857
5341,Straume,HO,60.3571,5.1242
5342,Straume,HO,60.3571,5.1242
5343,Straume,HO,60.3571,5.1242
5345,Knarrevik,HO,60.3733,5.1575
5346,Ågotnes,HO,60.4061,5.0189
5347,Kystbasen Ågotnes,HO,60.408,5.0024
5350,Brattholmen,HO,60.3492,5.1578
5353,Straume,HO,60.3571,5.1242
5355,Knarrevik,HO,60.3733,5.1575
5357,Fjell,HO,60.3599,5.1465
5358,Fjell,HO,60.3307,5.0768
5360,Kolltveit,HO,60.355,5.0875
5363,Ågotnes,HO,60.4061,5.0189
5365,Turøy,HO,60.4494,4.9228
5366,Misje,HO,60.4514,4.9658
5300,Kleppestø,HO,60.4084,5.2276
5302,Strusshamn,HO,60.4044,5.1908
5303,Follese,HO,60.4119,5.1544
5304,Hetlevik,HO,60.4241,5.148
5305,Florvåg,HO,60.4192,5.2378
5306,Erdal,HO,60.4127,5.2093
5307,Ask,HO,60.48,5.2147
5310,Hauglandshella,HO,60.447,5.1587
5314,Kjerrgarden,HO,60.5019,5.0892
5315,Herdla,HO,60.5667,4.95
5318,Strusshamn,HO,60.4044,5.1908
5319,Kleppestø,HO,60.4084,5.2276
5321,Kleppestø,HO,60.4084,5.2276
5322,Kleppestø,HO,60.4084,5.2276
5323,Kleppestø,HO,60.4084,5.2276
5325,Follese,HO,60.4119,5.1544
5326,Ask,HO,60.48,5.2147
5327,Hauglandshella,HO,60.4599,5.1512
5329,Florvåg,HO,60.4192,5.2378
5721,Dalekvam,HO,60.5917,5.7778
5722,Dalekvam,HO,60.5917,5.7778
5724,Stanghelle,HO,60.55,5.7333
5725,Vaksdal,HO,60.4833,5.7333
5726,Vaksdal,HO,60.4833,5.7333
5727,Stamnes,HO,60.6667,5.75
5728,Eidslandet,HO,60.7347,5.8016
5729,Modalen,HO,60.8147,5.8024
5281,Valestrandsfossen,HO,60.5,5.4333
5282,Lonevåg,HO,60.5262,5.4936
5283,Fotlandsvåg,HO,60.6,5.5
5284,Tyssebotnen,HO,60.6189,5.5872
5285,Bruvik,HO,60.4667,5.65
5286,Haus,HO,60.4531,5.496
5291,Valestrandsfossen,HO,60.5,5.4333
5293,Lonevåg,HO,60.5262,5.4936
5299,Haus,HO,60.4528,5.4957
5906,Frekhaug,HO,60.5139,5.2435
5917,Rossland,HO,60.5675,5.0533
5918,Frekhaug,HO,60.5139,5.2435
5331,Rong,HO,60.5133,4.9033
5333,Tjeldstø,HO,60.5986,4.8442
5334,Hellesøy,HO,60.6603,4.7894
5335,Hernar,HO,60.688,4.7221
5336,Tjeldstø,HO,60.5986,4.8442
5337,Rong,HO,60.5133,4.9033
5931,Manger,HO,60.6414,5.0414
5936,Manger,HO,60.6414,5.0414
5937,Bøvågen,HO,60.7,4.9317
5938,Sæbøvågen,HO,60.6131,5.1511
5939,Sletta,HO,60.6886,5.045
5902,Isdalstø,HO,60.5552,5.2694
5903,Isdalstø,HO,60.5552,5.2694
5904,Isdalstø,HO,60.5552,5.2694
5907,Alversund,HO,60.5469,5.2642
5908,Isdalstø,HO,60.5552,5.2694
5911,Alversund,HO,60.5757,5.265
5912,Seim,HO,60.6211,5.2692
5913,Eikangervåg,HO,60.6167,5.3833
5914,Isdalstø,HO,60.5552,5.2694
5915,Hjelmås,HO,60.6,5.3667
5916,Isdalstø,HO,60.5552,5.2694
5951,Lindås,HO,60.7381,5.16
5954,Mongstad,HO,60.8046,5.0364
5955,Lindås,HO,60.7381,5.16
5956,Hundvin,HO,60.6767,5.2192
5957,Myking,HO,60.7017,5.3272
5991,Ostereidet,HO,60.6259,5.4728
5993,Ostereidet,HO,60.6233,5.4785
5994,Vikanes,HO,60.6993,5.5874
5941,Austrheim,HO,60.7774,4.9323
5943,Austrheim,HO,60.7774,4.9323
5953,Fonnes,HO,60.8053,4.9825
5947,Fedje,HO,60.7789,4.7149
5948,Fedje,HO,60.7789,4.7149
5981,Masfjordnes,HO,60.7989,5.3042
5983,Haugsvær,HO,60.9054,5.5273
5984,Matredal,HO,60.8667,5.5833
5986,Hosteland,HO,60.85,5.25
5987,Hosteland,HO,60.85,5.25
6900,Florø,SF,61.5996,5.0328
6901,Florø,SF,61.5996,5.0328
6902,Florø,SF,61.5996,5.0328
6903,Florø,SF,61.5996,5.0328
6909,Florø,SF,61.5996,5.0328
6912,Kinn,SF,61.5625,4.7695
6914,Svanøybukt,SF,61.4945,5.1117
6915,Rognaldsvåg,SF,61.5667,4.8
6916,Barekstad,SF,61.6684,4.8888
6917,Batalden,SF,61.638,4.8128
6918,Sør-Skorpa,SF,61.5871,4.8125
6919,Tansøy,SF,61.5,4.9667
6940,Eikefjord,SF,61.5852,5.4601
6941,Eikefjord,SF,61.5886,5.4612
6942,Svortevik,SF,61.5,5.2333
6944,Stavang,SF,61.5333,5.1833
5960,Dalsøyra,SF,60.9333,5.1333
5961,Brekke,SF,61.0167,5.4667
5966,Eivindvik,SF,60.9814,5.0736
5967,Eivindvik,SF,60.9814,5.0736
5970,Byrknesøy,SF,60.8992,4.8378
5977,Ånneland,SF,60.8833,4.9667
5978,Mjømna,SF,60.9167,4.9167
5979,Byrknesøy,SF,60.8986,4.838
6921,Hardbakke,SF,61.0711,4.8372
6924,Hardbakke,SF,61.0711,4.8372
6926,Krakhella,SF,61.1333,5.0167
6927,Ytrøygrend,SF,61.0833,4.7
6928,Kolgrov,SF,61.019,4.7417
6929,Hersvikbygda,SF,61.1729,4.8963
6951,Leirvik I Sogn,SF,61.1333,5.3667
6953,Leirvik I Sogn,SF,61.1333,5.3667
6957,Hyllestad,SF,61.1711,5.296
6958,Sørbøvåg,SF,61.2333,5.1667
5962,Bjordal,SF,61.0773,5.8324
6946,Lavik,SF,61.1,5.5
6947,Lavik,SF,61.1,5.5
6991,Høyanger,SF,61.2204,6.0749
6993,Høyanger,SF,61.2204,6.0749
6995,Kyrkjebø,SF,61.1667,5.9167
6996,Vadheim,SF,61.2167,5.8167
6891,Vik I Sogn,SF,61.163,6.6767
6893,Vik I Sogn,SF,61.163,6.6767
6894,Vangsnes,SF,61.1833,6.6333
6895,Feios,SF,61.15,6.75
6896,Fresvik,SF,61.0667,6.9333
6898,Balestrand,SF,61.2076,6.5334
6899,Balestrand,SF,61.2076,6.5334
6861,Leikanger,SF,61.1853,6.8086
6863,Leikanger,SF,61.1853,6.8086
6848,Fjærland,SF,61.4059,6.7416
6851,Sogndal,SF,61.2283,7.1003
6852,Sogndal,SF,61.2283,7.1003
6853,Sogndal,SF,61.2283,7.1003
6854,Kaupanger,SF,61.1833,7.2333
6856,Sogndal,SF,61.2283,7.1003
6858,Fardal,SF,61.1833,7.0167
6859,Slinde,SF,61.1667,6.9167
5718,Myrdal,SF,60.7333,7.1333
5741,Aurland,SF,60.8735,7.3235
5742,Flåm,SF,60.8333,7.1167
5743,Flåm,SF,60.8333,7.1167
5745,Aurland,SF,60.9063,7.1864
5746,Undredal,SF,60.95,7.1
5747,Gudvangen,SF,60.8667,6.8333
5748,Styvi,SF,60.9417,6.9362
5749,Bakka,SF,60.9163,6.8689
6855,Frønningen,SF,61.1,7.0833
6886,Lærdal,SF,61.0977,7.4821
6887,Lærdal,SF,61.0984,7.4812
6888,Borgund,SF,61.0487,7.8135
6881,Årdalstangen,SF,61.2371,7.6983
6882,Øvre Årdal,SF,61.3167,7.8
6884,Øvre Årdal,SF,61.3167,7.8
6885,Årdalstangen,SF,61.2371,7.6983
6866,Gaupne,SF,61.4083,7.2856
6868,Gaupne,SF,61.4083,7.2856
6869,Hafslo,SF,61.31,7.2215
6870,Ornes,SF,61.3,7.3167
6871,Jostedal,SF,61.5828,7.2766
6872,Luster,SF,61.4415,7.4567
6873,Marifjøra,SF,61.3667,7.3333
6875,Høyheimsvik,SF,61.4084,7.3553
6876,Skjolden,SF,61.4926,7.5998
6877,Fortun,SF,61.4948,7.6891
6878,Veitastrond,SF,61.5047,6.9856
6879,Solvorn,SF,61.3,7.25
6980,Askvoll,SF,61.3463,5.0704
6981,Holmedal,SF,61.35,5.1833
6982,Holmedal,SF,61.35,5.1833
6983,Kvammen,SF,61.4588,5.4161
6984,Stongfjorden,SF,61.4333,5.1833
6985,Atløy,SF,61.3316,5.0205
6986,Værlandet,SF,61.304,4.7398
6987,Bulandet,SF,61.286,4.6327
6988,Askvoll,SF,61.3463,5.0704
6961,Dale I Sunnfjord,SF,61.3631,5.3981
6963,Dale I Sunnfjord,SF,61.3631,5.3981
6964,Korssund,SF,61.25,5
6966,Guddal,SF,61.2463,5.53
6967,Hellevik I Fjaler,SF,61.3232,5.2907
6968,Flekke,SF,61.3167,5.3667
6969,Straumsnes,SF,61.3366,5.2079
6971,Sande I Sunnfjord,SF,61.3251,5.7977
6973,Sande I Sunnfjord,SF,61.3251,5.7977
6975,Skilbrei,SF,61.3814,5.818
6977,Bygstad,SF,61.3833,5.6667
6978,Viksdalen,SF,61.3509,6.1174
6841,Skei I Jølster,SF,61.5,6.1167
6843,Skei I Jølster,SF,61.5,6.1167
6847,Vassenden,SF,61.5,6.1167
6800,Førde,SF,61.4522,5.8572
6801,Førde,SF,61.4522,5.8572
6802,Førde,SF,61.4522,5.8572
6803,Førde,SF,61.4522,5.8572
6804,Førde,SF,61.4522,5.8572
6805,Førde,SF,61.4522,5.8572
6807,Førde,SF,61.4522,5.8572
6818,Haukedalen,SF,61.4211,6.3771
6819,Holsen,SF,61.4167,6.1667
6806,Naustdal,SF,61.509,5.7168
6817,Naustdal,SF,61.509,5.7168
6719,Skatestraumen,SF,61.8754,5.2279
6721,Svelgen,SF,61.7685,5.2955
6723,Svelgen,SF,61.7685,5.2955
6726,Bremanger,SF,61.8396,4.9863
6727,Bremanger,SF,61.8406,4.9811
6728,Kalvåg,SF,61.7667,4.8833
6729,Kalvåg,SF,61.7667,4.8833
6730,Davik,SF,61.8833,5.5333
6731,Davik,SF,61.8833,5.5333
6734,Rugsund,SF,61.8833,5.3333
6737,Ålfoten,SF,61.8333,5.6667
6700,Måløy,SF,61.9353,5.1136
6701,Måløy,SF,61.9353,5.1136
6702,Måløy,SF,61.9353,5.1136
6703,Måløy,SF,61.9353,5.1136
6704,Deknepollen,SF,61.9333,5.15
6707,Raudeberg,SF,61.9806,5.1336
6708,Bryggja,SF,61.9333,5.3833
6710,Raudeberg,SF,61.9806,5.1336
6711,Bryggja,SF,61.9333,5.3833
6713,Almenningen,SF,61.9144,5.2341
6714,Silda,SF,62.0124,5.1978
6716,Husevåg,SF,61.9158,5.0419
6718,Deknepollen,SF,61.9333,5.15
6715,Barmen,SF,61.9992,5.29
6717,Flatraket,SF,61.9524,5.1998
6740,Selje,SF,62.0459,5.351
6741,Selje,SF,62.0459,5.351
6750,Stadlandet,SF,62.1197,5.3156
6751,Stadlandet,SF,62.1183,5.3169
6770,Nordfjordeid,SF,61.9063,5.9915
6771,Nordfjordeid,SF,61.9063,5.9915
6772,Nordfjordeid,SF,61.9063,5.9915
6776,Kjølsdalen,SF,61.9171,5.6318
6777,Stårheim,SF,61.9167,5.7667
6778,Lote,SF,61.8682,6.0754
6779,Holmøyane,SF,61.9333,6.4333
6761,Hornindal,SF,61.9693,6.5225
6763,Hornindal,SF,61.9693,6.5225
6821,Sandane,SF,61.7728,6.215
6822,Sandane,SF,61.7728,6.215
6823,Sandane,SF,61.7728,6.215
6826,Byrkjelo,SF,61.7329,6.5052
6827,Breim,SF,61.7368,6.4086
6828,Hestenesøyra,SF,61.85,6.0333
6829,Hyen,SF,61.7396,5.9172
6781,Stryn,SF,61.9045,6.7226
6782,Stryn,SF,61.9045,6.7226
6783,Stryn,SF,61.9045,6.7226
6784,Olden,SF,61.8365,6.8065
6788,Olden,SF,61.8365,6.8065
6789,Loen,SF,61.8667,6.8667
6791,Oldedalen,SF,61.7012,6.8093
6792,Briksdalsbre,SF,61.6646,6.8222
6793,Innvik,SF,61.85,6.6167
6795,Blaksæter,SF,61.8667,6.5
6796,Hopland,SF,61.867,6.3146
6797,Utvik,SF,61.8064,6.5189
6798,Hjelledalen,SF,61.9183,7.1691
6799,Oppstryn,SF,61.9081,7.0587
6401,Molde,MR,62.7375,7.1591
6402,Molde,MR,62.7375,7.1591
6403,Molde,MR,62.7463,7.227
6404,Molde,MR,62.7375,7.1591
6405,Molde,MR,62.7375,7.1591
6407,Molde,MR,62.7375,7.1591
6410,Molde,MR,62.7697,7.281
6411,Molde,MR,62.7363,7.0898
6412,Molde,MR,62.7375,7.1591
6413,Molde,MR,62.7375,7.1591
6414,Molde,MR,62.7375,7.1591
6415,Molde,MR,62.7375,7.1591
6416,Molde,MR,62.7375,7.1591
6418,Sekken,MR,62.674,7.3043
6419,Molde,MR,62.7448,7.2266
6421,Molde,MR,62.7521,7.2914
6422,Molde,MR,62.7486,7.2514
6423,Molde,MR,62.7473,7.2143
6425,Molde,MR,62.7526,7.2336
6429,Molde,MR,62.7375,7.1591
6434,Molde,MR,62.7359,7.095
6435,Molde,MR,62.7526,7.2341
6436,Molde,MR,62.7473,7.2527
6450,Hjelset,MR,62.7833,7.4833
6453,Kleive,MR,62.8167,7.6667
6454,Hjelset,MR,62.7885,7.5358
6455,Kortgarden,MR,62.7767,7.6287
6456,Skåla,MR,62.7019,7.4236
6457,Bolsøya,MR,62.7293,7.2942
6001,Ålesund,MR,62.4723,6.1549
6002,Ålesund,MR,62.4723,6.1549
6003,Ålesund,MR,62.4723,6.1549
6004,Ålesund,MR,62.4723,6.1549
6005,Ålesund,MR,62.4723,6.1549
6006,Ålesund,MR,62.4723,6.1549
6007,Ålesund,MR,62.4723,6.1549
6008,Ålesund,MR,62.4723,6.1549
6009,Ålesund,MR,62.4741,6.2432
6010,Ålesund,MR,62.4659,6.3633
6011,Ålesund,MR,62.4688,6.3726
6012,Ålesund,MR,62.4346,6.3917
6013,Ålesund,MR,62.432,6.4133
6014,Ålesund,MR,62.4702,6.3148
6015,Ålesund,MR,62.4661,6.2605
6016,Ålesund,MR,62.4602,6.2733
6017,Ålesund,MR,62.4637,6.3172
6018,Ålesund,MR,62.4671,6.3456
6019,Ålesund,MR,62.4777,6.3766
6020,Ålesund,MR,62.437,6.3559
6021,Ålesund,MR,62.4724,6.2404
6022,Ålesund,MR,62.4667,6.361
6023,Ålesund,MR,62.4418,6.3725
6024,Ålesund,MR,62.4618,6.2787
6025,Ålesund,MR,62.4717,6.3478
6026,Ålesund,MR,62.4645,6.313
6028,Ålesund,MR,62.4723,6.1549
6045,Ålesund,MR,62.4644,6.3172
6046,Ålesund,MR,62.468,6.292
6047,Ålesund,MR,62.4319,6.4128
6057,Ellingsøy,MR,62.4913,6.1913
6501,Kristiansund N,MR,63.1109,7.7293
6502,Kristiansund N,MR,63.1105,7.78
6503,Kristiansund N,MR,63.1105,7.78
6504,Kristiansund N,MR,63.1104,7.7279
6506,Kristiansund N,MR,63.1224,7.7138
6507,Kristiansund N,MR,63.1045,7.7338
6508,Kristiansund N,MR,63.1118,7.7246
6509,Kristiansund N,MR,63.1125,7.7301
6510,Kristiansund N,MR,63.118,7.7242
6511,Kristiansund N,MR,63.1219,7.7364
6512,Kristiansund N,MR,63.1166,7.7499
6514,Kristiansund N,MR,63.1212,7.714
6515,Kristiansund N,MR,63.1257,7.7103
6516,Kristiansund N,MR,63.11,7.7552
6517,Kristiansund N,MR,63.1103,7.7923
6518,Kristiansund N,MR,63.1204,7.7895
6520,Frei,MR,63.0942,7.813
6521,Frei,MR,63.0938,7.8161
6522,Frei,MR,63.0979,7.8213
6523,Frei,MR,63.0167,7.8
6524,Frei,MR,63.0167,7.8
6525,Frei,MR,63.0667,7.8814
6529,Frei,MR,63.0981,7.8209
6139,Fiskå,MR,62.1006,5.5579
6140,Syvde,MR,62.0877,5.7385
6141,Rovde,MR,62.1833,5.75
6142,Eidså,MR,62.1167,5.6667
6143,Fiskå,MR,62.1006,5.5579
6144,Sylte,MR,62.0667,5.6333
6146,Åheim,MR,62.0361,5.5308
6149,Åram,MR,62.1733,5.441
6082,Gursken,MR,62.2162,5.6499
6083,Gjerdsvika,MR,62.2195,5.5452
6084,Larsnes,MR,62.2028,5.5773
6085,Larsnes,MR,62.2028,5.5773
6087,Kvamsøy,MR,62.2171,5.3774
6089,Sandshamn,MR,62.2528,5.4811
6070,Tjørvåg,MR,62.2833,5.7167
6076,Moltustranda,MR,62.2942,5.6274
6080,Gurskøy,MR,62.2472,5.782
6090,Fosnavåg,MR,62.3419,5.634
6091,Fosnavåg,MR,62.3419,5.634
6092,Fosnavåg,MR,62.3419,5.634
6094,Leinøy,MR,62.3472,5.6867
6095,Bølandet,MR,62.3544,5.7339
6096,Runde,MR,62.4043,5.6237
6098,Nerlandsøy,MR,62.3419,5.634
6099,Fosnavåg,MR,62.3419,5.634
6064,Haddal,MR,62.2833,5.8833
6065,Ulsteinvik,MR,62.3432,5.8487
6067,Ulsteinvik,MR,62.3432,5.8487
6068,Eiksund,MR,62.2667,5.9333
6060,Hareid,MR,62.3714,6.0263
6062,Brandal,MR,62.4,6
6063,Hjørungavåg,MR,62.35,6.0667
6069,Hareid,MR,62.3714,6.0263
6100,Volda,MR,62.1476,6.0741
6101,Volda,MR,62.1476,6.0741
6110,Austefjorden,MR,62.0632,6.3258
6120,Folkestad,MR,62.1185,6.0291
6133,Lauvstad,MR,62.1667,5.9333
6150,Ørsta,MR,62.2029,6.1272
6151,Ørsta,MR,62.2029,6.1272
6160,Hovdebygda,MR,62.1833,6.0667
6161,Hovdebygda,MR,62.1833,6.0667
6165,Sæbø,MR,62.2167,6.4833
6166,Sæbø,MR,62.2167,6.4833
6170,Vartdal,MR,62.3011,6.0832
6174,Barstadvik,MR,62.35,6.25
6183,Trandal,MR,62.261,6.5007
6184,Storestandal,MR,62.2626,6.4257
6190,Bjørke,MR,62.1,6.5667
6196,Norangsfjorden,MR,62.213,6.5686
6240,Ørskog,MR,62.4832,6.8158
6249,Ørskog,MR,62.4828,6.8115
6210,Valldal,MR,62.2978,7.2637
6211,Valldal,MR,62.2978,7.2637
6213,Tafjord,MR,62.25,7.4333
6214,Norddal,MR,62.2518,7.2379
6215,Eidsdal,MR,62.2667,7.1667
6200,Stranda,MR,62.3096,6.9358
6201,Stranda,MR,62.3096,6.9358
6212,Liabygda,MR,62.3119,7.0562
6216,Geiranger,MR,62.1065,7.2125
6218,Hellesylt,MR,62.0833,6.9
6250,Stordal,MR,62.382,6.9863
6259,Stordal,MR,62.382,6.9863
6220,Straumgjerde,MR,62.3337,6.5942
6222,Ikornnes,MR,62.3863,6.5509
6224,Hundeidvik,MR,62.3667,6.4333
6230,Sykkylven,MR,62.3959,6.5875
6238,Straumgjerde,MR,62.3331,6.5947
6239,Sykkylven,MR,62.3959,6.5875
6260,Skodje,MR,62.5021,6.7034
6263,Skodje,MR,62.5021,6.7034
6030,Langevåg,MR,62.4374,6.1891
6035,Fiskarstrand,MR,62.4396,6.2716
6036,Mauseidvåg,MR,62.4215,6.2709
6037,Eidsnes,MR,62.4276,6.3163
6038,Fiskarstrand,MR,62.4402,6.2731
6039,Langevåg,MR,62.4374,6.1891
6040,Vigra,MR,62.5823,6.123
6050,Valderøya,MR,62.5062,6.1249
6051,Valderøya,MR,62.5068,6.1029
6052,Giske,MR,62.5048,6.0481
6055,Godøya,MR,62.4757,6.0385
6058,Valderøya,MR,62.5062,6.1248
6059,Vigra,MR,62.5823,6.123
6264,Tennfjord,MR,62.5333,6.6
6265,Vatne,MR,62.5667,6.65
6270,Brattvåg,MR,62.6001,6.4434
6272,Hildre,MR,62.6167,6.3667
6280,Søvik,MR,62.55,6.3
6281,Søvik,MR,62.55,6.3
6282,Brattvåg,MR,62.6001,6.4434
6283,Vatne,MR,62.5451,6.5889
6285,Storekalvøy,MR,62.5271,6.2032
6290,Haramsøy,MR,62.6333,6.2833
6292,Kjerstad,MR,62.6333,6.2167
6293,Longva,MR,62.6667,6.3
6294,Fjørtoft,MR,62.7,6.3667
6390,Vestnes,MR,62.6264,7.0884
6391,Tresfjord,MR,62.5272,7.1266
6392,Vikebukt,MR,62.6167,7.15
6393,Tomrefjord,MR,62.5812,6.9311
6394,Fiksdal,MR,62.6167,6.8667
6395,Rekdal,MR,62.65,6.75
6396,Vikebukt,MR,62.6167,7.15
6397,Tresfjord,MR,62.5225,7.1285
6398,Tomrefjord,MR,62.5824,6.931
6399,Vestnes,MR,62.6264,7.0884
6300,Åndalsnes,MR,62.5675,7.6871
6301,Åndalsnes,MR,62.5675,7.6871
6310,Veblungsnes,MR,62.55,7.6833
6315,Innfjorden,MR,62.4995,7.5679
6320,Isfjorden,MR,62.5777,7.7899
6330,Verma,MR,62.3433,8.0589
6339,Isfjorden,MR,62.5781,7.7912
6350,Eidsbygda,MR,62.5866,7.4979
6360,Åfarnes,MR,62.6667,7.5167
6363,Mittet,MR,62.7,7.7167
6386,Måndalen,MR,62.5332,7.4436
6387,Vågstranda,MR,62.6186,7.3077
6364,Vistdal,MR,62.7104,7.931
6460,Eidsvåg I Romsdal,MR,62.8347,8.1222
6461,Eidsvåg I Romsdal,MR,62.8347,8.1222
6462,Raudsand,MR,62.8347,8.1222
6470,Eresfjord,MR,62.6698,8.1309
6472,Eikesdal,MR,62.4755,8.1736
6475,Midsund,MR,62.6728,6.675
6476,Midsund,MR,62.6728,6.675
6483,Ona,MR,62.8667,6.5667
6484,Sandøy,MR,62.8186,6.5841
6486,Orten,MR,62.7917,6.7042
6487,Harøy,MR,62.783,6.473
6488,Myklebost,MR,62.7333,6.45
6409,Molde,MR,62.7773,6.9854
6480,Aukra,MR,62.7833,6.9
6481,Aukra,MR,62.7833,6.9
6408,Aureosen,MR,62.8125,7.1024
6430,Bud,MR,62.9167,6.9167
6431,Bud,MR,62.9167,6.9167
6433,Hustad,MR,62.9546,7.0958
6440,Elnesvågen,MR,62.8544,7.1406
6443,Tornes I Romsdal,MR,62.85,7.0333
6444,Farstad,MR,62.9667,7.1667
6445,Malmefjorden,MR,62.8156,7.2406
6447,Elnesvågen,MR,62.8544,7.1406
6490,Eide,MR,62.9173,7.4467
6493,Lyngstad,MR,62.9667,7.3667
6494,Vevang,MR,63.0028,7.2884
6499,Eide,MR,62.9173,7.4467
6530,Averøy,MR,63.0644,7.5013
6538,Averøy,MR,63.0524,7.6322
6539,Averøy,MR,63.0132,7.4436
6631,Batnfjordsøra,MR,62.8927,7.6818
6633,Gjemnes,MR,62.8927,7.6818
6636,Angvik,MR,62.8958,8.0867
6637,Flemma,MR,62.95,8.0833
6638,Osmarka,MR,62.8638,7.8773
6639,Torvikbukt,MR,62.95,7.8667
6628,Meisingset,MR,62.8561,8.28
6629,Torjulvågen,MR,62.9747,8.2424
6630,Tingvoll,MR,62.9132,8.2053
6670,Øydegard,MR,63.0113,7.9747
6674,Kvisvik,MR,63.0667,8
6600,Sunndalsøra,MR,62.6754,8.5515
6601,Sunndalsøra,MR,62.6754,8.5515
6610,Øksendal,MR,62.7164,8.4318
6611,Furugrenda,MR,62.6621,8.63
6612,Grøa,MR,62.65,8.7167
6613,Gjøra,MR,62.55,9.1167
6620,Ålvundeid,MR,62.7657,8.5372
6622,Ålvundfjord,MR,62.8522,8.5206
6640,Kvanne,MR,62.8894,8.5269
6642,Stangvik,MR,62.92,8.4644
6643,Bøfjorden,MR,63.0197,8.3655
6644,Bæverfjord,MR,63.0333,8.5833
6645,Todalen,MR,62.8201,8.7068
6650,Surnadal,MR,62.9703,8.6616
6652,Surna,MR,62.9833,8.65
6653,Øvre Surnadal,MR,63.013,9.0599
6655,Vindøla,MR,63.0089,8.9048
6656,Surnadal,MR,62.974,8.7247
6657,Rindal,MR,63.0565,9.2124
6658,Rindalsskogen,MR,63.0993,9.3233
6659,Rindal,MR,63.0565,9.2124
6680,Halsanaustan,MR,63.0689,8.2274
6683,Vågland,MR,63.1205,8.2815
6686,Valsøybotn,MR,63.1,8.6333
6687,Valsøyfjord,MR,63.1241,8.5591
6688,Vågland,MR,63.1167,8.3333
6570,Smøla,MR,63.3304,8.0793
6571,Smøla,MR,63.4597,8.0161
6590,Tustna,MR,63.2066,8.0425
6689,Aure,MR,63.2678,8.5313
6690,Aure,MR,63.2678,8.5313
6693,Mjosundet,MR,63.2245,8.5085
6694,Foldfjorden,MR,63.2582,8.3878
6697,Vihals,MR,63.3461,8.6879
6698,Lesund,MR,63.3333,8.4833
6699,Kjørsvikbugen,MR,63.4167,8.7333
7003,Trondheim,ST,63.4305,10.3951
7004,Trondheim,ST,63.4305,10.3951
7005,Trondheim,ST,63.4305,10.3951
7006,Trondheim,ST,63.4305,10.3951
7010,Trondheim,ST,63.4305,10.3951
7011,Trondheim,ST,63.4305,10.3951
7012,Trondheim,ST,63.4305,10.3951
7013,Trondheim,ST,63.4305,10.3951
7014,Trondheim,ST,63.4305,10.3951
7015,Trondheim,ST,63.4305,10.3951
7016,Trondheim,ST,63.4305,10.3951
7018,Trondheim,ST,63.4305,10.3951
7019,Trondheim,ST,63.4305,10.3951
7020,Trondheim,ST,63.4305,10.3951
7021,Trondheim,ST,63.4305,10.3951
7022,Trondheim,ST,63.4305,10.3951
7023,Trondheim,ST,63.4305,10.3951
7024,Trondheim,ST,63.3961,10.3338
7025,Trondheim,ST,63.4041,10.3357
7026,Trondheim,ST,63.3855,10.3303
7027,Trondheim,ST,63.3903,10.3633
7028,Trondheim,ST,63.4305,10.3951
7029,Trondheim,ST,63.3773,10.363
7030,Trondheim,ST,63.4305,10.3951
7031,Trondheim,ST,63.4305,10.3951
7032,Trondheim,ST,63.4305,10.3951
7033,Trondheim,ST,63.4305,10.3951
7034,Trondheim,ST,63.4305,10.3951
7036,Trondheim,ST,63.4305,10.3951
7037,Trondheim,ST,63.4305,10.3951
7038,Trondheim,ST,63.4305,10.3951
7039,Trondheim,ST,63.348,10.4794
7040,Trondheim,ST,63.45,10.4466
7041,Trondheim,ST,63.4444,10.4458
7042,Trondheim,ST,63.4305,10.3951
7043,Trondheim,ST,63.4305,10.3951
7044,Trondheim,ST,63.4361,10.456
7045,Trondheim,ST,63.4365,10.4552
7046,Trondheim,ST,63.4206,10.4466
7047,Trondheim,ST,63.4193,10.4749
7048,Trondheim,ST,63.412,10.4597
7049,Trondheim,ST,63.4024,10.4551
7050,Trondheim,ST,63.4305,10.3951
7051,Trondheim,ST,63.4305,10.3951
7052,Trondheim,ST,63.4305,10.3951
7053,Ranheim,ST,63.4333,10.55
7054,Ranheim,ST,63.4333,10.55
7056,Ranheim,ST,63.4333,10.55
7057,Jonsvatnet,ST,63.3816,10.5572
7058,Jakobsli,ST,63.4319,10.4725
7059,Jakobsli,ST,63.4319,10.4725
7070,Bosberg,ST,63.4226,10.1493
7072,Heimdal,ST,63.35,10.3583
7074,Spongdal,ST,63.3556,10.1664
7075,Tiller,ST,63.35,10.4333
7078,Saupstad,ST,63.3662,10.3477
7079,Flatåsen,ST,63.3554,10.3798
7080,Heimdal,ST,63.35,10.3583
7081,Sjetnemarka,ST,63.35,10.3583
7082,Kattem,ST,63.35,10.3583
7083,Leinstrand,ST,63.3252,10.3071
7088,Heimdal,ST,63.35,10.3583
7089,Heimdal,ST,63.35,10.3583
7091,Tiller,ST,63.35,10.4333
7092,Tiller,ST,63.35,10.4333
7097,Saupstad,ST,63.3662,10.3477
7098,Saupstad,ST,63.3662,10.3477
7099,Flatåsen,ST,63.3581,10.3905
7400,Trondheim,ST,63.4305,10.3951
7401,Trondheim,ST,63.4305,10.3951
7402,Trondheim,ST,63.4305,10.3951
7403,Trondheim,ST,63.4305,10.3951
7404,Trondheim,ST,63.4305,10.3951
7405,Trondheim,ST,63.4305,10.3951
7406,Trondheim,ST,63.4305,10.3951
7407,Trondheim,ST,63.4305,10.3951
7408,Trondheim,ST,63.4305,10.3951
7409,Trondheim,ST,63.4305,10.3951
7410,Trondheim,ST,63.4305,10.3951
7411,Trondheim,ST,63.4305,10.3951
7412,Trondheim,ST,63.4305,10.3951
7413,Trondheim,ST,63.4305,10.3951
7414,Trondheim,ST,63.4305,10.3951
7415,Trondheim,ST,63.4305,10.3951
7416,Trondheim,ST,63.4305,10.3951
7417,Trondheim,ST,63.4305,10.3951
7418,Trondheim,ST,63.4305,10.3951
7419,Trondheim,ST,63.4305,10.3951
7420,Trondheim,ST,63.4305,10.3951
7421,Trondheim,ST,63.4305,10.3951
7422,Trondheim,ST,63.4041,10.3356
7424,Trondheim,ST,63.3874,10.3302
7425,Trondheim,ST,63.4305,10.3951
7426,Trondheim,ST,63.4305,10.3951
7427,Trondheim,ST,63.4305,10.3951
7428,Trondheim,ST,63.4305,10.3951
7429,Trondheim,ST,63.3783,10.3644
7430,Trondheim,ST,63.4305,10.3951
7431,Trondheim,ST,63.3915,10.4302
7432,Trondheim,ST,63.4305,10.3951
7433,Trondheim,ST,63.4305,10.3951
7434,Trondheim,ST,63.4305,10.3951
7435,Trondheim,ST,63.4305,10.3951
7436,Trondheim,ST,63.4305,10.3951
7437,Trondheim,ST,63.4305,10.3951
7438,Trondheim,ST,63.4305,10.3951
7439,Trondheim,ST,63.4305,10.3951
7440,Trondheim,ST,63.4474,10.4449
7441,Trondheim,ST,63.4474,10.4449
7442,Trondheim,ST,63.4474,10.4449
7443,Trondheim,ST,63.4365,10.4552
7444,Trondheim,ST,63.4365,10.4552
7445,Trondheim,ST,63.4365,10.4552
7446,Trondheim,ST,63.4305,10.3951
7447,Trondheim,ST,63.4305,10.3951
7448,Trondheim,ST,63.4305,10.3951
7449,Trondheim,ST,63.4305,10.3951
7450,Trondheim,ST,63.4305,10.3951
7451,Trondheim,ST,63.4305,10.3951
7452,Trondheim,ST,63.4283,10.5195
7453,Trondheim,ST,63.4283,10.5195
7454,Trondheim,ST,63.4305,10.3951
7455,Trondheim,ST,63.4305,10.3951
7456,Trondheim,ST,63.4125,10.5375
7457,Trondheim,ST,63.4167,10.4608
7458,Trondheim,ST,63.4216,10.4942
7459,Trondheim,ST,63.4269,10.4941
7461,Trondheim,ST,63.4305,10.3951
7462,Trondheim,ST,63.4305,10.3951
7465,Trondheim,ST,63.4305,10.3951
7466,Trondheim,ST,63.4305,10.3951
7467,Trondheim,ST,63.4305,10.3951
7468,Trondheim,ST,63.4305,10.3951
7469,Trondheim,ST,63.4305,10.3951
7470,Trondheim,ST,63.4335,10.4487
7472,Trondheim,ST,63.3508,10.3557
7473,Trondheim,ST,63.3508,10.3557
7474,Trondheim,ST,63.3508,10.3557
7475,Trondheim,ST,63.3608,10.3788
7476,Trondheim,ST,63.3619,10.3789
7477,Trondheim,ST,63.3619,10.3789
7478,Trondheim,ST,63.3664,10.3488
7479,Trondheim,ST,63.3723,10.3429
7480,Trondheim,ST,63.4305,10.3951
7481,Trondheim,ST,63.4305,10.3951
7482,Trondheim,ST,63.346,10.3351
7483,Trondheim,ST,63.4305,10.3951
7484,Trondheim,ST,63.4305,10.3951
7485,Trondheim,ST,63.4305,10.3951
7486,Trondheim,ST,63.4305,10.3951
7487,Trondheim,ST,63.3706,10.3888
7488,Trondheim,ST,63.4305,10.3951
7489,Trondheim,ST,63.4305,10.3951
7490,Trondheim,ST,63.4305,10.3951
7491,Trondheim,ST,63.4079,10.4698
7492,Trondheim,ST,63.4305,10.3951
7493,Trondheim,ST,63.4305,10.3951
7494,Trondheim,ST,63.4305,10.3951
7495,Trondheim,ST,63.4305,10.3951
7496,Trondheim,ST,63.4305,10.3951
7497,Trondheim,ST,63.3618,10.3898
7200,Kyrksæterøra,ST,63.2906,9.0891
7201,Kyrksæterøra,ST,63.2906,9.0891
7203,Vinjeøra,ST,63.2059,8.986
7206,Hellandsjøen,ST,63.4,8.9833
7255,Sundlandet,ST,63.4965,9.1798
7256,Hemnskjela,ST,63.495,9.1319
7257,Snillfjord,ST,63.4,9.5
7259,Snillfjord,ST,63.4,9.5
7239,Hitra,ST,63.601,8.9776
7240,Hitra,ST,63.6064,8.9696
7241,Ansnes,ST,69.4999,18.4484
7242,Knarrlagsund,ST,63.6667,9.0833
7243,Kvenvær,ST,63.5333,8.3833
7246,Sandstad,ST,63.5333,9.1
7247,Hestvika,ST,63.5667,9.1833
7250,Melandsjø,ST,63.6288,8.7299
7252,Dolmøy,ST,63.654,8.7766
7260,Sistranda,ST,63.7255,8.834
7261,Sistranda,ST,63.7255,8.834
7263,Hamarvik,ST,63.7,8.8
7264,Hamarvik,ST,63.7,8.8
7266,Kverva,ST,63.7,8.5333
7268,Titran,ST,63.6667,8.3
7270,Dyrvik,ST,63.7667,8.8333
7273,Norddyrøy,ST,63.7978,8.6824
7280,Sula,ST,63.8461,8.4587
7282,Bogøyvær,ST,63.871,8.5502
7284,Mausund,ST,63.868,8.6641
7285,Gjæsingen,ST,63.9273,8.8994
7286,Sørburøy,ST,63.9753,9.0594
7287,Sauøy,ST,63.9996,9.1742
7127,Opphaug,ST,63.7333,9.7
7128,Uthaug,ST,63.7167,9.6
7129,Brekstad,ST,63.687,9.6654
7130,Brekstad,ST,63.687,9.6654
7140,Opphaug,ST,63.7333,9.7
7142,Uthaug,ST,63.7167,9.6
7150,Storfosna,ST,63.6592,9.4103
7152,Kråkvåg,ST,63.6395,9.3361
7153,Garten,ST,63.6333,9.5167
7156,Leksa,ST,63.5667,9.3333
7315,Lensvik,ST,63.5139,9.8061
7316,Lensvik,ST,63.5139,9.8061
7318,Agdenes,ST,63.6195,9.6376
7319,Agdenes,ST,63.6152,9.7124
7100,Rissa,ST,63.5837,9.9599
7101,Rissa,ST,63.5837,9.9599
7105,Stadsbygd,ST,63.5096,10.0194
7110,Fevåg,ST,63.6833,9.85
7112,Hasselvika,ST,63.6347,9.834
7113,Husbysjøen,ST,63.7522,10.1315
7114,Råkvåg,ST,63.7667,10.0833
7119,Stadsbygd,ST,63.5086,10.019
7159,Bjugn,ST,63.7646,9.8107
7160,Bjugn,ST,63.7651,9.8098
7165,Oksvoll,ST,63.8167,9.6833
7166,Tarva,ST,63.7962,9.4282
7167,Vallersund,ST,63.8446,9.7239
7168,Lysøysundet,ST,63.8833,9.8667
7169,Åfjord,ST,63.9667,10.2
7170,Åfjord,ST,63.9667,10.2
7176,Linesøya,ST,64.0167,9.95
7177,Revsnes,ST,64.0333,10.0667
7178,Stokkøy,ST,64.0474,10.0184
7180,Roan,ST,64.1727,10.229
7190,Bessaker,ST,64.25,10.3333
7194,Brandsfjord,ST,64.1879,10.421
7740,Steinsdalen,ST,64.2987,10.5128
7742,Yttervåg,ST,64.3,10.3167
7744,Hepsøy,ST,64.3205,10.3733
7748,Sætervik,ST,64.4,10.5
7340,Oppdal,ST,62.5943,9.6912
7341,Oppdal,ST,62.5943,9.6912
7342,Lønset,ST,62.5832,9.3438
7343,Vognill,ST,62.6167,9.5833
7345,Driva,ST,62.5333,9.6323
7391,Rennebu,ST,62.8288,10.0104
7392,Rennebu,ST,62.8833,9.8333
7393,Rennebu,ST,62.8833,9.8333
7397,Rennebu,ST,62.7479,9.9837
7398,Rennebu,ST,62.7195,10.0292
7399,Rennebu,ST,62.8277,10.0099
7331,Løkken Verk,ST,63.1333,9.7
7332,Løkken Verk,ST,63.1333,9.7
7333,Storås,ST,63.1,9.6
7334,Storås,ST,63.1,9.6
7335,Jerpstad,ST,62.9847,9.7407
7336,Meldal,ST,63.0472,9.7134
7338,Meldal,ST,63.0472,9.7134
7300,Orkanger,ST,63.3122,9.8535
7301,Orkanger,ST,63.3122,9.8535
7302,Orkanger,ST,63.3122,9.8535
7310,Gjølme,ST,63.3167,9.8167
7320,Fannrem,ST,63.2663,9.8156
7321,Fannrem,ST,63.2663,9.8156
7327,Svorkmo,ST,63.1696,9.7425
7329,Svorkmo,ST,63.1711,9.7384
7361,Røros,ST,62.5747,11.3842
7370,Brekkebygd,ST,62.6476,11.8664
7372,Glåmos,ST,62.6833,11.4167
7374,Røros,ST,62.5747,11.3842
7380,Ålen,ST,62.8419,11.3013
7383,Haltdalen,ST,62.9333,11.15
7384,Ålen,ST,62.8419,11.3013
7288,Soknedal,ST,62.95,10.1833
7289,Soknedal,ST,62.95,10.1833
7290,Støren,ST,63.0391,10.285
7291,Støren,ST,63.0391,10.285
7295,Rognes,ST,63.0167,10.4833
7298,Budalen,ST,62.8823,10.4831
7386,Singsås,ST,62.9425,10.6513
7387,Singsås,ST,62.9731,10.5613
7211,Korsvegen,ST,63.1667,10.1
7212,Korsvegen,ST,63.1667,10.1
7213,Gåsbakken,ST,63.1167,10
7221,Melhus,ST,63.2856,10.2781
7223,Melhus,ST,63.2856,10.2781
7224,Melhus,ST,63.2856,10.2781
7227,Gimse,ST,63.2725,10.2835
7228,Kvål,ST,63.2333,10.3
7231,Lundamo,ST,63.1333,10.3
7232,Lundamo,ST,63.1333,10.3
7234,Ler,ST,63.2,10.3333
7235,Ler,ST,63.2,10.3333
7236,Hovin I Gauldal,ST,63.1167,10.25
7238,Hovin I Gauldal,ST,63.1167,10.25
7350,Buvika,ST,63.3117,10.1864
7351,Buvika,ST,63.3128,10.1855
7353,Børsa,ST,63.3267,10.0692
7354,Viggja,ST,63.35,10
7355,Eggkleiva,ST,63.2833,10.05
7357,Skaun,ST,63.25,10.0667
7358,Børsa,ST,63.3267,10.0692
7540,Klæbu,ST,63.2976,10.4826
7541,Klæbu,ST,63.2976,10.4826
7549,Tanem,ST,63.3167,10.45
7550,Hommelvik,ST,63.4108,10.7942
7551,Hommelvik,ST,63.4108,10.7942
7560,Vikhammer,ST,63.4372,10.6271
7562,Hundhamaren,ST,63.4369,10.5882
7563,Malvik,ST,63.4321,10.7368
7566,Vikhammer,ST,63.4378,10.6256
7580,Selbu,ST,63.2291,11.0313
7581,Selbu,ST,63.2186,11.0384
7583,Selbu,ST,63.2499,11.0949
7584,Selbustrand,ST,63.2488,10.9552
7596,Flaknan,ST,63.1101,11.2657
7590,Tydal,ST,62.908,11.8928
7591,Tydal,ST,63.0448,11.6615
7701,Steinkjer,NT,64.0149,11.4954
7702,Steinkjer,NT,64.0149,11.4954
7703,Steinkjer,NT,64.0149,11.4954
7704,Steinkjer,NT,64.0149,11.4954
7705,Steinkjer,NT,64.0149,11.4954
7707,Steinkjer,NT,64.0149,11.4954
7708,Steinkjer,NT,64.0149,11.4954
7709,Steinkjer,NT,64.0149,11.4954
7710,Sparbu,NT,63.9167,11.4333
7711,Steinkjer,NT,64.0149,11.4954
7712,Steinkjer,NT,64.0149,11.4954
7713,Steinkjer,NT,64.0149,11.4954
7714,Steinkjer,NT,64.0149,11.4954
7715,Steinkjer,NT,64.0149,11.4954
7716,Steinkjer,NT,64.0149,11.4954
7717,Steinkjer,NT,64.0819,11.6392
7718,Steinkjer,NT,63.9964,11.8751
7724,Steinkjer,NT,64.0149,11.4954
7725,Steinkjer,NT,64.0149,11.4954
7726,Steinkjer,NT,64.0149,11.4954
7729,Steinkjer,NT,64.0149,11.4954
7730,Beitstad,NT,64.0855,11.3615
7732,Steinkjer,NT,64.1401,11.7397
7734,Steinkjer,NT,64.0149,11.4954
7735,Steinkjer,NT,64.0149,11.4954
7736,Steinkjer,NT,64.0149,11.4954
7737,Steinkjer,NT,64.0149,11.4954
7738,Steinkjer,NT,64.0149,11.4954
7739,Beitstad,NT,64.1081,11.3915
7800,Namsos,NT,64.4662,11.4957
7801,Namsos,NT,64.4662,11.4957
7808,Namsos,NT,64.4662,11.4957
7809,Namsos,NT,64.4381,11.3578
7819,Fosslandsosen,NT,64.5333,11.2667
7820,Spillum,NT,64.45,11.5333
7822,Bangsund,NT,64.3912,11.3997
7530,Meråker,NT,63.4141,11.743
7531,Meråker,NT,63.4141,11.743
7533,Kopperå,NT,63.4,11.85
7500,Stjørdal,NT,63.468,10.9178
7501,Stjørdal,NT,63.468,10.9178
7508,Stjørdal,NT,63.468,10.9178
7510,Skatval,NT,63.509,10.826
7517,Hell,NT,63.4458,10.9009
7519,Elvarli,NT,63.3932,11.0658
7520,Hegra,NT,63.4638,11.1152
7525,Flornes,NT,63.45,11.3667
7529,Hegra,NT,63.4638,11.1152
7570,Hell,NT,63.4458,10.9009
7633,Frosta,NT,63.5891,10.7423
7634,Frosta,NT,63.5891,10.7423
7120,Leksvik,NT,63.6725,10.6266
7121,Leksvik,NT,63.6725,10.6266
7125,Vanvikan,NT,63.5549,10.2167
7126,Vanvikan,NT,63.5535,10.2222
7600,Levanger,NT,63.7464,11.2996
7601,Levanger,NT,63.7464,11.2996
7610,Levanger,NT,63.7464,11.2996
7619,Skogn,NT,63.7,11.2
7620,Skogn,NT,63.7,11.2
7622,Markabygda,NT,63.6378,11.2738
7623,Ronglan,NT,63.6682,11.1186
7624,Ekne,NT,63.7021,11.039
7629,Ytterøy,NT,63.7997,11.1335
7630,Åsen,NT,63.6087,11.0517
7631,Åsen,NT,63.6106,11.0507
7632,Åsenfjord,NT,63.5862,10.8712
7650,Verdal,NT,63.7933,11.4817
7651,Verdal,NT,63.7933,11.4817
7658,Verdal,NT,63.7933,11.4817
7660,Vuku,NT,63.7762,11.7315
7790,Malm,NT,64.0721,11.2172
7791,Malm,NT,64.0721,11.2172
7796,Follafoss,NT,63.9833,11.1
7797,Verrabotn,NT,63.8023,10.5828
7750,Namdalseid,NT,64.2224,11.2214
7751,Namdalseid,NT,64.2224,11.2214
7777,Nord-Statland,NT,64.5,11.1667
7760,Snåsa,NT,64.2457,12.3778
7761,Snåsa,NT,64.2457,12.3778
7882,Nordli,NT,64.4641,13.5925
7884,Sørli,NT,64.2236,13.8343
7898,Limingen,NT,64.8837,13.5612
7890,Namsskogan,NT,64.9289,13.1595
7892,Trones,NT,64.7333,12.8333
7893,Skorovatn,NT,64.65,13.1167
7896,Brekkvasselv,NT,64.8455,13.0148
7870,Grong,NT,64.4654,12.3149
7871,Grong,NT,64.4654,12.3149
7873,Harran,NT,64.5667,12.4833
7976,Kongsmoen,NT,64.8833,12.4333
7977,Høylandet,NT,64.6289,12.3021
7860,Skage I Namdalen,NT,64.4667,11.75
7863,Overhalla,NT,64.4936,11.9481
7864,Overhalla,NT,64.4945,11.9491
7869,Skage I Namdalen,NT,64.4667,11.75
7817,Salsnes,NT,64.6833,11.45
7856,Jøa,NT,64.6373,11.3448
7745,Oppland,NT,64.3333,10.8667
7746,Hasvåg,NT,64.4478,10.605
7770,Flatanger,NT,64.5006,10.894
7771,Flatanger,NT,64.4998,10.8942
7900,Rørvik,NT,64.9162,10.9387
7901,Rørvik,NT,64.8621,11.2373
7818,Lund,NT,64.7667,11.6
7940,Ottersøy,NT,64.85,11.2833
7944,Indre Nærøy,NT,64.7949,11.2987
7950,Abelvær,NT,64.7333,11.1833
7960,Salsbruket,NT,64.8,11.8667
7970,Kolvereid,NT,64.8655,11.6046
7971,Kolvereid,NT,64.8655,11.6046
7973,Gjerdinga,NT,64.9453,11.44
7985,Foldereid,NT,64.9667,12.2
7990,Naustbukta,NT,64.9833,11.75
7993,Gutvik,NT,65.0833,11.8333
7994,Leka,NT,65.0924,11.7051
7670,Inderøy,NT,63.8709,11.2999
7671,Inderøy,NT,63.8484,11.4008
7690,Mosvik,NT,63.8177,11.0058
8001,Bodø,NO,67.2832,14.3857
8002,Bodø,NO,67.2804,14.3706
8003,Bodø,NO,67.2764,14.3698
8004,Bodø,NO,67.276,14.3924
8005,Bodø,NO,67.2814,14.3876
8006,Bodø,NO,67.2847,14.389
8007,Bodø,NO,67.2804,14.4
8008,Bodø,NO,67.2791,14.4106
8009,Bodø,NO,67.2897,14.4191
8010,Bodø,NO,67.284,14.4169
8011,Bodø,NO,67.2946,14.4381
8012,Bodø,NO,67.2974,14.4094
8013,Bodø,NO,67.277,14.4615
8014,Bodø,NO,67.306,14.4341
8015,Bodø,NO,67.3139,14.4529
8016,Bodø,NO,67.3846,14.6287
8019,Bodø,NO,67.2765,14.5103
8020,Bodø,NO,67.2822,14.5564
8021,Bodø,NO,67.2826,14.5212
8022,Bodø,NO,67.283,14.5352
8023,Bodø,NO,67.2841,14.5501
8026,Bodø,NO,67.2919,14.5519
8027,Bodø,NO,67.2927,14.5656
8028,Bodø,NO,67.285,14.5446
8029,Bodø,NO,67.2933,14.589
8030,Bodø,NO,67.2847,14.6087
8031,Bodø,NO,67.2812,14.5461
8032,Bodø,NO,67.2812,14.5461
8037,Bodø,NO,67.28,14.405
8038,Bodø,NO,67.28,14.405
8041,Bodø,NO,67.28,14.405
8047,Bodø,NO,67.2691,14.3652
8048,Bodø,NO,67.2806,14.3763
8049,Bodø,NO,67.2945,14.5923
8050,Tverlandet,NO,67.2975,14.7332
8056,Saltstraumen,NO,67.2335,14.6252
8058,Tverlandet,NO,67.2996,14.741
8070,Bodø,NO,67.28,14.405
8071,Bodø,NO,67.2755,14.4677
8072,Bodø,NO,67.2586,14.4853
8073,Bodø,NO,67.2833,14.4741
8074,Bodø,NO,67.2777,14.4563
8075,Bodø,NO,67.28,14.405
8076,Bodø,NO,67.28,14.405
8079,Bodø,NO,67.2759,14.4898
8084,Bodø,NO,67.28,14.405
8086,Bodø,NO,67.28,14.405
8087,Bodø,NO,67.28,14.405
8088,Bodø,NO,67.28,14.405
8089,Bodø,NO,67.28,14.405
8091,Bodø,NO,67.3132,14.4499
8092,Bodø,NO,67.28,14.405
8093,Kjerringøy,NO,67.5167,14.7667
8095,Helligvær,NO,67.4167,13.9333
8096,Bliksvær,NO,67.2833,14
8097,Givær,NO,67.3029,13.7064
8098,Landegode,NO,67.4481,14.3808
8100,Misvær,NO,67.1167,15
8102,Skjerstad,NO,67.2327,15.0214
8103,Breivik I Salten,NO,67.2,15.1667
8108,Misvær,NO,67.1167,15
8501,Narvik,NO,68.4384,17.4272
8502,Narvik,NO,68.4384,17.4272
8503,Narvik,NO,68.4384,17.4272
8504,Narvik,NO,68.4384,17.4272
8505,Narvik,NO,68.4384,17.4272
8506,Narvik,NO,68.4384,17.4272
8507,Narvik,NO,68.4384,17.4272
8508,Narvik,NO,68.4384,17.4272
8509,Narvik,NO,68.4384,17.4272
8510,Narvik,NO,68.4384,17.4272
8512,Narvik,NO,68.4384,17.4272
8513,Ankenesstrand,NO,68.4167,17.3833
8514,Narvik,NO,68.4384,17.4272
8515,Narvik,NO,68.4384,17.4272
8516,Narvik,NO,68.4384,17.4272
8517,Narvik,NO,68.4384,17.4272
8518,Narvik,NO,68.4384,17.4272
8520,Ankenesstrand,NO,68.4167,17.3833
8522,Beisfjord,NO,68.3681,17.5889
8523,Elvegard,NO,68.25,17.4167
8530,Bjerkvik,NO,68.5597,17.5189
8531,Bjerkvik,NO,68.5597,17.5189
7980,Terråk,NO,65.087,12.3715
7981,Harangsfjord,NO,65.2711,12.429
7982,Bindalseidet,NO,65.1255,12.2311
8920,Sømna,NO,65.3167,12.1667
8921,Sømna,NO,65.3167,12.1667
8922,Sømna,NO,65.371,12.1979
8900,Brønnøysund,NO,65.4625,12.1997
8901,Brønnøysund,NO,65.4625,12.1997
8905,Brønnøysund,NO,65.4625,12.1997
8910,Brønnøysund,NO,65.4625,12.1997
8960,Hommelstø,NO,65.4072,12.552
8961,Hommelstø,NO,65.4072,12.552
8980,Vega,NO,65.6773,11.9614
8981,Vega,NO,65.6769,11.963
8985,Ylvingen,NO,65.6333,12.1833
8870,Visthus,NO,65.7333,12.6
8976,Vevelstad,NO,65.6978,12.4371
8842,Brasøy,NO,65.9113,12.1687
8844,Sandvær,NO,65.8951,11.9872
8850,Herøy,NO,65.9832,12.2885
8851,Herøy,NO,65.9828,12.288
8852,Herøy,NO,65.9613,12.2746
8800,Sandnessjøen,NO,66.0217,12.6316
8801,Sandnessjøen,NO,66.0217,12.6316
8805,Sandnessjøen,NO,66.0217,12.6316
8854,Austbø,NO,65.9333,12.35
8860,Tjøtta,NO,65.8333,12.4
8861,Tjøtta,NO,65.8333,12.4
8865,Tro,NO,65.7833,12.5167
8880,Bærøyvågen,NO,65.8694,12.6176
8890,Leirfjord,NO,66.05,12.9333
8891,Leirfjord,NO,66.05,12.9333
8892,Sundøy,NO,65.993,12.8505
8897,Bardal,NO,66.2167,13.4
8651,Mosjøen,NO,65.836,13.1908
8654,Mosjøen,NO,65.836,13.1908
8655,Mosjøen,NO,65.836,13.1908
8656,Mosjøen,NO,65.836,13.1908
8657,Mosjøen,NO,65.836,13.1908
8658,Mosjøen,NO,65.789,13.2168
8659,Mosjøen,NO,65.836,13.1908
8661,Mosjøen,NO,65.836,13.1908
8663,Mosjøen,NO,65.836,13.1908
8664,Mosjøen,NO,65.9765,13.2077
8665,Mosjøen,NO,65.836,13.1908
8672,Elsfjord,NO,66.1031,13.5481
8883,Husvika,NO,65.8333,12.6667
8680,Trofors,NO,65.5333,13.4063
8681,Trofors,NO,65.5333,13.4063
8690,Hattfjelldal,NO,65.5979,13.9842
8691,Hattfjelldal,NO,65.5979,13.9842
8813,Kopardal,NO,66.1429,12.7013
8820,Dønna,NO,66.1053,12.4902
8827,Dønna,NO,66.1089,12.4874
8830,Vandve,NO,66.1667,12.35
8700,Nesna,NO,66.1967,13.0213
8701,Nesna,NO,66.1967,13.0213
8720,Vikholmen,NO,66.1891,12.9532
8723,Husby,NO,66.2167,12.7667
8724,Saura,NO,66.2326,12.9886
8640,Hemnesberget,NO,66.2333,13.6333
8641,Hemnesberget,NO,66.2333,13.6333
8642,Finneidfjord,NO,66.1863,13.7912
8643,Bjerka,NO,66.15,13.8833
8646,Korgen,NO,66.0771,13.8153
8647,Bleikvasslia,NO,65.9,13.8167
8648,Korgen,NO,66.0771,13.8153
8601,Mo I Rana,NO,66.3128,14.1428
8602,Mo I Rana,NO,66.3128,14.1428
8603,Mo I Rana,NO,66.3128,14.1428
8604,Mo I Rana,NO,66.3128,14.1428
8607,Mo I Rana,NO,66.3128,14.1428
8608,Mo I Rana,NO,66.3128,14.1428
8610,Mo I Rana,NO,66.3128,14.1428
8613,Mo I Rana,NO,66.3128,14.1428
8614,Mo I Rana,NO,66.3128,14.1428
8615,Skonseng,NO,66.35,14.35
8616,Mo I Rana,NO,66.3128,14.1428
8617,Dalsgrenda,NO,66.2506,13.9848
8618,Mo I Rana,NO,66.3128,14.1428
8622,Mo I Rana,NO,66.3128,14.1428
8624,Mo I Rana,NO,66.3128,14.1428
8626,Mo I Rana,NO,66.3128,14.1428
8630,Storforshei,NO,66.4,14.5167
8634,Mo I Rana,NO,66.3128,14.1428
8638,Storforshei,NO,66.4,14.5167
8725,Utskarpen,NO,66.2833,13.6167
8726,Utskarpen,NO,66.2833,13.6167
8730,Bratland,NO,66.4,13.1667
8732,Aldra,NO,66.4,13.1
8733,Stuvland,NO,66.4167,13.05
8735,Stokkvågen,NO,66.3387,13.0039
8740,Nord-Solvær,NO,66.369,12.6406
8743,Indre Kvarøy,NO,66.4833,12.95
8750,Tonnes,NO,66.5167,13.0167
8752,Konsvikosen,NO,66.5,13.1
8753,Konsvikosen,NO,66.5,13.1
8762,Sleneset,NO,66.3627,12.6104
8764,Lovund,NO,66.3667,12.3833
8766,Lurøy,NO,66.4189,12.8425
8767,Lurøy,NO,66.4189,12.8425
8742,Selvær,NO,66.5833,12.25
8770,Træna,NO,66.5012,12.1015
8181,Myken,NO,66.75,12.4833
8182,Melfjordbotn,NO,66.5167,13.6833
8185,Vågaholmen,NO,66.7137,13.2871
8186,Tjongsfjorden,NO,66.6833,13.4667
8187,Jektvik,NO,66.6333,13.3
8188,Nordvernes,NO,66.6689,13.2812
8189,Gjersvikgrenda,NO,66.5314,13.0401
8190,Sørfjorden,NO,66.477,13.258
8193,Rødøy,NO,66.65,13.0833
8195,Gjerøy,NO,66.6164,13.0118
8196,Selsøyvik,NO,66.5732,12.98
8197,Storselsøy,NO,66.5569,12.8574
8198,Nordnesøy,NO,66.5963,12.6547
8754,Øresvik,NO,66.4667,13.2333
8146,Reipå,NO,66.9,13.65
8149,Neverdal,NO,66.8333,13.7667
8150,Ørnes,NO,66.8689,13.7078
8151,Ørnes,NO,66.8689,13.7078
8157,Meløy,NO,66.8232,13.4093
8158,Bolga,NO,66.8,13.2333
8159,Støtt,NO,66.9167,13.4667
8160,Glomfjord,NO,66.8,13.9333
8161,Glomfjord,NO,66.8,13.9333
8168,Engavågen,NO,66.7667,13.5
8170,Engavågen,NO,66.7667,13.5
8178,Halsa,NO,66.75,13.5833
8184,Ågskardet,NO,66.7167,13.4667
8094,Fleinvær,NO,67.157,13.6972
8120,Nygårdsjøen,NO,67.1167,14.3
8130,Sandhornøy,NO,67.1002,14.0221
8135,Sørarnøy,NO,67.1345,13.9698
8136,Nordarnøy,NO,67.1667,14.0167
8138,Inndyr,NO,67.0338,14.0276
8140,Inndyr,NO,67.0338,14.0276
8145,Storvik,NO,66.9667,13.8
8110,Moldjord,NO,66.9888,14.7586
8114,Tollå,NO,66.9189,14.7701
8118,Moldjord,NO,66.9888,14.7586
8128,Ytre Beiarn,NO,67.0727,14.5734
8250,Rognan,NO,67.0953,15.3878
8251,Rognan,NO,67.0953,15.3878
8255,Røkland,NO,66.9833,15.3167
8256,Røkland,NO,66.9833,15.3167
8200,Fauske,NO,67.2588,15.3918
8201,Fauske,NO,67.2588,15.3918
8202,Fauske,NO,67.2588,15.3918
8205,Fauske,NO,67.2588,15.3918
8206,Fauske,NO,67.2588,15.3918
8207,Fauske,NO,67.2588,15.3918
8208,Fauske,NO,67.2588,15.3918
8209,Fauske,NO,67.2588,15.3918
8210,Fauske,NO,67.2588,15.3918
8211,Fauske,NO,67.2588,15.3918
8214,Fauske,NO,67.2663,15.2734
8215,Valnesfjord,NO,67.2965,15.1642
8218,Fauske,NO,67.2991,15.4342
8219,Fauske,NO,67.2588,15.3918
8230,Sulitjelma,NO,67.15,16.05
8233,Valnesfjord,NO,67.2995,15.1861
8220,Røsvik,NO,67.4833,15.4667
8226,Straumen,NO,67.3477,15.6049
8232,Straumen,NO,67.3477,15.6049
8264,Engan,NO,67.5833,15.8167
8266,Mørsvikbotn,NO,67.7,15.85
8281,Leinesfjord,NO,67.75,15
8283,Leinesfjord,NO,67.75,15
8285,Leines,NO,67.7333,14.8
8286,Nordfold,NO,67.7667,15.2
8288,Bogøy,NO,67.8977,15.1831
8289,Våg,NO,67.9264,15.0115
8260,Innhavet,NO,67.9629,15.9282
8261,Innhavet,NO,67.963,15.9284
8276,Ulvsvåg,NO,68.1156,15.8667
8290,Skutvik,NO,68.0181,15.33
8291,Skutvik,NO,68.0181,15.33
8294,Hamarøy,NO,68.0852,15.6031
8297,Tranøy,NO,69.1706,17.7342
8298,Hamarøy,NO,68.0853,15.6108
8270,Drag,NO,68.044,16.082
8271,Drag,NO,68.044,16.082
8273,Nevervik,NO,68.1224,16.1062
8274,Musken,NO,67.8833,16.2167
8275,Storjord I Tysfjord,NO,67.9904,16.1269
8587,Storå,NO,68.0833,16.4
8590,Kjøpsvik,NO,68.097,16.3742
8591,Kjøpsvik,NO,68.097,16.3742
8410,Lødingen,NO,68.414,15.9951
8411,Lødingen,NO,68.414,15.9951
8412,Vestbygd,NO,68.3471,15.5069
9436,Kongsvik,NO,68.5667,16.25
9441,Fjelldal,NO,68.55,16.55
9442,Ramsund,NO,68.4833,16.5333
9443,Myklebostad,NO,68.427,16.3403
9444,Hol I Tjeldsund,NO,68.5917,16.7689
9448,Ramsund,NO,68.4833,16.5333
8533,Bogen I Ofoten,NO,68.5265,16.9928
8534,Liland,NO,68.4758,16.8828
8535,Tårstad,NO,68.4667,16.6167
8536,Evenes,NO,68.4588,16.6995
8539,Bogen I Ofoten,NO,68.5265,16.9928
8540,Ballangen,NO,68.3428,16.8315
8543,Kjeldebotn,NO,68.4011,16.6625
8546,Ballangen,NO,68.3428,16.8315
8064,Røst,NO,67.5058,12.0674
8063,Værøy,NO,67.6667,12.65
8380,Ramberg,NO,68.089,13.2318
8382,Napp,NO,68.1333,13.45
8384,Sund I Lofoten,NO,68.1038,13.3045
8387,Fredvang,NO,68.0863,13.1634
8388,Ramberg,NO,68.089,13.2318
8340,Stamsund,NO,68.1258,13.8053
8352,Sennesvik,NO,68.1167,13.7167
8357,Valberg,NO,68.1717,13.5653
8360,Bøstad,NO,68.25,13.7667
8370,Leknes,NO,68.1475,13.6115
8372,Gravdal,NO,68.1183,13.5534
8373,Ballstad,NO,68.0667,13.55
8375,Leknes,NO,68.1475,13.6115
8376,Leknes,NO,68.1475,13.6115
8377,Gravdal,NO,68.1214,13.5031
8378,Stamsund,NO,68.1258,13.8053
8300,Svolvær,NO,68.2342,14.5683
8301,Svolvær,NO,68.2342,14.5683
8305,Svolvær,NO,68.2342,14.5683
8309,Kabelvåg,NO,68.2114,14.4817
8310,Kabelvåg,NO,68.2114,14.4817
8311,Henningsvær,NO,68.15,14.2167
8312,Henningsvær,NO,68.15,14.2167
8313,Kleppstad,NO,68.2554,14.2729
8314,Gimsøysand,NO,68.3207,14.2413
8315,Laukvik,NO,68.39,14.4414
8316,Laupstad,NO,68.35,14.7333
8320,Skrova,NO,68.167,14.6609
8322,Brettesnes,NO,68.2333,14.8667
8323,Storfjell,NO,68.3286,15.1873
8324,Digermulen,NO,68.3167,15
8328,Storemolla,NO,68.2632,14.8433
8317,Strønstad,NO,68.4333,14.75
8325,Tengelfjord,NO,68.4222,15.1764
8326,Myrland,NO,68.4586,15.0694
8413,Kvitnes,NO,68.5833,15.2333
8414,Hennes,NO,68.5333,15.2167
8445,Melbu,NO,68.5044,14.8297
8447,Lonkan,NO,68.5167,15.2667
8450,Stokmarknes,NO,68.5646,14.9108
8455,Stokmarknes,NO,68.5646,14.9108
8459,Melbu,NO,68.5044,14.8297
8465,Straumsjøen,NO,68.6887,14.4719
8469,Bø I Vesterålen,NO,68.6167,14.55
8470,Bø I Vesterålen,NO,68.6167,14.55
8475,Straumsjøen,NO,68.6888,14.472
8408,Sandset,NO,68.7931,14.9617
8426,Barkestad,NO,68.8173,14.8072
8428,Tunstad,NO,68.8746,14.9074
8430,Myre,NO,68.9152,15.0716
8432,Alsvåg,NO,68.9,15.2833
8438,Stø,NO,69.0167,15.1333
8439,Myre,NO,68.9152,15.0716
8400,Sortland,NO,68.6949,15.4162
8401,Sortland,NO,68.6949,15.4162
8405,Sortland,NO,68.6949,15.4162
8407,Godfjord,NO,68.771,15.9209
8480,Andenes,NO,69.3143,16.1194
8481,Bleik,NO,69.2831,15.9983
8483,Andenes,NO,69.3143,16.1194
8484,Risøyhamn,NO,68.9667,15.6333
8485,Dverberg,NO,69.1186,15.9808
8488,Nøss,NO,69.0833,15.5667
8489,Nordmela,NO,69.1346,15.6742
8493,Risøyhamn,NO,68.9667,15.6333
8390,Reine,NO,67.9325,13.0895
8392,Sørvågen,NO,67.8833,13.0333
8393,Sørvågen,NO,67.8833,13.0333
8398,Reine,NO,67.9325,13.0895
9402,Harstad,TR,68.8239,16.402
9403,Harstad,TR,68.7983,16.5417
9404,Harstad,TR,68.7983,16.5417
9405,Harstad,TR,68.7983,16.5417
9406,Harstad,TR,68.7983,16.5417
9407,Harstad,TR,68.7983,16.5417
9408,Harstad,TR,68.7983,16.5417
9409,Harstad,TR,68.7983,16.5417
9411,Harstad,TR,68.7983,16.5417
9414,Harstad,TR,68.7983,16.5417
9415,Harstad,TR,68.7457,16.558
9419,Sørvik,TR,68.6842,16.5358
9420,Lundenes,TR,68.9,16.5667
9423,Grøtavær,TR,68.9661,16.2781
9424,Kjøtta,TR,68.8747,16.6956
9430,Sandtorg,TR,68.6841,16.5359
9479,Harstad,TR,68.7983,16.5417
9480,Harstad,TR,68.7983,16.5417
9481,Harstad,TR,68.7983,16.5417
9482,Harstad,TR,68.7983,16.5417
9483,Harstad,TR,68.7983,16.5417
9484,Harstad,TR,68.7983,16.5417
9485,Harstad,TR,68.7983,16.5417
9486,Harstad,TR,68.7983,16.5417
9487,Harstad,TR,68.7983,16.5417
9488,Harstad,TR,68.7983,16.5417
9489,Harstad,TR,68.7983,16.5417
9496,Harstad,TR,68.7983,16.5417
9497,Harstad,TR,68.7983,16.5417
9498,Harstad,TR,68.7983,16.5417
9499,Harstad,TR,68.7983,16.5417
9006,Tromsø,TR,69.6489,18.9551
9007,Tromsø,TR,69.6489,18.9551
9008,Tromsø,TR,69.6489,18.9551
9009,Tromsø,TR,69.6489,18.9551
9010,Tromsø,TR,69.6489,18.9551
9011,Tromsø,TR,69.6489,18.9551
9012,Tromsø,TR,69.6489,18.9551
9013,Tromsø,TR,69.6399,18.902
9014,Tromsø,TR,69.6489,18.9551
9015,Tromsø,TR,69.6489,18.9551
9016,Tromsø,TR,69.6489,18.9551
9017,Tromsø,TR,69.7007,18.9765
9018,Tromsø,TR,69.6952,19.0013
9019,Tromsø,TR,69.685,18.9922
9020,Tromsdalen,TR,69.65,19.0167
9022,Krokelvdalen,TR,69.6841,19.0721
9024,Tomasjord,TR,69.6667,19.0167
9027,Ramfjordbotn,TR,69.5667,19.2
9030,Sjursnes,TR,69.5333,19.65
9034,Oldervik,TR,69.75,19.6833
9037,Tromsø,TR,69.6489,18.9551
9038,Tromsø,TR,69.6489,18.9551
9043,Jøvik,TR,69.6,19.8333
9057,Vikran,TR,69.55,18.8
9100,Kvaløysletta,TR,69.6958,18.8831
9103,Skulsfjord,TR,69.8008,18.7581
9106,Straumsbukta,TR,69.5717,18.6534
9107,Tromvik,TR,69.7786,18.4014
9110,Sommarøy,TR,69.6331,18.0086
9118,Brensholmen,TR,69.6331,18.0086
9119,Sommarøy,TR,69.6331,18.0086
9120,Vengsøy,TR,69.8359,18.5771
9128,Tussøy,TR,69.647,18.1346
9131,Kårvik,TR,69.8667,18.9333
9141,Mjølvik,TR,70.033,18.5596
9251,Tromsø,TR,69.6489,18.9551
9252,Tromsø,TR,69.6489,18.9551
9253,Tromsø,TR,69.6489,18.9551
9254,Tromsø,TR,69.6489,18.9551
9255,Tromsø,TR,69.6489,18.9551
9256,Tromsø,TR,69.6489,18.9551
9257,Tromsø,TR,69.6489,18.9551
9258,Tromsø,TR,69.6489,18.9551
9259,Tromsø,TR,69.6489,18.9551
9260,Tromsø,TR,69.6489,18.9551
9261,Tromsø,TR,69.6489,18.9551
9262,Tromsø,TR,69.6489,18.9551
9263,Tromsø,TR,69.6489,18.9551
9265,Tromsø,TR,69.6489,18.9551
9266,Tromsø,TR,69.6489,18.9551
9267,Tromsø,TR,69.6489,18.9551
9268,Tromsø,TR,69.6489,18.9551
9269,Tromsø,TR,69.6489,18.9551
9270,Tromsø,TR,69.6489,18.9551
9271,Tromsø,TR,69.6489,18.9551
9272,Tromsø,TR,69.6489,18.9551
9273,Tromsø,TR,69.6489,18.9551
9274,Tromsø,TR,69.6999,18.9736
9275,Tromsø,TR,69.685,19.0035
9276,Tromsø,TR,69.685,19.0035
9277,Tromsø,TR,69.685,19.0035
9278,Tromsø,TR,69.6489,18.9551
9279,Tromsø,TR,69.6909,18.8634
9280,Tromsø,TR,69.6909,18.8634
9281,Tromsø,TR,69.6909,18.8634
9282,Tromsø,TR,69.6772,18.7478
9283,Tromsø,TR,69.6489,18.9551
9284,Tromsø,TR,69.6489,18.9551
9285,Tromsø,TR,69.6489,18.9551
9286,Tromsø,TR,69.6489,18.9551
9287,Tromsø,TR,69.6666,19.0218
9288,Tromsø,TR,69.6841,19.0715
9290,Tromsø,TR,69.6489,18.9551
9291,Tromsø,TR,69.6549,19.0112
9292,Tromsø,TR,69.6489,18.9551
9293,Tromsø,TR,69.6489,18.9551
9294,Tromsø,TR,69.6489,18.9551
9296,Tromsø,TR,69.6489,18.9551
9297,Tromsø,TR,69.6489,18.9551
9298,Tromsø,TR,69.6489,18.9551
9299,Tromsø,TR,69.6489,18.9551
8409,Gullesfjord,TR,68.5356,15.7515
9475,Borkenes,TR,68.774,16.1739
9476,Borkenes,TR,68.774,16.1739
9439,Evenskjer,TR,68.5849,16.5755
9440,Evenskjer,TR,68.5849,16.5755
9445,Tovik,TR,68.6736,16.89
9446,Grovfjord,TR,68.6833,17.15
9447,Grovfjord,TR,68.6833,17.15
9425,Sandsøy,TR,68.95,16.6667
9426,Bjarkøy,TR,68.9999,16.5639
9427,Meløyvær,TR,69.0728,16.5047
9450,Hamnvik,TR,68.7783,17.1746
9451,Hamnvik,TR,68.7783,17.1746
9453,Kråkrøhamn,TR,68.8343,17.3794
9454,Ånstad,TR,68.8206,17.1992
9455,Engenes,TR,68.9211,17.135
9470,Gratangen,TR,68.6903,17.5422
9471,Gratangen,TR,68.6922,17.5324
9357,Tennevoll,TR,68.75,17.8
9358,Tennevoll,TR,68.75,17.8
9360,Bardu,TR,68.8586,18.3472
9365,Bardu,TR,68.8586,18.3472
9350,Sjøvegan,TR,68.8726,17.8474
9355,Sjøvegan,TR,68.8726,17.8474
9321,Moen,TR,69.1304,18.6123
9322,Karlstad,TR,69.2167,18.5
9325,Bardufoss,TR,69.0645,18.5151
9326,Bardufoss,TR,69.0646,18.5116
9329,Moen,TR,69.1304,18.6123
9334,Øverbygd,TR,69.0167,19.3
9335,Øverbygd,TR,69.0167,19.3
9336,Rundhaug,TR,69.0333,18.9
9310,Sørreisa,TR,69.1453,18.1529
9315,Sørreisa,TR,69.1453,18.1529
9311,Brøstadbotn,TR,69.0887,17.6949
9316,Brøstadbotn,TR,69.0887,17.6949
9304,Vangsvik,TR,69.1706,17.7342
9376,Skatvik,TR,69.1667,17.6
9391,Stonglandseidet,TR,69.0833,17.1833
9392,Stonglandseidet,TR,69.0833,17.1833
9379,Gryllefjord,TR,69.363,17.0528
9380,Gryllefjord,TR,69.363,17.0528
9381,Torsken,TR,69.3333,17.1
9393,Flakstadvåg,TR,69.1902,17.033
9395,Kaldfarnes,TR,69.2839,17.0028
9384,Skaland,TR,69.4446,17.2983
9385,Skaland,TR,69.4446,17.2983
9386,Senjahopen,TR,69.4981,17.4916
9387,Senjahopen,TR,69.4967,17.4901
9300,Finnsnes,TR,69.2296,17.9811
9302,Rossfjordstraumen,TR,69.3628,18.3175
9303,Silsand,TR,69.2148,17.9194
9305,Finnsnes,TR,69.2296,17.9811
9306,Finnsnes,TR,69.2296,17.9811
9370,Silsand,TR,69.2426,17.9491
9372,Gibostad,TR,69.35,18.0667
9373,Botnhamn,TR,69.5167,17.9
9382,Gibostad,TR,69.35,18.0667
9388,Fjordgard,TR,69.5056,17.6291
9389,Husøy I Senja,TR,69.3871,17.3632
9040,Nordkjosbotn,TR,69.2167,19.5667
9042,Laksvatn,TR,69.3833,19.3667
9049,Nordkjosbotn,TR,69.2167,19.5667
9050,Storsteinnes,TR,69.2401,19.2255
9055,Meistervik,TR,69.3281,18.9196
9056,Mortenhals,TR,69.3996,18.5968
9059,Storsteinnes,TR,69.2397,19.227
9130,Hansnes,TR,69.9624,19.6186
9132,Stakkvik,TR,69.9667,19.7
9134,Hansnes,TR,69.9624,19.6186
9135,Vannvåg,TR,70.0667,20
9136,Vannareid,TR,70.2,19.6167
9137,Vannvåg,TR,70.0667,20
9138,Karlsøy,TR,70.0167,19.9
9140,Rebbenes,TR,70.0667,18.95
9060,Lyngseidet,TR,69.5763,20.2189
9062,Furuflaten,TR,69.4408,20.1558
9064,Svensby,TR,69.6667,19.8333
9068,Nord-Lenangen,TR,69.9083,20.1612
9069,Lyngseidet,TR,69.5763,20.2189
9046,Oteren,TR,69.2667,19.9
9142,Skibotn,TR,69.4,20.2667
9143,Skibotn,TR,69.4,20.2667
9144,Samuelsberg,TR,69.55,20.5333
9146,Olderdalen,TR,69.6041,20.5327
9147,Birtavarre,TR,69.4938,20.8321
9148,Olderdalen,TR,69.6041,20.5327
9180,Skjervøy,TR,70.0311,20.9714
9187,Valanhamn,TR,69.95,21.5333
9189,Skjervøy,TR,70.0311,20.9714
9190,Akkarvik,TR,70.0667,20.5
9192,Arnøyhamn,TR,70.0667,20.6667
9193,Nikkeby,TR,70.0667,20.8333
9194,Lauksletta,TR,70.1167,20.7667
9195,Årviksand,TR,70.2,20.5333
9197,Uløybukt,TR,69.8667,20.7
9151,Storslett,TR,69.7678,21.0247
9152,Sørkjosen,TR,69.8,20.9333
9153,Rotsund,TR,69.7833,20.6
9156,Storslett,TR,69.7678,21.0247
9159,Havnnes,TR,69.7833,20.5667
9181,Hamneidet,TR,69.9333,20.9667
9161,Burfjord,TR,69.938,22.0521
9162,Sørstraumen,TR,69.8402,21.8679
9163,Jøkelfjord,TR,70.0604,21.8696
9169,Burfjord,TR,69.938,22.0521
9182,Seglvik,TR,70.2167,21.2
9184,Reinfjord,TR,70.1018,21.5997
9185,Spildra,TR,69.9962,21.6822
9186,Andsnes,TR,70.2358,21.2366
9950,Vardø,FI,70.3705,31.1107
9951,Vardø,FI,70.3705,31.1107
9960,Kiberg,FI,70.2833,31
9800,Vadsø,FI,70.0744,29.7487
9802,Vestre Jakobselv,FI,70.1115,29.3335
9810,Vestre Jakobselv,FI,70.1107,29.3339
9811,Vadsø,FI,70.0744,29.7487
9815,Vadsø,FI,70.0744,29.7487
9600,Hammerfest,FI,70.6634,23.6821
9609,Nordre Seiland,FI,70.5445,23.1483
9610,Rypefjord,FI,70.6333,23.6667
9613,Hammerfest,FI,70.6634,23.6821
9615,Hammerfest,FI,70.6634,23.6821
9616,Hammerfest,FI,70.6634,23.6821
9650,Akkarfjord,FI,70.7833,23.45
9657,Kårhamn,FI,70.5445,23.1483
9664,Sandøybotn,FI,70.6725,23.0038
9520,Kautokeino,FI,69.0125,23.0412
9521,Kautokeino,FI,69.0115,23.0416
9525,Maze,FI,69.4429,23.6642
9501,Alta,FI,69.9689,23.2717
9502,Alta,FI,69.9689,23.2717
9503,Alta,FI,69.9689,23.2717
9504,Alta,FI,69.9689,23.2717
9505,Alta,FI,69.9689,23.2717
9506,Alta,FI,69.9689,23.2717
9507,Alta,FI,69.9737,23.3614
9508,Alta,FI,69.9737,23.3614
9509,Alta,FI,69.9761,23.3407
9510,Alta,FI,69.9689,23.2717
9511,Alta,FI,69.9689,23.2717
9512,Alta,FI,69.9519,23.2216
9513,Alta,FI,69.9689,23.2717
9514,Alta,FI,69.9655,23.3229
9515,Alta,FI,69.9775,23.3659
9516,Alta,FI,69.9576,23.3798
9517,Alta,FI,69.9528,23.4739
9518,Alta,FI,69.8989,23.2086
9519,Kviby,FI,70.1189,23.3908
9531,Kvalfjord,FI,70.3161,22.8772
9532,Hakkstabben,FI,70.2811,23.1142
9533,Kongshus,FI,70.1432,23.2677
9536,Korsfjorden,FI,70.2474,23.3861
9540,Talvik,FI,70.0442,22.9514
9545,Langfjordbotn,FI,70.0397,22.2578
9550,Øksfjord,FI,70.2396,22.3479
9551,Øksfjord,FI,70.2396,22.3479
9580,Bergsfjord,FI,70.2496,21.7909
9582,Nuvsvåg,FI,70.2667,22.15
9583,Langfjordhamn,FI,70.1333,21.8667
9584,Sør-Tverrfjord,FI,70.2167,21.7
9585,Sandland,FI,70.2667,21.6
9586,Loppa,FI,70.2396,22.3479
9587,Skavnakk,FI,70.236,21.4223
9590,Hasvik,FI,70.4868,22.159
9593,Breivikbotn,FI,70.5887,22.2849
9595,Sørvær,FI,70.6333,21.9833
9620,Kvalsund,FI,70.5027,23.9797
9621,Kvalsund,FI,70.5027,23.9797
9624,Revsneshamn,FI,70.6811,24.3531
9715,Kokelv,FI,70.6122,24.6392
9670,Tufjord,FI,70.9918,24.1289
9672,Ingøy,FI,71.0836,24.0562
9690,Havøysund,FI,70.9963,24.6622
9691,Havøysund,FI,70.9963,24.6622
9692,Måsøy,FI,71.0106,24.9808
9714,Snefjord,FI,70.7894,24.6111
9750,Honningsvåg,FI,70.9821,25.9704
9751,Honningsvåg,FI,70.9821,25.9704
9760,Nordvågen,FI,70.9833,26.0333
9763,Skarsvåg,FI,71.1141,25.8333
9764,Nordkapp,FI,71.1693,25.7828
9765,Gjesvær,FI,71.0999,25.3776
9768,Repvåg,FI,70.75,25.6833
9700,Lakselv,FI,70.0513,24.9718
9709,Porsangmoen,FI,69.9024,24.9999
9710,Indre Billefjord,FI,70.3167,25.0667
9711,Lakselv,FI,70.0513,24.9718
9712,Lakselv,FI,70.0513,24.9718
9713,Russenes,FI,70.5,25.0667
9716,Børselv,FI,70.3183,25.5475
9722,Skoganvarre,FI,69.8333,25.1
9730,Karasjok,FI,69.4719,25.5112
9735,Karasjok,FI,69.4719,25.5112
9717,Veidnesklubben,FI,70.657,26.5907
9740,Lebesby,FI,70.5667,27.0167
9742,Kunes,FI,70.3463,26.5043
9782,Dyfjord,FI,70.8984,27.2252
9790,Kjøllefjord,FI,70.9457,27.3465
9770,Mehamn,FI,71.0357,27.8492
9771,Skjånes,FI,70.8007,28.1025
9772,Langfjordnes,FI,70.7167,28.0667
9773,Nervei,FI,70.6674,27.8514
9775,Gamvik,FI,71.05,28.2333
9980,Berlevåg,FI,70.8578,29.0864
9981,Berlevåg,FI,70.8578,29.0864
9982,Kongsfjord,FI,70.7167,29.3167
9826,Sirma,FI,70.0145,27.3985
9845,Tana,FI,70.1998,28.1808
9846,Tana,FI,70.1986,28.187
9820,Varangerbotn,FI,70.1728,28.556
9840,Varangerbotn,FI,70.1728,28.556
9990,Båtsfjord,FI,70.6345,29.7185
9991,Båtsfjord,FI,70.6345,29.7185
9900,Kirkenes,FI,69.7271,30.0458
9910,Bjørnevatn,FI,69.6672,29.9847
9912,Hesseng,FI,69.6971,30.0153
9914,Bjørnevatn,FI,69.6672,29.9847
9915,Kirkenes,FI,69.7271,30.0458
9916,Hesseng,FI,69.6971,30.0153
9917,Kirkenes,FI,69.7271,30.0458
9925,Svanvik,FI,69.4597,30.0361
9930,Neiden,FI,69.6942,29.3833
9935,Bugøynes,FI,69.9739,29.6378
